[
  {
    "id": "way/230913203",
    "name_ja": "（仮称）西馬込駅西口庁舎",
    "lat": 35.5874365,
    "lng": 139.706096
  },
  {
    "id": "way/235776597",
    "name_ja": "（仮称）西馬込駅南口庁舎",
    "lat": 35.5860008,
    "lng": 139.7056252
  },
  {
    "id": "node/11937475031",
    "name_ja": "Boathouse",
    "lat": 35.6292375,
    "lng": 139.8791925
  },
  {
    "id": "node/10271389399",
    "name_ja": "Hi-NODE",
    "lat": 35.6516307,
    "lng": 139.7607112
  },
  {
    "id": "node/8862109355",
    "name_ja": "IKEBUS 東池袋駅",
    "lat": 35.7261364,
    "lng": 139.7186703
  },
  {
    "id": "node/4536777489",
    "name_ja": "JR高速バスのりば",
    "name_en": "Tokyo Station JR Express Bus Terminal",
    "lat": 35.6797924,
    "lng": 139.7680596
  },
  {
    "id": "node/2364172566",
    "name_ja": "Jungle Cruise Dock",
    "name_en": "Jungle Cruise",
    "lat": 35.6337392,
    "lng": 139.882499
  },
  {
    "id": "node/11998956350",
    "name_ja": "Mark Twain Riverboat",
    "name_en": "Mark Twain Riverboat",
    "lat": 35.6315467,
    "lng": 139.8830878
  },
  {
    "id": "node/5843991686",
    "name_ja": "THEアクセス成田",
    "name_en": "THE Access Narita",
    "lat": 35.6730368,
    "lng": 139.7637189
  },
  {
    "id": "Q11542854",
    "name_ja": "YCAT",
    "name_en": "Yokohama City Air terminal",
    "lat": 35.464834,
    "lng": 139.6249266
  },
  {
    "id": "Q8046018",
    "name_ja": "YRP野比",
    "name_en": "YRP Nobi",
    "lat": 35.2121005,
    "lng": 139.6849914
  },
  {
    "id": "way/355665422",
    "name_ja": "YRP野比駅",
    "lat": 35.2116135,
    "lng": 139.6848991
  },
  {
    "id": "Q852232",
    "name_ja": "あざみ野",
    "name_en": "Azamino",
    "lat": 35.5686778,
    "lng": 139.5534305
  },
  {
    "id": "node/12633342047",
    "name_ja": "アビタシオン千葉",
    "lat": 35.5656405,
    "lng": 140.181246
  },
  {
    "id": "node/12346011981",
    "name_ja": "あみ清乗船場",
    "lat": 35.7100651,
    "lng": 139.7981803
  },
  {
    "id": "node/7915679628",
    "name_ja": "アメリカンウォーターフロント",
    "name_en": "American Waterfront",
    "lat": 35.6243216,
    "lng": 139.8857837
  },
  {
    "id": "Q50437130",
    "name_ja": "アメリカンウォーターフロント・ステーション",
    "name_en": "American Waterfront",
    "lat": 35.6248634,
    "lng": 139.8877946
  },
  {
    "id": "node/7937404969",
    "name_ja": "イオンモール",
    "lat": 35.7459363,
    "lng": 139.3834572
  },
  {
    "id": "node/12720408739",
    "name_ja": "イオンモール座間",
    "lat": 35.5017287,
    "lng": 139.4252069
  },
  {
    "id": "Q6102271",
    "name_ja": "いずみ中央",
    "name_en": "Izumi-Chuo",
    "lat": 35.4151156,
    "lng": 139.4872659
  },
  {
    "id": "Q6102365",
    "name_ja": "いずみ野",
    "name_en": "Izumino",
    "lat": 35.429465,
    "lng": 139.4949527
  },
  {
    "id": "node/859663338",
    "name_ja": "ウエスタンリバー鉄道",
    "lat": 35.6337187,
    "lng": 139.8823855
  },
  {
    "id": "node/11934878007",
    "name_ja": "ヴェネツィアン・ゴンドラ",
    "name_en": "Venetian Gondolas",
    "lat": 35.626147,
    "lng": 139.8879186
  },
  {
    "id": "node/8406696821",
    "name_ja": "ウォーターズ竹芝前",
    "lat": 35.6569486,
    "lng": 139.7630061
  },
  {
    "id": "Q7116390",
    "name_ja": "おゆみ野",
    "name_en": "Oyumino",
    "lat": 35.5500759,
    "lng": 140.1661277
  },
  {
    "id": "Q7080614",
    "name_ja": "お花茶屋",
    "name_en": "Ohanajaya",
    "lat": 35.7475893,
    "lng": 139.8401447
  },
  {
    "id": "Q858883",
    "name_ja": "お台場海浜公園",
    "name_en": "Odaiba-kaihinkoen",
    "lat": 35.6298721,
    "lng": 139.7787386
  },
  {
    "id": "Q6374358",
    "name_ja": "かしわ台",
    "name_en": "Kashiwadai",
    "lat": 35.4667081,
    "lng": 139.4153179
  },
  {
    "id": "node/12633342017",
    "name_ja": "こども病院",
    "lat": 35.5578335,
    "lng": 140.1910883
  },
  {
    "id": "node/12633342021",
    "name_ja": "ゴルフ場入口",
    "lat": 35.5624211,
    "lng": 140.1858312
  },
  {
    "id": "Q801393",
    "name_ja": "さいたま新都心",
    "name_en": "Saitama-Shintoshin",
    "lat": 35.8936374,
    "lng": 139.6339481
  },
  {
    "id": "way/815909768",
    "name_ja": "さいたま新都心バスターミナル",
    "name_en": "Saitama-Shintoshin Bus Terminal",
    "lat": 35.8930368,
    "lng": 139.637769
  },
  {
    "id": "Q7398969",
    "name_ja": "さがみ野",
    "name_en": "Sagamino",
    "lat": 35.4715574,
    "lng": 139.4285691
  },
  {
    "id": "way/1091397949",
    "name_ja": "サンシャインバスターミナル",
    "name_en": "Sunshine Bus Terminal",
    "lat": 35.7283967,
    "lng": 139.7206202
  },
  {
    "id": "Q7651185",
    "name_ja": "すずかけ台",
    "name_en": "Suzukakedai",
    "lat": 35.5169105,
    "lng": 139.4814366
  },
  {
    "id": "Q4268568",
    "name_ja": "スポーツセンター",
    "name_en": "Sports Center",
    "lat": 35.6432352,
    "lng": 140.1161569
  },
  {
    "id": "Q842516",
    "name_ja": "せんげん台",
    "name_en": "Sengendai",
    "lat": 35.9358561,
    "lng": 139.7744756
  },
  {
    "id": "Q844629",
    "name_ja": "センター南",
    "name_en": "Center Minami",
    "lat": 35.5452895,
    "lng": 139.5746375
  },
  {
    "id": "Q847363",
    "name_ja": "センター北",
    "name_en": "Center Kita",
    "lat": 35.5534049,
    "lng": 139.5782611
  },
  {
    "id": "Q3299307",
    "name_ja": "たまプラーザ",
    "name_en": "Tama-plaza",
    "lat": 35.5775269,
    "lng": 139.5588739
  },
  {
    "id": "node/2498042837",
    "name_ja": "たまプラーザ駅",
    "lat": 35.578026,
    "lng": 139.558761
  },
  {
    "id": "node/3162565033",
    "name_ja": "ダム下 山麓",
    "lat": 35.5416373,
    "lng": 139.2500205
  },
  {
    "id": "Q5097270",
    "name_ja": "ちはら台",
    "name_en": "Chiharadai",
    "lat": 35.5338295,
    "lng": 140.1702772
  },
  {
    "id": "way/1164772508",
    "name_ja": "ツインシティ大神",
    "name_en": "Twincity Ookami",
    "lat": 35.3927013,
    "lng": 139.3675184
  },
  {
    "id": "Q7850073",
    "name_ja": "つきみ野",
    "name_en": "Tsukimino",
    "lat": 35.5103897,
    "lng": 139.4582718
  },
  {
    "id": "Q7850118",
    "name_ja": "つくし野",
    "name_en": "Tsukushino",
    "lat": 35.5276368,
    "lng": 139.4851103
  },
  {
    "id": "Q841913",
    "name_ja": "つつじヶ丘",
    "name_en": "Tsutsujigaoka",
    "lat": 35.6580672,
    "lng": 139.5752432
  },
  {
    "id": "Q859177",
    "name_ja": "テレコムセンター",
    "name_en": "Telecom Center",
    "lat": 35.6175656,
    "lng": 139.7794436
  },
  {
    "id": "Q900250",
    "name_ja": "とうきょうスカイツリー",
    "name_en": "TOKYO SKYTREE",
    "lat": 35.7106916,
    "lng": 139.8110139
  },
  {
    "id": "Q7813626",
    "name_ja": "ときわ台",
    "name_en": "Tokiwadai",
    "lat": 35.7589153,
    "lng": 139.6885362
  },
  {
    "id": "node/2713535212",
    "name_ja": "トムソーヤ島いかだ",
    "name_en": "Tom Sawyer Island Rafts",
    "lat": 35.6319288,
    "lng": 139.8837474
  },
  {
    "id": "node/12119893252",
    "name_ja": "トムの船着き場",
    "lat": 35.6317048,
    "lng": 139.8844737
  },
  {
    "id": "way/219725781",
    "name_ja": "ニュータウン南瀬谷",
    "lat": 35.4504915,
    "lng": 139.4796363
  },
  {
    "id": "Q60986490",
    "name_ja": "バァスル海老名",
    "name_en": "Bustle Ebina",
    "lat": 35.4476865,
    "lng": 139.3934115
  },
  {
    "id": "way/72239510",
    "name_ja": "バスターミナル・イースト",
    "name_en": "Bus Terminal East",
    "lat": 35.6361923,
    "lng": 139.8810827
  },
  {
    "id": "way/1028564325",
    "name_ja": "バスターミナル・ウエスト",
    "name_en": "Bus Terminal West",
    "lat": 35.6332227,
    "lng": 139.8763414
  },
  {
    "id": "way/659417313",
    "name_ja": "バスターミナル・サウス",
    "name_en": "Bus Terminal South",
    "lat": 35.6256689,
    "lng": 139.8900848
  },
  {
    "id": "way/271934559",
    "name_ja": "バスターミナル・ノース",
    "name_en": "Bus Terminal North",
    "lat": 35.628906,
    "lng": 139.8879403
  },
  {
    "id": "Q22123549",
    "name_ja": "バスタ新宿",
    "name_en": "Shinjuku Expressway Bus Terminal",
    "lat": 35.6885224,
    "lng": 139.700912
  },
  {
    "id": "way/624763043",
    "name_ja": "バス折り返し用回転場",
    "lat": 35.4395803,
    "lng": 139.3281679
  },
  {
    "id": "Q4496149",
    "name_ja": "はるひ野",
    "name_en": "Haruhino",
    "lat": 35.6188401,
    "lng": 139.4646185
  },
  {
    "id": "node/12001756387",
    "name_ja": "ビーバーブラザーズのカヌー探険",
    "name_en": "Beaver Brothers Explorer Canoes",
    "lat": 35.6309898,
    "lng": 139.8838289
  },
  {
    "id": "Q8016226",
    "name_ja": "ひばりヶ丘",
    "name_en": "Hibarigaoka",
    "lat": 35.7515231,
    "lng": 139.5455333
  },
  {
    "id": "node/8039686514",
    "name_ja": "ひばりヶ丘駅",
    "lat": 35.7513738,
    "lng": 139.5450558
  },
  {
    "id": "Q5507442",
    "name_ja": "ふじみ野",
    "name_en": "Fujimino",
    "lat": 35.8608406,
    "lng": 139.523107
  },
  {
    "id": "Q5368692",
    "name_ja": "ベイサイド・ステーション",
    "name_en": "Bay Side Station",
    "lat": 35.6278844,
    "lng": 139.8763686
  },
  {
    "id": "Q50437418",
    "name_ja": "ポートディスカバリー・ステーション",
    "name_en": "Port Discovery Station",
    "lat": 35.625393,
    "lng": 139.8830972
  },
  {
    "id": "Q6884805",
    "name_ja": "みずほ台",
    "name_en": "Mizuhodai",
    "lat": 35.8382203,
    "lng": 139.5508611
  },
  {
    "id": "Q6883389",
    "name_ja": "みつわ台",
    "name_en": "Mitsuwadai",
    "lat": 35.6387515,
    "lng": 140.1347843
  },
  {
    "id": "Q6842906",
    "name_ja": "みどり台",
    "name_en": "Midoridai",
    "lat": 35.6248017,
    "lng": 140.0977059
  },
  {
    "id": "Q3299269",
    "name_ja": "みなとみらい",
    "name_en": "Minatomirai",
    "lat": 35.4572327,
    "lng": 139.6328453
  },
  {
    "id": "node/304559233",
    "name_ja": "みなとみらい ぷかり桟橋",
    "name_en": "Pukarisanbashi Pier",
    "lat": 35.4580126,
    "lng": 139.6387627
  },
  {
    "id": "Q6869225",
    "name_ja": "みのり台",
    "name_en": "Minoridai",
    "lat": 35.7892922,
    "lng": 139.9292041
  },
  {
    "id": "Q6810499",
    "name_ja": "めじろ台",
    "name_en": "Mejirodai",
    "lat": 35.6434031,
    "lng": 139.30772
  },
  {
    "id": "node/7234579305",
    "name_ja": "めじろ台駅",
    "lat": 35.6434729,
    "lng": 139.3072616
  },
  {
    "id": "node/7915679627",
    "name_ja": "メディテレーニアンハーバー",
    "name_en": "Mediterranean Harbor",
    "lat": 35.6264823,
    "lng": 139.8859334
  },
  {
    "id": "node/6057804601",
    "name_ja": "モノレール浜松町",
    "name_en": "Monorail Hamamatsucho",
    "lat": 35.6554012,
    "lng": 139.7567283
  },
  {
    "id": "Q8062735",
    "name_ja": "ユーカリが丘",
    "name_en": "Yukarigaoka",
    "lat": 35.7217309,
    "lng": 140.1563758
  },
  {
    "id": "Q5367513",
    "name_ja": "ゆめが丘",
    "name_en": "Yumegaoka",
    "lat": 35.4057234,
    "lng": 139.4824589
  },
  {
    "id": "Q11280891",
    "name_ja": "ゆめみ野",
    "name_en": "Yumemino",
    "lat": 35.9210552,
    "lng": 140.0352172
  },
  {
    "id": "node/2849899175",
    "name_ja": "よこはま動物園",
    "lat": 35.4947275,
    "lng": 139.5271314
  },
  {
    "id": "node/2602093053",
    "name_ja": "よみうりランド",
    "name_en": "Yomiuri Land",
    "lat": 35.6247065,
    "lng": 139.5158843
  },
  {
    "id": "Q8014465",
    "name_ja": "リゾートゲートウェイ・ステーション",
    "name_en": "Resort Gateway Station",
    "lat": 35.6352628,
    "lng": 139.8851168
  },
  {
    "id": "node/7915679626",
    "name_ja": "ロストリバーデルタ",
    "name_en": "Lost River Delta",
    "lat": 35.6268061,
    "lng": 139.8818041
  },
  {
    "id": "way/1115506141",
    "name_ja": "ワンマンバス折返し場",
    "lat": 35.4559524,
    "lng": 139.3043718
  },
  {
    "id": "Q800402",
    "name_ja": "阿佐ケ谷",
    "name_en": "Asagaya",
    "lat": 35.7048403,
    "lng": 139.6354724
  },
  {
    "id": "Q1107009",
    "name_ja": "愛甲石田",
    "name_en": "Aiko-Ishida",
    "lat": 35.4176172,
    "lng": 139.3439291
  },
  {
    "id": "way/524036279",
    "name_ja": "愛甲石田駅連絡所",
    "lat": 35.417647,
    "lng": 139.3439587
  },
  {
    "id": "way/1377798542",
    "name_ja": "愛甲石田日産バスターミナル",
    "lat": 35.4202619,
    "lng": 139.3429522
  },
  {
    "id": "node/2619402893",
    "name_ja": "愛川バスセンター",
    "lat": 35.5298607,
    "lng": 139.3201387
  },
  {
    "id": "Q4812646",
    "name_ja": "愛宕",
    "name_en": "Atago",
    "lat": 35.9505485,
    "lng": 139.8645688
  },
  {
    "id": "way/299213394",
    "name_ja": "旭が丘団地バス折返場",
    "name_en": "Bus Turning Place",
    "lat": 35.7972877,
    "lng": 139.5448452
  },
  {
    "id": "Q2717793",
    "name_ja": "芦花公園",
    "name_en": "Roka-koen",
    "lat": 35.6705822,
    "lng": 139.6083951
  },
  {
    "id": "way/1349890501",
    "name_ja": "綾瀬駅東口駅前交通広場",
    "lat": 35.7628031,
    "lng": 139.8266559
  },
  {
    "id": "Q864215",
    "name_ja": "安食",
    "name_en": "Ajiki",
    "lat": 35.8357152,
    "lng": 140.2420518
  },
  {
    "id": "Q4765822",
    "name_ja": "安針塚",
    "name_en": "Anjinzuka",
    "lat": 35.2866492,
    "lng": 139.6430319
  },
  {
    "id": "Q1581479",
    "name_ja": "安善",
    "name_en": "Anzen",
    "lat": 35.4996481,
    "lng": 139.7008868
  },
  {
    "id": "way/625483659",
    "name_ja": "安善駅",
    "lat": 35.4996301,
    "lng": 139.7005984
  },
  {
    "id": "Q552825",
    "name_ja": "安房小湊",
    "name_en": "Awa-Kominato",
    "lat": 35.1286886,
    "lng": 140.1903176
  },
  {
    "id": "Q553048",
    "name_ja": "安房天津",
    "name_en": "Awa-Amatsu",
    "lat": 35.1255783,
    "lng": 140.1544577
  },
  {
    "id": "Q4205219",
    "name_ja": "伊勢原",
    "name_en": "Isehara",
    "lat": 35.3959932,
    "lng": 139.3135001
  },
  {
    "id": "way/1377784894",
    "name_ja": "伊勢原バスターミナル",
    "lat": 35.3974605,
    "lng": 139.3100517
  },
  {
    "id": "Q841434",
    "name_ja": "伊勢佐木長者町",
    "name_en": "Isezaki-chojamachi",
    "lat": 35.4410015,
    "lng": 139.6327993
  },
  {
    "id": "Q844272",
    "name_ja": "衣笠",
    "name_en": "Kinugasa",
    "lat": 35.257378,
    "lng": 139.6613145
  },
  {
    "id": "node/1472099623",
    "name_ja": "衣笠駅",
    "lat": 35.2575527,
    "lng": 139.6614016
  },
  {
    "id": "Q4201277",
    "name_ja": "井の頭公園",
    "name_en": "Inokashira-koen",
    "lat": 35.6975016,
    "lng": 139.5827278
  },
  {
    "id": "Q843289",
    "name_ja": "井荻",
    "name_en": "Iogi",
    "lat": 35.7246904,
    "lng": 139.6152362
  },
  {
    "id": "Q5989285",
    "name_ja": "井土ヶ谷",
    "name_en": "Idogaya",
    "lat": 35.4339314,
    "lng": 139.6005383
  },
  {
    "id": "Q11373793",
    "name_ja": "井野",
    "name_en": "Ino",
    "lat": 35.7326736,
    "lng": 140.1485968
  },
  {
    "id": "Q79378",
    "name_ja": "磯子",
    "name_en": "Isogo",
    "lat": 35.4001372,
    "lng": 139.6181583
  },
  {
    "id": "Q5986273",
    "name_ja": "一ノ割",
    "name_en": "Ichinowari",
    "lat": 35.9642099,
    "lng": 139.7661032
  },
  {
    "id": "Q5872402",
    "name_ja": "一橋学園",
    "name_en": "Hitotsubashi-gakuen",
    "lat": 35.7217787,
    "lng": 139.4801232
  },
  {
    "id": "Q1044276",
    "name_ja": "一之江",
    "name_en": "Ichinoe",
    "lat": 35.6860437,
    "lng": 139.8831198
  },
  {
    "id": "Q11352783",
    "name_ja": "一本松",
    "name_en": "Ippommatsu",
    "lat": 35.9403713,
    "lng": 139.3702902
  },
  {
    "id": "Q5711388",
    "name_ja": "逸見",
    "name_en": "Hemi",
    "lat": 35.2805449,
    "lng": 139.6528199
  },
  {
    "id": "Q6013618",
    "name_ja": "稲荷山公園",
    "name_en": "Inariyama-koen",
    "lat": 35.8449274,
    "lng": 139.3985589
  },
  {
    "id": "Q347996",
    "name_ja": "稲荷町",
    "name_en": "Inaricho",
    "lat": 35.7113867,
    "lng": 139.7826851
  },
  {
    "id": "Q11596625",
    "name_ja": "稲戸井",
    "name_en": "Inatoi",
    "lat": 35.9263843,
    "lng": 140.0224565
  },
  {
    "id": "Q4200479",
    "name_ja": "稲城",
    "name_en": "Inagi",
    "lat": 35.6362354,
    "lng": 139.500445
  },
  {
    "id": "node/12714537878",
    "name_ja": "稲城駅",
    "lat": 35.6359053,
    "lng": 139.5009783
  },
  {
    "id": "Q5366278",
    "name_ja": "稲城長沼",
    "name_en": "Inagi-Naganuma",
    "lat": 35.6444572,
    "lng": 139.5022022
  },
  {
    "id": "Q858991",
    "name_ja": "稲村ヶ崎",
    "name_en": "Inamuragasaki",
    "lat": 35.3043634,
    "lng": 139.5219
  },
  {
    "id": "Q5368291",
    "name_ja": "稲田堤",
    "name_en": "Inadazutsumi",
    "lat": 35.6335119,
    "lng": 139.5354697
  },
  {
    "id": "Q909403",
    "name_ja": "稲毛",
    "name_en": "Inage",
    "lat": 35.6370846,
    "lng": 140.0925674
  },
  {
    "id": "Q2583249",
    "name_ja": "稲毛海岸",
    "name_en": "Inage-Kaigan",
    "lat": 35.6294925,
    "lng": 140.0735654
  },
  {
    "id": "Q5366605",
    "name_ja": "印西牧の原",
    "name_en": "Inzai-makinohara",
    "lat": 35.8036457,
    "lng": 140.1668513
  },
  {
    "id": "Q859077",
    "name_ja": "印旛日本医大",
    "name_en": "Inba Nihon Idai",
    "lat": 35.7876577,
    "lng": 140.2031172
  },
  {
    "id": "Q5646478",
    "name_ja": "羽村",
    "name_en": "Hamura",
    "lat": 35.7583518,
    "lng": 139.3160094
  },
  {
    "id": "Q48755701",
    "name_ja": "羽沢横浜国大",
    "name_en": "Hazawa yokohama-kokudai",
    "lat": 35.4812012,
    "lng": 139.5861148
  },
  {
    "id": "node/8403494070",
    "name_ja": "羽田空港船着場",
    "lat": 35.5443528,
    "lng": 139.7614465
  },
  {
    "id": "Q906745",
    "name_ja": "羽田空港第1・第2ターミナル",
    "name_en": "Haneda Airport Terminal 1・2",
    "lat": 35.5498485,
    "lng": 139.7860924
  },
  {
    "id": "Q5647752",
    "name_ja": "羽田空港第1ターミナル",
    "name_en": "Haneda Airport Terminal 1",
    "lat": 35.5491583,
    "lng": 139.7845527
  },
  {
    "id": "Q5647754",
    "name_ja": "羽田空港第2ターミナル",
    "name_en": "Haneda Airport Terminal 2",
    "lat": 35.5508205,
    "lng": 139.7882659
  },
  {
    "id": "Q7897240",
    "name_ja": "鵜の木",
    "name_en": "Unoki",
    "lat": 35.5754603,
    "lng": 139.6805741
  },
  {
    "id": "Q553006",
    "name_ja": "鵜原",
    "name_en": "Ubara",
    "lat": 35.140844,
    "lng": 140.2784674
  },
  {
    "id": "Q1077988",
    "name_ja": "浦安",
    "name_en": "Urayasu",
    "lat": 35.6658445,
    "lng": 139.8930133
  },
  {
    "id": "Q268790",
    "name_ja": "浦賀",
    "name_en": "Uraga",
    "lat": 35.2515189,
    "lng": 139.7150623
  },
  {
    "id": "way/699180433",
    "name_ja": "浦賀駅",
    "lat": 35.2506347,
    "lng": 139.7149075
  },
  {
    "id": "Q652141",
    "name_ja": "浦和",
    "name_en": "Urawa",
    "lat": 35.8589883,
    "lng": 139.6571882
  },
  {
    "id": "Q1042376",
    "name_ja": "浦和美園",
    "name_en": "Urawa-misono",
    "lat": 35.8938207,
    "lng": 139.7276313
  },
  {
    "id": "Q7884435",
    "name_ja": "運河",
    "name_en": "Unga",
    "lat": 35.9140176,
    "lng": 139.9060619
  },
  {
    "id": "node/8650307703",
    "name_ja": "運河パーク",
    "lat": 35.4533521,
    "lng": 139.6383724
  },
  {
    "id": "relation/12392263",
    "name_ja": "運河パーク駅",
    "lat": 35.4533184,
    "lng": 139.6385082
  },
  {
    "id": "Q5331497",
    "name_ja": "荏原中延",
    "name_en": "Ebara-nakanobu",
    "lat": 35.6099457,
    "lng": 139.7120054
  },
  {
    "id": "Q5331501",
    "name_ja": "荏原町",
    "name_en": "Ebara-machi",
    "lat": 35.6038557,
    "lng": 139.7077399
  },
  {
    "id": "Q842038",
    "name_ja": "曳舟",
    "name_en": "Hikifune",
    "lat": 35.7183056,
    "lng": 139.8167501
  },
  {
    "id": "Q4389461",
    "name_ja": "永福町",
    "name_en": "Eifukucho",
    "lat": 35.6762576,
    "lng": 139.642645
  },
  {
    "id": "Q842666",
    "name_ja": "越谷",
    "name_en": "Koshigaya",
    "lat": 35.8882989,
    "lng": 139.7859554
  },
  {
    "id": "Q6433119",
    "name_ja": "越谷レイクタウン",
    "name_en": "Koshigaya-Laketown",
    "lat": 35.8762173,
    "lng": 139.822401
  },
  {
    "id": "Q844276",
    "name_ja": "越中島",
    "name_en": "Etchūjima",
    "lat": 35.6679059,
    "lng": 139.7926094
  },
  {
    "id": "node/1847021419",
    "name_ja": "越中島船着場",
    "name_en": "Etchujima Water Bus Station",
    "lat": 35.6691461,
    "lng": 139.7888861
  },
  {
    "id": "Q7082777",
    "name_ja": "奥沢",
    "name_en": "Okusawa",
    "lat": 35.6040262,
    "lng": 139.6727375
  },
  {
    "id": "Q80545",
    "name_ja": "押上〈スカイツリー前〉",
    "name_en": "Oshiage 'SKYTREE'",
    "lat": 35.7102863,
    "lng": 139.8132943
  },
  {
    "id": "Q844320",
    "name_ja": "横須賀",
    "name_en": "Yokosuka",
    "lat": 35.2840952,
    "lng": 139.655981
  },
  {
    "id": "Q8054669",
    "name_ja": "横須賀中央",
    "name_en": "Yokosuka-chuo",
    "lat": 35.2784995,
    "lng": 139.670433
  },
  {
    "id": "Q8054678",
    "name_ja": "横田",
    "name_en": "Yokota",
    "lat": 35.3861086,
    "lng": 140.0203412
  },
  {
    "id": "Q11262877",
    "name_ja": "横浜羽沢",
    "name_en": "Yokohama Hazawa",
    "lat": 35.4832192,
    "lng": 139.5899658
  },
  {
    "id": "way/165374198",
    "name_ja": "横浜駅西口",
    "lat": 35.4667253,
    "lng": 139.6212812
  },
  {
    "id": "node/4183162103",
    "name_ja": "横浜港クルーズ",
    "lat": 35.4456731,
    "lng": 139.6512366
  },
  {
    "id": "Q118905200",
    "name_ja": "横浜港大さん橋国際客船ターミナル",
    "name_en": "Yokohama International Passenger Terminal",
    "lat": 35.4517096,
    "lng": 139.6477801
  },
  {
    "id": "Q11543197",
    "name_ja": "横浜本牧",
    "name_en": "Yokohama-Hommoku",
    "lat": 35.4233951,
    "lng": 139.6713722
  },
  {
    "id": "Q151406",
    "name_ja": "王子神谷",
    "name_en": "Oji-kamiya",
    "lat": 35.7650552,
    "lng": 139.7357178
  },
  {
    "id": "Q6425766",
    "name_ja": "黄金町",
    "name_en": "Koganecho",
    "lat": 35.4399236,
    "lng": 139.623152
  },
  {
    "id": "Q801294",
    "name_ja": "荻窪",
    "name_en": "Ogikubo",
    "lat": 35.7044803,
    "lng": 139.6201587
  },
  {
    "id": "Q7092149",
    "name_ja": "恩田",
    "name_en": "Onda",
    "lat": 35.5455896,
    "lng": 139.4921288
  },
  {
    "id": "Q843437",
    "name_ja": "下井草",
    "name_en": "Shimo-Igusa",
    "lat": 35.7238306,
    "lng": 139.6253354
  },
  {
    "id": "Q579066",
    "name_ja": "下永谷",
    "name_en": "Shimonagaya",
    "lat": 35.4025885,
    "lng": 139.5594212
  },
  {
    "id": "Q7496927",
    "name_ja": "下丸子",
    "name_en": "Shimomaruko",
    "lat": 35.5713856,
    "lng": 139.6855952
  },
  {
    "id": "Q7496964",
    "name_ja": "下郡",
    "name_en": "Shimogori",
    "lat": 35.3553448,
    "lng": 140.0554424
  },
  {
    "id": "Q7496979",
    "name_ja": "下溝",
    "name_en": "Shimomizo",
    "lat": 35.5182341,
    "lng": 139.3805489
  },
  {
    "id": "Q994285",
    "name_ja": "下高井戸",
    "name_en": "Shimo-takaido",
    "lat": 35.6661345,
    "lng": 139.6415946
  },
  {
    "id": "Q7496941",
    "name_ja": "下山口",
    "name_en": "Shimo-Yamaguchi",
    "lat": 35.7795178,
    "lng": 139.4414607
  },
  {
    "id": "Q7496934",
    "name_ja": "下神明",
    "name_en": "Shimo-simmei",
    "lat": 35.6087809,
    "lng": 139.7262498
  },
  {
    "id": "Q7496913",
    "name_ja": "下赤塚",
    "name_en": "Shimo-akatsuka",
    "lat": 35.7705809,
    "lng": 139.6445735
  },
  {
    "id": "node/12633342022",
    "name_ja": "下総橋",
    "lat": 35.5597667,
    "lng": 140.1835419
  },
  {
    "id": "Q5363815",
    "name_ja": "下総松崎",
    "name_en": "Shimosa-Manzaki",
    "lat": 35.8076583,
    "lng": 140.2779396
  },
  {
    "id": "Q1067586",
    "name_ja": "下総中山",
    "name_en": "Shimosa-Nakayama",
    "lat": 35.7143039,
    "lng": 139.9430779
  },
  {
    "id": "Q7496921",
    "name_ja": "下板橋",
    "name_en": "Shimo-itabashi",
    "lat": 35.7452488,
    "lng": 139.7154787
  },
  {
    "id": "Q573742",
    "name_ja": "下飯田",
    "name_en": "Shimoiida",
    "lat": 35.4034432,
    "lng": 139.4832081
  },
  {
    "id": "Q1059947",
    "name_ja": "下北沢",
    "name_en": "Shimo-Kitazawa",
    "lat": 35.6611356,
    "lng": 139.666822
  },
  {
    "id": "Q843464",
    "name_ja": "下落合",
    "name_en": "Shimo-Ochiai",
    "lat": 35.7157663,
    "lng": 139.6954383
  },
  {
    "id": "way/1349889653",
    "name_ja": "仮設校舎送迎バス乗降場",
    "lat": 35.7734592,
    "lng": 139.8385854
  },
  {
    "id": "Q11398842",
    "name_ja": "加茂宮",
    "name_en": "Kamonomiya",
    "lat": 35.9357299,
    "lng": 139.6168343
  },
  {
    "id": "Q6344018",
    "name_ja": "河辺",
    "name_en": "Kabe",
    "lat": 35.7845098,
    "lng": 139.2847381
  },
  {
    "id": "Q6346519",
    "name_ja": "花月総持寺",
    "name_en": "Kagetsu-Sojiji",
    "lat": 35.5004391,
    "lng": 139.6729989
  },
  {
    "id": "Q5646738",
    "name_ja": "花小金井",
    "name_en": "Hana-Koganei",
    "lat": 35.7261822,
    "lng": 139.5132235
  },
  {
    "id": "Q5614472",
    "name_ja": "霞ヶ関",
    "name_en": "Kasumigaseki",
    "lat": 35.9256142,
    "lng": 139.443197
  },
  {
    "id": "Q741614",
    "name_ja": "霞ケ関",
    "name_en": "Kasumigaseki",
    "lat": 35.6725014,
    "lng": 139.7516221
  },
  {
    "id": "Q1043787",
    "name_ja": "我孫子",
    "name_en": "Abiko",
    "lat": 35.872742,
    "lng": 140.0107711
  },
  {
    "id": "Q7881582",
    "name_ja": "海の公園柴口",
    "name_en": "Uminokoen-Shibaguchi",
    "lat": 35.3421054,
    "lng": 139.6359064
  },
  {
    "id": "Q7881587",
    "name_ja": "海の公園南口",
    "name_en": "Uminokoen-Minamiguchi",
    "lat": 35.3371661,
    "lng": 139.6320353
  },
  {
    "id": "Q4738981",
    "name_ja": "海士有木",
    "name_en": "Amaariki",
    "lat": 35.4817067,
    "lng": 140.1241104
  },
  {
    "id": "Q1052602",
    "name_ja": "海芝浦",
    "name_en": "Umi-Shibaura",
    "lat": 35.485904,
    "lng": 139.700285
  },
  {
    "id": "Q6347743",
    "name_ja": "海神",
    "name_en": "Kaijin",
    "lat": 35.705761,
    "lng": 139.972098
  },
  {
    "id": "Q906715",
    "name_ja": "海浜幕張",
    "name_en": "Kaihin-Makuhari",
    "lat": 35.6484234,
    "lng": 140.041921
  },
  {
    "id": "node/2713535217",
    "name_ja": "開拓者の船着き場",
    "name_en": "Settlers' Landing",
    "lat": 35.6316094,
    "lng": 139.8834553
  },
  {
    "id": "Q275433",
    "name_ja": "外苑前",
    "name_en": "Gaiemmae",
    "lat": 35.6704649,
    "lng": 139.7178823
  },
  {
    "id": "Q4208911",
    "name_ja": "柿生",
    "name_en": "Kakio",
    "lat": 35.5896107,
    "lng": 139.4975838
  },
  {
    "id": "node/2617057273",
    "name_ja": "柿生駅前",
    "lat": 35.5890801,
    "lng": 139.499288
  },
  {
    "id": "node/2617057274",
    "name_ja": "柿生駅北口",
    "lat": 35.5893941,
    "lng": 139.4969891
  },
  {
    "id": "Q5517706",
    "name_ja": "学園前",
    "name_en": "Gakuemmae",
    "lat": 35.5606158,
    "lng": 140.1584082
  },
  {
    "id": "Q5517709",
    "name_ja": "学芸大学",
    "name_en": "Gakugei-daigaku",
    "lat": 35.6289468,
    "lng": 139.6853465
  },
  {
    "id": "Q10945769",
    "name_ja": "学習院下",
    "name_en": "Gakushuinshita",
    "lat": 35.7163541,
    "lng": 139.7125211
  },
  {
    "id": "Q844363",
    "name_ja": "笠幡",
    "name_en": "Kasahata",
    "lat": 35.9075716,
    "lng": 139.4065052
  },
  {
    "id": "Q11538785",
    "name_ja": "梶が谷",
    "name_en": "Kajigaya",
    "lat": 35.5936505,
    "lng": 139.6054789
  },
  {
    "id": "way/162271459",
    "name_ja": "梶ヶ谷駅",
    "lat": 35.5941296,
    "lng": 139.6051213
  },
  {
    "id": "Q11116153",
    "name_ja": "梶原",
    "name_en": "Kajiwara",
    "lat": 35.7510769,
    "lng": 139.7478469
  },
  {
    "id": "Q126762",
    "name_ja": "葛西",
    "name_en": "Kasai",
    "lat": 35.6636282,
    "lng": 139.8726921
  },
  {
    "id": "Q5520436",
    "name_ja": "蒲生",
    "name_en": "Gamo",
    "lat": 35.8673508,
    "lng": 139.7915927
  },
  {
    "id": "Q800981",
    "name_ja": "蒲田",
    "name_en": "Kamata",
    "lat": 35.5620151,
    "lng": 139.7158191
  },
  {
    "id": "Q6355264",
    "name_ja": "鎌ヶ谷",
    "name_en": "Kamagaya",
    "lat": 35.7640464,
    "lng": 139.9973523
  },
  {
    "id": "Q12060945",
    "name_ja": "鎌ヶ谷大仏",
    "name_en": "Kamagayadaibutsu",
    "lat": 35.7579124,
    "lng": 140.0138359
  },
  {
    "id": "Q5353463",
    "name_ja": "鎌取",
    "name_en": "Kamatori",
    "lat": 35.5628336,
    "lng": 140.1785002
  },
  {
    "id": "Q932895",
    "name_ja": "鎌倉",
    "name_en": "Kamakura",
    "lat": 35.3191187,
    "lng": 139.5504286
  },
  {
    "id": "Q859202",
    "name_ja": "鎌倉高校前",
    "name_en": "Kamakurakokomae",
    "lat": 35.3067209,
    "lng": 139.5007098
  },
  {
    "id": "Q844702",
    "name_ja": "鴨居",
    "name_en": "Kamoi",
    "lat": 35.510947,
    "lng": 139.5670538
  },
  {
    "id": "Q800622",
    "name_ja": "茅ヶ崎",
    "name_en": "Chigasaki",
    "lat": 35.3306242,
    "lng": 139.4074613
  },
  {
    "id": "Q80566",
    "name_ja": "茅場町",
    "name_en": "Kayabacho",
    "lat": 35.6802291,
    "lng": 139.7794236
  },
  {
    "id": "Q8192986",
    "name_ja": "寒川",
    "name_en": "Samukawa",
    "lat": 35.3676645,
    "lng": 139.3874343
  },
  {
    "id": "way/1028943775",
    "name_ja": "寒川駅南口",
    "lat": 35.3675047,
    "lng": 139.3856943
  },
  {
    "id": "Q800982",
    "name_ja": "関内",
    "name_en": "Kannai",
    "lat": 35.4440822,
    "lng": 139.6360365
  },
  {
    "id": "way/849472813",
    "name_ja": "丸ノ内線 国会議事堂前駅",
    "lat": 35.6746586,
    "lng": 139.7456121
  },
  {
    "id": "Q10877242",
    "name_ja": "丸山",
    "name_en": "Maruyama",
    "lat": 35.9799206,
    "lng": 139.6247029
  },
  {
    "id": "Q589898",
    "name_ja": "岸根公園",
    "name_en": "Kishine-koen",
    "lat": 35.4961511,
    "lng": 139.6168238
  },
  {
    "id": "Q573420",
    "name_ja": "巌根",
    "name_en": "Iwane",
    "lat": 35.4144082,
    "lng": 139.9335177
  },
  {
    "id": "Q5368936",
    "name_ja": "岩槻",
    "name_en": "Iwatsuki",
    "lat": 35.9501595,
    "lng": 139.6929146
  },
  {
    "id": "Q128319",
    "name_ja": "岩本町",
    "name_en": "Iwamotocho",
    "lat": 35.695614,
    "lng": 139.7753176
  },
  {
    "id": "Q4222438",
    "name_ja": "喜多見",
    "name_en": "Kitami",
    "lat": 35.6365293,
    "lng": 139.5868713
  },
  {
    "id": "Q6404108",
    "name_ja": "希望ヶ丘",
    "name_en": "Kibogaoka",
    "lat": 35.4604534,
    "lng": 139.5142614
  },
  {
    "id": "Q852281",
    "name_ja": "旗の台",
    "name_en": "Hatanodai",
    "lat": 35.604888,
    "lng": 139.7025878
  },
  {
    "id": "Q7093901",
    "name_ja": "鬼越",
    "name_en": "Onigoe",
    "lat": 35.7199561,
    "lng": 139.9375585
  },
  {
    "id": "Q6416581",
    "name_ja": "鬼子母神前",
    "name_en": "Kishibojimmae",
    "lat": 35.7202125,
    "lng": 139.7148568
  },
  {
    "id": "Q6356576",
    "name_ja": "亀戸水神",
    "name_en": "Kameidosuijin",
    "lat": 35.7000853,
    "lng": 139.8335333
  },
  {
    "id": "Q1952873",
    "name_ja": "亀有",
    "name_en": "Kameari",
    "lat": 35.7666652,
    "lng": 139.8478007
  },
  {
    "id": "Q5563370",
    "name_ja": "祇園",
    "name_en": "Gion",
    "lat": 35.3915242,
    "lng": 139.9483041
  },
  {
    "id": "Q1043756",
    "name_ja": "菊川",
    "name_en": "Kikukawa",
    "lat": 35.6884156,
    "lng": 139.806123
  },
  {
    "id": "Q801006",
    "name_ja": "菊名",
    "name_en": "Kikuna",
    "lat": 35.5096856,
    "lng": 139.6302732
  },
  {
    "id": "way/188862326",
    "name_ja": "吉岡バスターミナル",
    "lat": 35.4255093,
    "lng": 139.4283265
  },
  {
    "id": "Q801004",
    "name_ja": "吉祥寺",
    "name_en": "Kichijoji",
    "lat": 35.7031413,
    "lng": 139.5803077
  },
  {
    "id": "Q8013280",
    "name_ja": "吉川",
    "name_en": "Yoshikawa",
    "lat": 35.8765782,
    "lng": 139.8435049
  },
  {
    "id": "Q8056102",
    "name_ja": "吉川美南",
    "name_en": "Yoshikawa-Minami",
    "lat": 35.868067,
    "lng": 139.8580813
  },
  {
    "id": "Q11414370",
    "name_ja": "吉野原",
    "name_en": "Yoshinohara",
    "lat": 35.9571921,
    "lng": 139.6209522
  },
  {
    "id": "Q579077",
    "name_ja": "吉野町",
    "name_en": "Yoshinocho",
    "lat": 35.4354327,
    "lng": 139.618715
  },
  {
    "id": "Q7402847",
    "name_ja": "逆井",
    "name_en": "Sakasai",
    "lat": 35.8232385,
    "lng": 139.9839107
  },
  {
    "id": "Q6441939",
    "name_ja": "久が原",
    "name_en": "Kugahara",
    "lat": 35.5795927,
    "lng": 139.6856542
  },
  {
    "id": "Q6441938",
    "name_ja": "久我原",
    "name_en": "Kugahara",
    "lat": 35.2500969,
    "lng": 140.2478962
  },
  {
    "id": "Q4244277",
    "name_ja": "久我山",
    "name_en": "Kugayama",
    "lat": 35.687947,
    "lng": 139.5995918
  },
  {
    "id": "Q5366826",
    "name_ja": "久地",
    "name_en": "Kuji",
    "lat": 35.610598,
    "lng": 139.5925023
  },
  {
    "id": "Q6443795",
    "name_ja": "久米川",
    "name_en": "Kumegawa",
    "lat": 35.7496668,
    "lng": 139.4725702
  },
  {
    "id": "Q844268",
    "name_ja": "久里浜",
    "name_en": "Kurihama",
    "lat": 35.2331376,
    "lng": 139.7013491
  },
  {
    "id": "node/1712857918",
    "name_ja": "久里浜フェリーターミナル",
    "name_en": "Kurihama Ferry Terminal",
    "lat": 35.2200393,
    "lng": 139.715338
  },
  {
    "id": "Q6447492",
    "name_ja": "久留里",
    "name_en": "Kururi",
    "lat": 35.2958456,
    "lng": 140.07575
  },
  {
    "id": "Q6884414",
    "name_ja": "宮の坂",
    "name_en": "Miyanosaka",
    "lat": 35.6478254,
    "lng": 139.6449893
  },
  {
    "id": "Q11453134",
    "name_ja": "宮ノ前",
    "name_en": "Miyanomae",
    "lat": 35.7500466,
    "lng": 139.7652475
  },
  {
    "id": "Q845070",
    "name_ja": "宮原",
    "name_en": "Miyahara",
    "lat": 35.9403002,
    "lng": 139.6095462
  },
  {
    "id": "Q6884463",
    "name_ja": "宮崎台",
    "name_en": "Miyazakidai",
    "lat": 35.5870526,
    "lng": 139.5911245
  },
  {
    "id": "Q265686",
    "name_ja": "宮山",
    "name_en": "Miyayama",
    "lat": 35.3822546,
    "lng": 139.379689
  },
  {
    "id": "Q6884310",
    "name_ja": "宮前平",
    "name_en": "Miyamaedaira",
    "lat": 35.5849617,
    "lng": 139.5820388
  },
  {
    "id": "Q5363775",
    "name_ja": "牛久",
    "name_en": "Ushiku",
    "lat": 35.9755208,
    "lng": 140.1409404
  },
  {
    "id": "Q246195",
    "name_ja": "牛込神楽坂",
    "name_en": "Ushigome-kagurazaka",
    "lat": 35.7009139,
    "lng": 139.7359501
  },
  {
    "id": "Q247099",
    "name_ja": "牛込柳町",
    "name_en": "Ushigome-yanagicho",
    "lat": 35.6994561,
    "lng": 139.7255744
  },
  {
    "id": "Q7901940",
    "name_ja": "牛田",
    "name_en": "Ushida",
    "lat": 35.7446629,
    "lng": 139.8121358
  },
  {
    "id": "Q7901942",
    "name_ja": "牛浜",
    "name_en": "Ushihama",
    "lat": 35.7346115,
    "lng": 139.3336014
  },
  {
    "id": "node/760291651",
    "name_ja": "鋸山山頂",
    "name_en": "Sancho (Peak) Station",
    "lat": 35.1582561,
    "lng": 139.8286855
  },
  {
    "id": "node/760291650",
    "name_ja": "鋸山山麓",
    "name_en": "Sanroku (Foot) Station",
    "lat": 35.1622425,
    "lng": 139.823312
  },
  {
    "id": "Q4251055",
    "name_ja": "京王よみうりランド",
    "name_en": "Keio-yomiuri-land",
    "lat": 35.6329471,
    "lng": 139.5168349
  },
  {
    "id": "Q4251057",
    "name_ja": "京王稲田堤",
    "name_en": "Keio-inadazutsumi",
    "lat": 35.6337429,
    "lng": 139.5309503
  },
  {
    "id": "Q1061400",
    "name_ja": "京王永山",
    "name_en": "Keio-Nagayama",
    "lat": 35.6302581,
    "lng": 139.4483564
  },
  {
    "id": "node/1763345086",
    "name_ja": "京王口ステイション",
    "name_en": "Keiō Station",
    "lat": 35.6321988,
    "lng": 139.5174688
  },
  {
    "id": "Q4251058",
    "name_ja": "京王多摩川",
    "name_en": "Keio-tamagawa",
    "lat": 35.6447764,
    "lng": 139.5369116
  },
  {
    "id": "Q4251056",
    "name_ja": "京王片倉",
    "name_en": "Keio-katakura",
    "lat": 35.6443504,
    "lng": 139.3370743
  },
  {
    "id": "Q269149",
    "name_ja": "京王堀之内",
    "name_en": "Keio-horinouchi",
    "lat": 35.6244777,
    "lng": 139.4003398
  },
  {
    "id": "Q841552",
    "name_ja": "京急蒲田",
    "name_en": "Keikyu Kamata",
    "lat": 35.5613307,
    "lng": 139.7241595
  },
  {
    "id": "Q6383706",
    "name_ja": "京急久里浜",
    "name_en": "Keikyu Kurihama",
    "lat": 35.2313499,
    "lng": 139.702245
  },
  {
    "id": "Q6383710",
    "name_ja": "京急新子安",
    "name_en": "Keikyu Shinkoyasu",
    "lat": 35.4870984,
    "lng": 139.6554751
  },
  {
    "id": "Q6383705",
    "name_ja": "京急川崎",
    "name_en": "Keikyu Kawasaki",
    "lat": 35.53283,
    "lng": 139.7007815
  },
  {
    "id": "Q5370884",
    "name_ja": "京急大津",
    "name_en": "Keikyu Otsu",
    "lat": 35.2608571,
    "lng": 139.6958245
  },
  {
    "id": "Q6383708",
    "name_ja": "京急長沢",
    "name_en": "Keikyu Nagasawa",
    "lat": 35.2056376,
    "lng": 139.6743929
  },
  {
    "id": "Q5366409",
    "name_ja": "京急鶴見",
    "name_en": "Keikyu Tsurumi",
    "lat": 35.5072931,
    "lng": 139.6780206
  },
  {
    "id": "Q6383711",
    "name_ja": "京急田浦",
    "name_en": "Keikyu-Taura",
    "lat": 35.3008945,
    "lng": 139.6255173
  },
  {
    "id": "Q6960205",
    "name_ja": "京急東神奈川",
    "name_en": "Keikyu Higashi-Kanagawa",
    "lat": 35.477267,
    "lng": 139.6345454
  },
  {
    "id": "Q12060974",
    "name_ja": "京急富岡",
    "name_en": "Keikyu Tomioka",
    "lat": 35.367138,
    "lng": 139.6297275
  },
  {
    "id": "Q347981",
    "name_ja": "京橋",
    "name_en": "Kyobashi",
    "lat": 35.676696,
    "lng": 139.7700412
  },
  {
    "id": "Q11374371",
    "name_ja": "京成バス 市川営業所",
    "lat": 35.7534208,
    "lng": 139.9659991
  },
  {
    "id": "node/2285709376",
    "name_ja": "京成バスセンター",
    "lat": 35.6071208,
    "lng": 140.117786
  },
  {
    "id": "Q11374398",
    "name_ja": "京成稲毛",
    "name_en": "Keisei Inage",
    "lat": 35.6376426,
    "lng": 140.0856084
  },
  {
    "id": "Q6383832",
    "name_ja": "京成臼井",
    "name_en": "Keisei-Usui",
    "lat": 35.7299183,
    "lng": 140.1808053
  },
  {
    "id": "Q5366562",
    "name_ja": "京成曳舟",
    "name_en": "Keisei Hikifune",
    "lat": 35.7181883,
    "lng": 139.8197495
  },
  {
    "id": "Q6383849",
    "name_ja": "京成関屋",
    "name_en": "Keisei Sekiya",
    "lat": 35.7439951,
    "lng": 139.8117763
  },
  {
    "id": "Q6383841",
    "name_ja": "京成金町",
    "name_en": "Keisei Kanamachi",
    "lat": 35.7686276,
    "lng": 139.8704721
  },
  {
    "id": "Q4162460",
    "name_ja": "京成高砂",
    "name_en": "Keisei Takasago",
    "lat": 35.7509396,
    "lng": 139.8671221
  },
  {
    "id": "Q4502033",
    "name_ja": "京成佐倉",
    "name_en": "Keisei-Sakura",
    "lat": 35.7251893,
    "lng": 140.2297242
  },
  {
    "id": "Q6383847",
    "name_ja": "京成酒々井",
    "name_en": "Keisei-Shisui",
    "lat": 35.7367994,
    "lng": 140.2700492
  },
  {
    "id": "Q6383844",
    "name_ja": "京成小岩",
    "name_en": "Keisei Koiwa",
    "lat": 35.7424201,
    "lng": 139.8833524
  },
  {
    "id": "Q907059",
    "name_ja": "京成上野",
    "name_en": "Keisei-Ueno",
    "lat": 35.7109406,
    "lng": 139.7735044
  },
  {
    "id": "Q6383831",
    "name_ja": "京成西船",
    "name_en": "Keisei Nishifuna",
    "lat": 35.7116529,
    "lng": 139.9589834
  },
  {
    "id": "Q6383838",
    "name_ja": "京成千葉",
    "name_en": "Keisei Chiba",
    "lat": 35.6116663,
    "lng": 140.1143016
  },
  {
    "id": "Q841409",
    "name_ja": "京成船橋",
    "name_en": "Keisei Funabashi",
    "lat": 35.7002308,
    "lng": 139.9856338
  },
  {
    "id": "Q6383851",
    "name_ja": "京成大久保",
    "name_en": "Keisei-Okubo",
    "lat": 35.6859511,
    "lng": 140.0481856
  },
  {
    "id": "Q6383852",
    "name_ja": "京成大和田",
    "name_en": "Keisei-Owada",
    "lat": 35.7120744,
    "lng": 140.1079464
  },
  {
    "id": "Q6383846",
    "name_ja": "京成中山",
    "name_en": "Keisei-Nakayama",
    "lat": 35.7168708,
    "lng": 139.9447308
  },
  {
    "id": "Q4389595",
    "name_ja": "京成津田沼",
    "name_en": "Keisei Tsudanuma",
    "lat": 35.6836333,
    "lng": 140.0248164
  },
  {
    "id": "Q4502328",
    "name_ja": "京成八幡",
    "name_en": "Keisei Yawata",
    "lat": 35.7239123,
    "lng": 139.9280439
  },
  {
    "id": "Q6383845",
    "name_ja": "京成幕張",
    "name_en": "Keisei Makuhari",
    "lat": 35.6609528,
    "lng": 140.0556604
  },
  {
    "id": "Q906124",
    "name_ja": "京成幕張本郷",
    "name_en": "Keisei Makuhari-Hongo",
    "lat": 35.672623,
    "lng": 140.0421251
  },
  {
    "id": "Q5366765",
    "name_ja": "京成立石",
    "name_en": "Keisei Tateishi",
    "lat": 35.7382678,
    "lng": 139.8485055
  },
  {
    "id": "Q5368927",
    "name_ja": "競艇場前",
    "name_en": "Kyoteijo-mae",
    "lat": 35.6562077,
    "lng": 139.4995827
  },
  {
    "id": "way/641485811",
    "name_ja": "共立女子学園スクールバス乗り場",
    "lat": 35.6443406,
    "lng": 139.2843621
  },
  {
    "id": "Q800895",
    "name_ja": "橋本",
    "name_en": "Hashimoto",
    "lat": 35.5948686,
    "lng": 139.3449124
  },
  {
    "id": "Q4494570",
    "name_ja": "狭間",
    "name_en": "Hazama",
    "lat": 35.6405959,
    "lng": 139.2933098
  },
  {
    "id": "Q7429111",
    "name_ja": "狭山ヶ丘",
    "name_en": "Sayamagaoka",
    "lat": 35.8105229,
    "lng": 139.4167118
  },
  {
    "id": "Q7429114",
    "name_ja": "狭山市",
    "name_en": "Sayamashi",
    "lat": 35.8572924,
    "lng": 139.4132001
  },
  {
    "id": "Q858997",
    "name_ja": "極楽寺",
    "name_en": "Gokurakuji",
    "lat": 35.3092118,
    "lng": 139.5286725
  },
  {
    "id": "Q7680544",
    "name_ja": "玉川学園前",
    "name_en": "Tamagawagakuen-mae",
    "lat": 35.5636494,
    "lng": 139.4635266
  },
  {
    "id": "Q842489",
    "name_ja": "玉川上水",
    "name_en": "Tamagawa-Josui",
    "lat": 35.7322373,
    "lng": 139.4178727
  },
  {
    "id": "node/2537379064",
    "name_ja": "桐蔭学園前",
    "lat": 35.5652074,
    "lng": 139.51953
  },
  {
    "id": "Q801017",
    "name_ja": "錦糸町",
    "name_en": "Kinshicho",
    "lat": 35.6963122,
    "lng": 139.8150431
  },
  {
    "id": "Q844340",
    "name_ja": "金子",
    "name_en": "Kaneko",
    "lat": 35.8110878,
    "lng": 139.3286556
  },
  {
    "id": "Q6360870",
    "name_ja": "金沢八景",
    "name_en": "Kanazawa-Hakkei",
    "lat": 35.3311864,
    "lng": 139.6201441
  },
  {
    "id": "Q6360872",
    "name_ja": "金沢文庫",
    "name_en": "Kanazawa-bunko",
    "lat": 35.3430205,
    "lng": 139.6216115
  },
  {
    "id": "node/691270183",
    "name_ja": "金谷港フェリーターミナル",
    "name_en": "Kanaya Ferry Terminal",
    "lat": 35.1693601,
    "lng": 139.8173913
  },
  {
    "id": "Q1952878",
    "name_ja": "金町",
    "name_en": "Kanamachi",
    "lat": 35.7695843,
    "lng": 139.8706926
  },
  {
    "id": "Q602372",
    "name_ja": "銀座",
    "name_en": "Ginza",
    "lat": 35.6728411,
    "lng": 139.7631029
  },
  {
    "id": "Q331185",
    "name_ja": "銀座一丁目",
    "name_en": "Ginza-itchome",
    "lat": 35.6743469,
    "lng": 139.7670332
  },
  {
    "id": "way/849487789",
    "name_ja": "銀座線 溜池山王駅",
    "lat": 35.6715414,
    "lng": 139.7419858
  },
  {
    "id": "Q76899",
    "name_ja": "九段下",
    "name_en": "Kudanshita",
    "lat": 35.6959079,
    "lng": 139.7512822
  },
  {
    "id": "Q6442177",
    "name_ja": "九品仏",
    "name_en": "Kuhombutsu",
    "lat": 35.6054056,
    "lng": 139.6612181
  },
  {
    "id": "node/5530082939",
    "name_ja": "駒形橋簡易船着場",
    "name_en": "Komagatabashi Berth",
    "lat": 35.7088814,
    "lng": 139.7971171
  },
  {
    "id": "Q4229113",
    "name_ja": "駒場東大前",
    "name_en": "Komaba-todaimae",
    "lat": 35.6586714,
    "lng": 139.6844553
  },
  {
    "id": "node/2567603114",
    "name_ja": "駒沢学園",
    "lat": 35.6265409,
    "lng": 139.4926513
  },
  {
    "id": "Q6428224",
    "name_ja": "駒沢大学",
    "name_en": "Komazawa-daigaku",
    "lat": 35.6331934,
    "lng": 139.6611562
  },
  {
    "id": "Q6443378",
    "name_ja": "熊川",
    "name_en": "Kumagawa",
    "lat": 35.7284457,
    "lng": 139.3354073
  },
  {
    "id": "Q6443453",
    "name_ja": "熊野前",
    "name_en": "Kumanomae",
    "lat": 35.7484991,
    "lng": 139.7698441
  },
  {
    "id": "node/4428438585",
    "name_ja": "熊野前駅出入口",
    "lat": 35.7487557,
    "lng": 139.7698331
  },
  {
    "id": "Q4248427",
    "name_ja": "栗平",
    "name_en": "Kurihira",
    "lat": 35.6060805,
    "lng": 139.4808891
  },
  {
    "id": "Q575422",
    "name_ja": "君津",
    "name_en": "Kimitsu",
    "lat": 35.3336304,
    "lng": 139.8955052
  },
  {
    "id": "Q11416383",
    "name_ja": "君津バスターミナル",
    "lat": 35.3185163,
    "lng": 139.9358865
  },
  {
    "id": "node/6482048281",
    "name_ja": "君津駅北口",
    "lat": 35.3345886,
    "lng": 139.8949456
  },
  {
    "id": "node/6482048280",
    "name_ja": "君津製鐵所",
    "lat": 35.3569393,
    "lng": 139.902032
  },
  {
    "id": "Q800715",
    "name_ja": "恵比寿",
    "name_en": "Ebisu",
    "lat": 35.6469738,
    "lng": 139.7086461
  },
  {
    "id": "Q4251372",
    "name_ja": "経堂",
    "name_en": "Kyodo",
    "lat": 35.6512791,
    "lng": 139.636679
  },
  {
    "id": "Q4751212",
    "name_ja": "穴守稲荷",
    "name_en": "Anamori-Inari",
    "lat": 35.5503099,
    "lng": 139.7467757
  },
  {
    "id": "Q4750826",
    "name_ja": "穴川",
    "name_en": "Anagawa",
    "lat": 35.6395681,
    "lng": 140.1118771
  },
  {
    "id": "Q7850090",
    "name_ja": "月崎",
    "name_en": "Tsukizaki",
    "lat": 35.3021964,
    "lng": 140.1393923
  },
  {
    "id": "Q112337",
    "name_ja": "月島",
    "name_en": "Tsukishima",
    "lat": 35.6641695,
    "lng": 139.7844793
  },
  {
    "id": "Q6386953",
    "name_ja": "検見川",
    "name_en": "Kemigawa",
    "lat": 35.6526017,
    "lng": 140.066294
  },
  {
    "id": "Q2493887",
    "name_ja": "検見川浜",
    "name_en": "Kemigawahama",
    "lat": 35.6372071,
    "lng": 140.0590771
  },
  {
    "id": "Q6388822",
    "name_ja": "県庁前",
    "name_en": "Kencho-Mae",
    "lat": 35.6036854,
    "lng": 140.1221568
  },
  {
    "id": "Q6391354",
    "name_ja": "県立大学",
    "name_en": "Kenritsudaigaku",
    "lat": 35.2702905,
    "lng": 139.6766355
  },
  {
    "id": "Q6869774",
    "name_ja": "見沼代親水公園",
    "name_en": "Minumadai-shinsuikoen",
    "lat": 35.814493,
    "lng": 139.7707277
  },
  {
    "id": "Q6918030",
    "name_ja": "元加治",
    "name_en": "Motokaji",
    "lat": 35.8405537,
    "lng": 139.345729
  },
  {
    "id": "Q6918571",
    "name_ja": "元山",
    "name_en": "Motoyama",
    "lat": 35.7902188,
    "lng": 139.9758291
  },
  {
    "id": "Q7937375",
    "name_ja": "元住吉",
    "name_en": "Motosumiyoshi",
    "lat": 35.5644487,
    "lng": 139.6540638
  },
  {
    "id": "Q995359",
    "name_ja": "元町・中華街",
    "name_en": "Motomachi-chukagai",
    "lat": 35.4421165,
    "lng": 139.6509129
  },
  {
    "id": "Q11284211",
    "name_ja": "原市",
    "name_en": "Haraichi",
    "lat": 35.9639368,
    "lng": 139.622258
  },
  {
    "id": "Q800894",
    "name_ja": "原宿",
    "name_en": "Harajuku",
    "lat": 35.6702145,
    "lng": 139.7024266
  },
  {
    "id": "Q5654301",
    "name_ja": "原当麻",
    "name_en": "Harataima",
    "lat": 35.5292374,
    "lng": 139.3751369
  },
  {
    "id": "Q128808",
    "name_ja": "原木中山",
    "name_en": "Baraki-nakayama",
    "lat": 35.7031484,
    "lng": 139.9416595
  },
  {
    "id": "Q844706",
    "name_ja": "古淵",
    "name_en": "Kobuchi",
    "lat": 35.5559505,
    "lng": 139.4193144
  },
  {
    "id": "Q1040884",
    "name_ja": "戸越",
    "name_en": "Togoshi",
    "lat": 35.614502,
    "lng": 139.7163642
  },
  {
    "id": "Q11496630",
    "name_ja": "戸越銀座",
    "name_en": "Togoshi-ginza",
    "lat": 35.616206,
    "lng": 139.7150774
  },
  {
    "id": "Q999134",
    "name_ja": "戸越公園",
    "name_en": "Togoshi-koen",
    "lat": 35.6089107,
    "lng": 139.7181853
  },
  {
    "id": "Q801522",
    "name_ja": "戸塚",
    "name_en": "Totsuka",
    "lat": 35.4005483,
    "lng": 139.534215
  },
  {
    "id": "way/208009365",
    "name_ja": "戸塚バスセンター",
    "name_en": "Totsuka bus station",
    "lat": 35.4003684,
    "lng": 139.53221
  },
  {
    "id": "Q5369332",
    "name_ja": "戸塚安行",
    "name_en": "Tozuka-angyo",
    "lat": 35.8589375,
    "lng": 139.7537018
  },
  {
    "id": "Q844437",
    "name_ja": "戸田",
    "name_en": "Toda",
    "lat": 35.8176989,
    "lng": 139.6695966
  },
  {
    "id": "Q844571",
    "name_ja": "戸田公園",
    "name_en": "Todakoen",
    "lat": 35.8079089,
    "lng": 139.6781947
  },
  {
    "id": "Q7813045",
    "name_ja": "戸頭",
    "name_en": "Togashira",
    "lat": 35.9293333,
    "lng": 140.014095
  },
  {
    "id": "Q7811562",
    "name_ja": "戸部",
    "name_en": "Tobe",
    "lat": 35.4567461,
    "lng": 139.6195351
  },
  {
    "id": "Q5366305",
    "name_ja": "湖北",
    "name_en": "Kohoku",
    "lat": 35.8672452,
    "lng": 140.0777789
  },
  {
    "id": "Q347972",
    "name_ja": "虎ノ門",
    "name_en": "Toranomon",
    "lat": 35.6701871,
    "lng": 139.750056
  },
  {
    "id": "Q59452622",
    "name_ja": "虎ノ門ヒルズ",
    "name_en": "Toranomon Hills",
    "lat": 35.6674688,
    "lng": 139.7477648
  },
  {
    "id": "Q573427",
    "name_ja": "五井",
    "name_en": "Goi",
    "lat": 35.5130963,
    "lng": 140.0895617
  },
  {
    "id": "Q4409583",
    "name_ja": "五月台",
    "name_en": "Satsukidai",
    "lat": 35.600175,
    "lng": 139.4936136
  },
  {
    "id": "Q5578138",
    "name_ja": "五香",
    "name_en": "Goko",
    "lat": 35.7969782,
    "lng": 139.9659283
  },
  {
    "id": "Q736018",
    "name_ja": "五反田",
    "name_en": "Gotanda",
    "lat": 35.6262562,
    "lng": 139.7236303
  },
  {
    "id": "way/940252691",
    "name_ja": "五反田駅【Ａ１出入口】",
    "lat": 35.626043,
    "lng": 139.7228969
  },
  {
    "id": "Q5587720",
    "name_ja": "五反野",
    "name_en": "Gotanno",
    "lat": 35.7659593,
    "lng": 139.8094973
  },
  {
    "id": "Q1039085",
    "name_ja": "御成門",
    "name_en": "Onarimon",
    "lat": 35.6608011,
    "lng": 139.7513591
  },
  {
    "id": "Q801289",
    "name_ja": "御茶ノ水",
    "name_en": "Ochanomizu",
    "lat": 35.6996103,
    "lng": 139.7649486
  },
  {
    "id": "Q801296",
    "name_ja": "御徒町",
    "name_en": "Okachimachi",
    "lat": 35.7069531,
    "lng": 139.7746303
  },
  {
    "id": "Q7094574",
    "name_ja": "御嶽山",
    "name_en": "Ontakesan",
    "lat": 35.5852523,
    "lng": 139.6824718
  },
  {
    "id": "Q331941",
    "name_ja": "護国寺",
    "name_en": "Gokokuji",
    "lat": 35.7190787,
    "lng": 139.7274629
  },
  {
    "id": "Q1132210",
    "name_ja": "光が丘",
    "name_en": "Hikarigaoka",
    "lat": 35.7585523,
    "lng": 139.6293801
  },
  {
    "id": "Q11388598",
    "name_ja": "光風台",
    "name_en": "Kofudai",
    "lat": 35.4403536,
    "lng": 140.1142057
  },
  {
    "id": "Q11391979",
    "name_ja": "公園",
    "name_en": "Koen",
    "lat": 35.7307393,
    "lng": 140.1537491
  },
  {
    "id": "Q994477",
    "name_ja": "厚木",
    "name_en": "Atsugi",
    "lat": 35.4433894,
    "lng": 139.3783891
  },
  {
    "id": "Q11409242",
    "name_ja": "厚木バスセンター",
    "name_en": "Atsugi Bus Center",
    "lat": 35.4414142,
    "lng": 139.3666486
  },
  {
    "id": "Q801204",
    "name_ja": "向ヶ丘遊園",
    "name_en": "Mukogaoka-Yuen",
    "lat": 35.6172082,
    "lng": 139.5645472
  },
  {
    "id": "way/1144088941",
    "name_ja": "向ヶ丘遊園駅",
    "lat": 35.6179485,
    "lng": 139.5648791
  },
  {
    "id": "node/2587551137",
    "name_ja": "向ヶ丘遊園駅南口",
    "lat": 35.616652,
    "lng": 139.5645217
  },
  {
    "id": "Q5366346",
    "name_ja": "向河原",
    "name_en": "Mukaigawara",
    "lat": 35.5729577,
    "lng": 139.6672188
  },
  {
    "id": "Q10918083",
    "name_ja": "向原",
    "name_en": "Mukohara",
    "lat": 35.7290407,
    "lng": 139.7250932
  },
  {
    "id": "Q7396765",
    "name_ja": "幸浦",
    "name_en": "Sachiura",
    "lat": 35.3583376,
    "lng": 139.6437391
  },
  {
    "id": "Q11484081",
    "name_ja": "幸谷",
    "name_en": "Koya",
    "lat": 35.8265973,
    "lng": 139.9198204
  },
  {
    "id": "Q1156428",
    "name_ja": "広尾",
    "name_en": "Hiro-o",
    "lat": 35.6520629,
    "lng": 139.7222033
  },
  {
    "id": "Q11063262",
    "name_ja": "庚申塚",
    "name_en": "Koshinzuka",
    "lat": 35.7396036,
    "lng": 139.7297221
  },
  {
    "id": "Q5350525",
    "name_ja": "江古田",
    "name_en": "Ekoda",
    "lat": 35.7375689,
    "lng": 139.6727894
  },
  {
    "id": "way/825209876",
    "name_ja": "江古田の森",
    "lat": 35.7295067,
    "lng": 139.6661698
  },
  {
    "id": "Q5340176",
    "name_ja": "江戸川",
    "name_en": "Edogawa",
    "lat": 35.7377552,
    "lng": 139.8958777
  },
  {
    "id": "Q331929",
    "name_ja": "江戸川橋",
    "name_en": "Edogawabashi",
    "lat": 35.7095155,
    "lng": 139.7335636
  },
  {
    "id": "Q5340181",
    "name_ja": "江戸川台",
    "name_en": "Edogawadai",
    "lat": 35.8974601,
    "lng": 139.9103806
  },
  {
    "id": "Q5335639",
    "name_ja": "江田",
    "name_en": "Eda",
    "lat": 35.5585746,
    "lng": 139.5514544
  },
  {
    "id": "Q6455131",
    "name_ja": "江北",
    "name_en": "Kohoku",
    "lat": 35.7738081,
    "lng": 139.7703113
  },
  {
    "id": "Q6863265",
    "name_ja": "港町",
    "name_en": "Minatocho",
    "lat": 35.5350326,
    "lng": 139.7124679
  },
  {
    "id": "Q844457",
    "name_ja": "港南台",
    "name_en": "Konandai",
    "lat": 35.3752947,
    "lng": 139.5766957
  },
  {
    "id": "Q573434",
    "name_ja": "港南中央",
    "name_en": "Konan-chuo",
    "lat": 35.4011996,
    "lng": 139.5911667
  },
  {
    "id": "Q5366296",
    "name_ja": "溝の口",
    "name_en": "Mizonokuchi",
    "lat": 35.5999254,
    "lng": 139.6105114
  },
  {
    "id": "way/162271491",
    "name_ja": "溝口駅前",
    "lat": 35.5995189,
    "lng": 139.6112938
  },
  {
    "id": "Q6455297",
    "name_ja": "甲州街道",
    "name_en": "Koshukaido",
    "lat": 35.6782996,
    "lng": 139.4092084
  },
  {
    "id": "Q7937387",
    "name_ja": "綱島",
    "name_en": "Tsunashima",
    "lat": 35.5367416,
    "lng": 139.634683
  },
  {
    "id": "Q6455205",
    "name_ja": "航空公園",
    "name_en": "Koku-koen",
    "lat": 35.7983033,
    "lng": 139.4656794
  },
  {
    "id": "Q11618515",
    "name_ja": "荒川一中前",
    "name_en": "Arakawa-itchumae",
    "lat": 35.7337167,
    "lng": 139.7889304
  },
  {
    "id": "Q11618540",
    "name_ja": "荒川区役所前",
    "name_en": "Arakawa-kuyakushomae",
    "lat": 35.7349219,
    "lng": 139.7864577
  },
  {
    "id": "Q11618516",
    "name_ja": "荒川七丁目",
    "name_en": "Arakawa-nanachome",
    "lat": 35.741991,
    "lng": 139.7841403
  },
  {
    "id": "Q11618624",
    "name_ja": "荒川車庫前",
    "name_en": "Arakawa-shakomae",
    "lat": 35.750891,
    "lng": 139.7527129
  },
  {
    "id": "Q11618522",
    "name_ja": "荒川二丁目",
    "name_en": "Arakawa-nichome",
    "lat": 35.7386835,
    "lng": 139.7846639
  },
  {
    "id": "Q11618626",
    "name_ja": "荒川遊園地前",
    "name_en": "Arakawa-yuenchimae",
    "lat": 35.7506767,
    "lng": 139.7579108
  },
  {
    "id": "Q552818",
    "name_ja": "行川アイランド",
    "name_en": "Namegawa-Island",
    "lat": 35.1182556,
    "lng": 140.2259359
  },
  {
    "id": "Q128806",
    "name_ja": "行徳",
    "name_en": "Gyotoku",
    "lat": 35.6828816,
    "lng": 139.9145062
  },
  {
    "id": "Q6346410",
    "name_ja": "香川",
    "name_en": "Kagawa",
    "lat": 35.3565035,
    "lng": 139.3997553
  },
  {
    "id": "Q31309",
    "name_ja": "高井戸",
    "name_en": "Takaido",
    "lat": 35.683248,
    "lng": 139.6149498
  },
  {
    "id": "Q801056",
    "name_ja": "高円寺",
    "name_en": "Kōenji",
    "lat": 35.7055421,
    "lng": 139.6499648
  },
  {
    "id": "Q7677176",
    "name_ja": "高根公団",
    "name_en": "Takanekodan",
    "lat": 35.7302213,
    "lng": 140.0296623
  },
  {
    "id": "node/2056213337",
    "name_ja": "高根公団駅 (Takanekodan Station)",
    "name_en": "Takanekodan Station",
    "lat": 35.730253,
    "lng": 140.0302309
  },
  {
    "id": "Q7677174",
    "name_ja": "高根木戸",
    "name_en": "Takanekido",
    "lat": 35.7267329,
    "lng": 140.0347504
  },
  {
    "id": "Q4226172",
    "name_ja": "高座渋谷",
    "name_en": "Koza-Shibuya",
    "lat": 35.4319521,
    "lng": 139.4646902
  },
  {
    "id": "Q7677135",
    "name_ja": "高松",
    "name_en": "Takamatsu",
    "lat": 35.7101518,
    "lng": 139.4132745
  },
  {
    "id": "Q7677419",
    "name_ja": "高滝",
    "name_en": "Takataki",
    "lat": 35.3532938,
    "lng": 140.1503489
  },
  {
    "id": "Q7677439",
    "name_ja": "高津",
    "name_en": "Takatsu",
    "lat": 35.603179,
    "lng": 139.6169636
  },
  {
    "id": "node/5824650277",
    "name_ja": "高塚",
    "lat": 35.7630207,
    "lng": 139.9416526
  },
  {
    "id": "Q7677418",
    "name_ja": "高田",
    "name_en": "Takata",
    "lat": 35.5496776,
    "lng": 139.6200521
  },
  {
    "id": "Q850673",
    "name_ja": "高島町",
    "name_en": "Takashimacho",
    "lat": 35.4584508,
    "lng": 139.6238581
  },
  {
    "id": "Q1038971",
    "name_ja": "高島平",
    "name_en": "Takashimadaira",
    "lat": 35.7889131,
    "lng": 139.6612548
  },
  {
    "id": "Q1064614",
    "name_ja": "高幡不動",
    "name_en": "Takahatafudo",
    "lat": 35.66128,
    "lng": 139.4151494
  },
  {
    "id": "way/207845595",
    "name_ja": "高幡不動駅",
    "lat": 35.6614242,
    "lng": 139.415189
  },
  {
    "id": "Q1065002",
    "name_ja": "高尾",
    "name_en": "Takao",
    "lat": 35.64166,
    "lng": 139.2816337
  },
  {
    "id": "node/12715650318",
    "name_ja": "高尾駅南口",
    "lat": 35.6417108,
    "lng": 139.2838084
  },
  {
    "id": "node/12715650317",
    "name_ja": "高尾駅北口",
    "lat": 35.6421221,
    "lng": 139.2811639
  },
  {
    "id": "Q4450115",
    "name_ja": "高尾山口",
    "name_en": "Takaosanguchi",
    "lat": 35.6325002,
    "lng": 139.2699078
  },
  {
    "id": "Q6455332",
    "name_ja": "高野",
    "name_en": "Koya",
    "lat": 35.7685095,
    "lng": 139.7706994
  },
  {
    "id": "Q7677472",
    "name_ja": "高柳",
    "name_en": "Takayanagi",
    "lat": 35.8081725,
    "lng": 139.9988464
  },
  {
    "id": "Q1040769",
    "name_ja": "高輪台",
    "name_en": "Takanawadai",
    "lat": 35.6317345,
    "lng": 139.7304256
  },
  {
    "id": "Q6428027",
    "name_ja": "高麗",
    "name_en": "Koma",
    "lat": 35.8817112,
    "lng": 139.3044363
  },
  {
    "id": "Q910599",
    "name_ja": "高麗川",
    "name_en": "Komagawa",
    "lat": 35.8962692,
    "lng": 139.3379886
  },
  {
    "id": "Q4147064",
    "name_ja": "豪徳寺",
    "name_en": "Gotokuji",
    "lat": 35.6535429,
    "lng": 139.6468507
  },
  {
    "id": "Q331948",
    "name_ja": "麹町",
    "name_en": "Kojimachi",
    "lat": 35.6840244,
    "lng": 139.7376514
  },
  {
    "id": "Q1192508",
    "name_ja": "国会議事堂前",
    "name_en": "Kokkai-gijidomae",
    "lat": 35.6736889,
    "lng": 139.7434262
  },
  {
    "id": "Q841567",
    "name_ja": "国際展示場",
    "name_en": "Kokusai-tenjijo",
    "lat": 35.6344374,
    "lng": 139.7917555
  },
  {
    "id": "Q77872",
    "name_ja": "国道",
    "name_en": "Kokudo",
    "lat": 35.5009768,
    "lng": 139.675399
  },
  {
    "id": "Q6455240",
    "name_ja": "国府台",
    "name_en": "Konodai",
    "lat": 35.7364217,
    "lng": 139.9025067
  },
  {
    "id": "Q251693",
    "name_ja": "国分寺",
    "name_en": "Kokubunji",
    "lat": 35.7001003,
    "lng": 139.4803582
  },
  {
    "id": "node/7968442694",
    "name_ja": "国分寺駅北口",
    "lat": 35.7015843,
    "lng": 139.4805116
  },
  {
    "id": "way/154659062",
    "name_ja": "国分寺台第12",
    "name_en": "Kokubunjidai No.12",
    "lat": 35.4323001,
    "lng": 139.4166787
  },
  {
    "id": "Q474512",
    "name_ja": "国立",
    "name_en": "Kunitachi",
    "lat": 35.6992413,
    "lng": 139.4465312
  },
  {
    "id": "Q275113",
    "name_ja": "国立競技場",
    "name_en": "Kokuritsu-kyogijo",
    "lat": 35.6801003,
    "lng": 139.7139442
  },
  {
    "id": "node/13094564302",
    "name_ja": "国立相模原病院",
    "lat": 35.5202275,
    "lng": 139.4126437
  },
  {
    "id": "Q4227494",
    "name_ja": "国領",
    "name_en": "Kokuryo",
    "lat": 35.6502158,
    "lng": 139.558541
  },
  {
    "id": "Q858839",
    "name_ja": "鵠沼",
    "name_en": "Kugenuma",
    "lat": 35.3214239,
    "lng": 139.4826015
  },
  {
    "id": "Q4244329",
    "name_ja": "鵠沼海岸",
    "name_en": "Kugenuma-Kaigan",
    "lat": 35.3207079,
    "lng": 139.4712735
  },
  {
    "id": "Q4248710",
    "name_ja": "黒川",
    "name_en": "Kurokawa",
    "lat": 35.6132327,
    "lng": 139.4707421
  },
  {
    "id": "Q858923",
    "name_ja": "腰越",
    "name_en": "Koshigoe",
    "lat": 35.3083817,
    "lng": 139.4932077
  },
  {
    "id": "Q4229429",
    "name_ja": "狛江",
    "name_en": "Komae",
    "lat": 35.632315,
    "lng": 139.5774238
  },
  {
    "id": "Q11377372",
    "name_ja": "今羽",
    "name_en": "Komba",
    "lat": 35.9500873,
    "lng": 139.619606
  },
  {
    "id": "Q801241",
    "name_ja": "根岸",
    "name_en": "Negishi",
    "lat": 35.4156572,
    "lng": 139.6350502
  },
  {
    "id": "Q390655",
    "name_ja": "根津",
    "name_en": "Nezu",
    "lat": 35.7173914,
    "lng": 139.7657175
  },
  {
    "id": "Q865225",
    "name_ja": "佐貫",
    "name_en": "Sanuki",
    "lat": 35.9296034,
    "lng": 140.1384174
  },
  {
    "id": "Q558870",
    "name_ja": "佐貫町",
    "name_en": "Sanukimachi",
    "lat": 35.2606226,
    "lng": 139.8760746
  },
  {
    "id": "Q7403176",
    "name_ja": "佐倉",
    "name_en": "Sakura",
    "lat": 35.7096485,
    "lng": 140.2261029
  },
  {
    "id": "Q7638759",
    "name_ja": "砂川七番",
    "name_en": "Sunagawa-Nanaban",
    "lat": 35.7233752,
    "lng": 139.418131
  },
  {
    "id": "Q4160705",
    "name_ja": "座間",
    "name_en": "Zama",
    "lat": 35.4807147,
    "lng": 139.3999256
  },
  {
    "id": "Q7402739",
    "name_ja": "坂戸",
    "name_en": "Sakado",
    "lat": 35.9570602,
    "lng": 139.3937702
  },
  {
    "id": "Q852854",
    "name_ja": "阪東橋",
    "name_en": "Bandobashi",
    "lat": 35.4376268,
    "lng": 139.6251489
  },
  {
    "id": "Q843170",
    "name_ja": "鷺ノ宮",
    "name_en": "Saginomiya",
    "lat": 35.7226521,
    "lng": 139.639543
  },
  {
    "id": "Q7399289",
    "name_ja": "鷺沼",
    "name_en": "Saginuma",
    "lat": 35.5794438,
    "lng": 139.572855
  },
  {
    "id": "node/2144999710",
    "name_ja": "鷺沼駅",
    "lat": 35.5791957,
    "lng": 139.5734137
  },
  {
    "id": "Q7403224",
    "name_ja": "作草部",
    "name_en": "Sakusabe",
    "lat": 35.6256955,
    "lng": 140.1152507
  },
  {
    "id": "Q4405554",
    "name_ja": "桜ヶ丘",
    "name_en": "Sakuragaoka",
    "lat": 35.4505637,
    "lng": 139.4657711
  },
  {
    "id": "Q7403154",
    "name_ja": "桜街道",
    "name_en": "Sakurakaido",
    "lat": 35.739065,
    "lng": 139.416651
  },
  {
    "id": "Q842009",
    "name_ja": "桜上水",
    "name_en": "Sakurajosui",
    "lat": 35.6675627,
    "lng": 139.6320107
  },
  {
    "id": "Q261870",
    "name_ja": "桜新町",
    "name_en": "Sakura-shimmachi",
    "lat": 35.6317241,
    "lng": 139.6453688
  },
  {
    "id": "Q843041",
    "name_ja": "桜台",
    "name_en": "Sakuradai",
    "lat": 35.7387537,
    "lng": 139.6623844
  },
  {
    "id": "Q277196",
    "name_ja": "桜田門",
    "name_en": "Sakuradamon",
    "lat": 35.6774009,
    "lng": 139.7515757
  },
  {
    "id": "way/352942598",
    "name_ja": "桜美林学園スクールバス発着所",
    "lat": 35.5686585,
    "lng": 139.3955457
  },
  {
    "id": "Q7403200",
    "name_ja": "桜木",
    "name_en": "Sakuragi",
    "lat": 35.6312486,
    "lng": 140.161015
  },
  {
    "id": "relation/12392262",
    "name_ja": "桜木町駅",
    "lat": 35.4515123,
    "lng": 139.6316013
  },
  {
    "id": "node/11258215401",
    "name_ja": "桜木町駅前",
    "name_en": "Sakuragicho Station",
    "lat": 35.4519249,
    "lng": 139.6316065
  },
  {
    "id": "Q841861",
    "name_ja": "笹塚",
    "name_en": "Sasazuka",
    "lat": 35.6736801,
    "lng": 139.6672321
  },
  {
    "id": "Q128312",
    "name_ja": "雑司が谷",
    "name_en": "Zoshigaya",
    "lat": 35.7202465,
    "lng": 139.7147782
  },
  {
    "id": "Q8076244",
    "name_ja": "雑色",
    "name_en": "Zoshiki",
    "lat": 35.5496951,
    "lng": 139.7149801
  },
  {
    "id": "Q3019291",
    "name_ja": "鮫洲",
    "name_en": "Samezu",
    "lat": 35.6050235,
    "lng": 139.7422644
  },
  {
    "id": "Q11354006",
    "name_ja": "三ツ境",
    "name_en": "Mitsukyo",
    "lat": 35.4678244,
    "lng": 139.5025493
  },
  {
    "id": "Q589920",
    "name_ja": "三ツ沢下町",
    "name_en": "Mitsuzawa-shimocho",
    "lat": 35.4765085,
    "lng": 139.6160911
  },
  {
    "id": "Q903553",
    "name_ja": "三ツ沢上町",
    "name_en": "Mitsuzawa-kamicho",
    "lat": 35.4764152,
    "lng": 139.6056459
  },
  {
    "id": "Q1072979",
    "name_ja": "三ノ輪",
    "name_en": "Minowa",
    "lat": 35.7295502,
    "lng": 139.7913004
  },
  {
    "id": "Q9027040",
    "name_ja": "三ノ輪橋",
    "name_en": "Minowabashi",
    "lat": 35.7321207,
    "lng": 139.7915752
  },
  {
    "id": "way/1008699338",
    "name_ja": "三井アウトレットパーク木更津 バスターミナルÅ",
    "lat": 35.434171,
    "lng": 139.9382065
  },
  {
    "id": "node/9306998038",
    "name_ja": "三井アウトレットパーク木更津 バスターミナルＢ",
    "lat": 35.4380757,
    "lng": 139.9345583
  },
  {
    "id": "Q5371356",
    "name_ja": "三浦海岸",
    "name_en": "Miurakaigan",
    "lat": 35.1882147,
    "lng": 139.6532667
  },
  {
    "id": "Q76898",
    "name_ja": "三越前",
    "name_en": "Mitsukoshimae",
    "lat": 35.6849516,
    "lng": 139.7730743
  },
  {
    "id": "Q865170",
    "name_ja": "三河島",
    "name_en": "Mikawashima",
    "lat": 35.7332922,
    "lng": 139.7777743
  },
  {
    "id": "Q6875181",
    "name_ja": "三郷",
    "name_en": "Misato",
    "lat": 35.8450367,
    "lng": 139.8857791
  },
  {
    "id": "Q5368856",
    "name_ja": "三郷中央",
    "name_en": "Misato-chuo",
    "lat": 35.8245541,
    "lng": 139.8784111
  },
  {
    "id": "Q7417938",
    "name_ja": "三軒茶屋",
    "name_en": "Sangen-jaya",
    "lat": 35.6440586,
    "lng": 139.669068
  },
  {
    "id": "Q6875087",
    "name_ja": "三咲",
    "name_en": "Misaki",
    "lat": 35.749075,
    "lng": 140.0285203
  },
  {
    "id": "Q846713",
    "name_ja": "三崎口",
    "name_en": "Misakiguchi",
    "lat": 35.1778307,
    "lng": 139.6330533
  },
  {
    "id": "Q546655",
    "name_ja": "三鷹",
    "name_en": "Mitaka",
    "lat": 35.7027148,
    "lng": 139.560901
  },
  {
    "id": "Q4296577",
    "name_ja": "三鷹台",
    "name_en": "Mitakadai",
    "lat": 35.6922426,
    "lng": 139.5889139
  },
  {
    "id": "Q905732",
    "name_ja": "三田",
    "name_en": "Mita",
    "lat": 35.6476619,
    "lng": 139.7483983
  },
  {
    "id": "Q1010020",
    "name_ja": "参宮橋",
    "name_en": "Sangubashi",
    "lat": 35.6787414,
    "lng": 139.6936737
  },
  {
    "id": "Q8047952",
    "name_ja": "山下",
    "name_en": "Yamashita",
    "lat": 35.6538239,
    "lng": 139.6465157
  },
  {
    "id": "node/304559132",
    "name_ja": "山下公園",
    "name_en": "Yamashita Park",
    "lat": 35.4462338,
    "lng": 139.6514609
  },
  {
    "id": "node/6201461251",
    "name_ja": "山崎団地センター",
    "lat": 35.5676982,
    "lng": 139.4358471
  },
  {
    "id": "Q801651",
    "name_ja": "山手",
    "name_en": "Yamate",
    "lat": 35.4272033,
    "lng": 139.6462837
  },
  {
    "id": "node/13113047863",
    "name_ja": "山上",
    "name_en": "Sancho",
    "lat": 35.6324883,
    "lng": 139.2576432
  },
  {
    "id": "node/2422406051",
    "name_ja": "山頂ステイション",
    "lat": 35.6241523,
    "lng": 139.5178693
  },
  {
    "id": "Q4537539",
    "name_ja": "山田",
    "name_en": "Yamada",
    "lat": 35.6444148,
    "lng": 139.3211783
  },
  {
    "id": "node/9908580458",
    "name_ja": "山麓",
    "name_en": "Sanroku",
    "lat": 35.6315586,
    "lng": 139.2668386
  },
  {
    "id": "Q7418197",
    "name_ja": "産業振興センター",
    "name_en": "Sangyoshinko Center",
    "lat": 35.3534255,
    "lng": 139.646291
  },
  {
    "id": "Q8015357",
    "name_ja": "四ツ木",
    "name_en": "Yotsugi",
    "lat": 35.7317433,
    "lng": 139.8348561
  },
  {
    "id": "Q8013017",
    "name_ja": "四街道",
    "name_en": "Yotsukaido",
    "lat": 35.6630267,
    "lng": 140.1655995
  },
  {
    "id": "Q1073207",
    "name_ja": "四谷三丁目",
    "name_en": "Yotsuya-sanchome",
    "lat": 35.687988,
    "lng": 139.7205752
  },
  {
    "id": "Q573432",
    "name_ja": "姉ケ崎",
    "name_en": "Anegasaki",
    "lat": 35.4785994,
    "lng": 140.0421725
  },
  {
    "id": "Q6435147",
    "name_ja": "子安",
    "name_en": "Koyasu",
    "lat": 35.4846434,
    "lng": 139.6451231
  },
  {
    "id": "Q11479967",
    "name_ja": "市が尾",
    "name_en": "Ichigao",
    "lat": 35.5513481,
    "lng": 139.5412811
  },
  {
    "id": "node/2591156435",
    "name_ja": "市が尾駅",
    "name_en": "Ichigao Station",
    "lat": 35.5518863,
    "lng": 139.5418944
  },
  {
    "id": "Q859054",
    "name_ja": "市場前",
    "name_en": "Shijō-mae",
    "lat": 35.645771,
    "lng": 139.7857992
  },
  {
    "id": "Q1067608",
    "name_ja": "市川",
    "name_en": "Ichikawa",
    "lat": 35.7288741,
    "lng": 139.9081729
  },
  {
    "id": "Q844441",
    "name_ja": "市川塩浜",
    "name_en": "Ichikawa-Shiohama",
    "lat": 35.6666362,
    "lng": 139.923649
  },
  {
    "id": "Q5986159",
    "name_ja": "市川真間",
    "name_en": "Ichikawamama",
    "lat": 35.7313977,
    "lng": 139.9115626
  },
  {
    "id": "Q2783576",
    "name_ja": "市川大野",
    "name_en": "Ichikawa-Ono",
    "lat": 35.7553848,
    "lng": 139.9512707
  },
  {
    "id": "Q7496125",
    "name_ja": "市大医学部",
    "name_en": "Shidai-Igakubu",
    "lat": 35.3439482,
    "lng": 139.6501527
  },
  {
    "id": "Q7499454",
    "name_ja": "市役所前",
    "name_en": "Shiyakushomae",
    "lat": 35.6072241,
    "lng": 140.1078479
  },
  {
    "id": "Q11490824",
    "name_ja": "志久",
    "name_en": "Shiku",
    "lat": 35.9912396,
    "lng": 139.6222033
  },
  {
    "id": "Q1039780",
    "name_ja": "志村坂上",
    "name_en": "Shimura-sakaue",
    "lat": 35.7756688,
    "lng": 139.6955288
  },
  {
    "id": "Q1039149",
    "name_ja": "志村三丁目",
    "name_en": "Shimura-sanchome",
    "lat": 35.7775108,
    "lng": 139.6859968
  },
  {
    "id": "Q7499472",
    "name_ja": "志津",
    "name_en": "Shizu",
    "lat": 35.7174567,
    "lng": 140.1449738
  },
  {
    "id": "Q151416",
    "name_ja": "志茂",
    "name_en": "Shimo",
    "lat": 35.7779045,
    "lng": 139.7325256
  },
  {
    "id": "node/12985575684",
    "name_ja": "志茂田",
    "lat": 35.5565786,
    "lng": 139.7120039
  },
  {
    "id": "Q5367643",
    "name_ja": "志木",
    "name_en": "Shiki",
    "lat": 35.8222228,
    "lng": 139.5751727
  },
  {
    "id": "Q844454",
    "name_ja": "指扇",
    "name_en": "Sashiogi",
    "lat": 35.9171426,
    "lng": 139.5650513
  },
  {
    "id": "Q7701522",
    "name_ja": "寺原",
    "name_en": "Terahara",
    "lat": 35.9119595,
    "lng": 140.0545417
  },
  {
    "id": "Q800972",
    "name_ja": "自由が丘",
    "name_en": "Jiyugaoka",
    "lat": 35.6075379,
    "lng": 139.6688278
  },
  {
    "id": "Q579091",
    "name_ja": "蒔田",
    "name_en": "Maita",
    "lat": 35.429909,
    "lng": 139.6099757
  },
  {
    "id": "Q7497872",
    "name_ja": "汐入",
    "name_en": "Shioiri",
    "lat": 35.2802909,
    "lng": 139.6621587
  },
  {
    "id": "Q1063299",
    "name_ja": "汐留",
    "name_en": "Shiodome",
    "lat": 35.662907,
    "lng": 139.7599723
  },
  {
    "id": "Q6962405",
    "name_ja": "七光台",
    "name_en": "Nanakōdai",
    "lat": 35.970634,
    "lng": 139.8529349
  },
  {
    "id": "Q6962432",
    "name_ja": "七里",
    "name_en": "Nanasato",
    "lat": 35.9363894,
    "lng": 139.6658159
  },
  {
    "id": "Q858960",
    "name_ja": "七里ヶ浜",
    "name_en": "Shichirigahama",
    "lat": 35.3062815,
    "lng": 139.510117
  },
  {
    "id": "Q6862305",
    "name_ja": "実籾",
    "name_en": "Mimomi",
    "lat": 35.6869069,
    "lng": 140.0684242
  },
  {
    "id": "Q1043876",
    "name_ja": "篠崎",
    "name_en": "Shinozaki",
    "lat": 35.7060788,
    "lng": 139.9038381
  },
  {
    "id": "Q4418205",
    "name_ja": "柴崎",
    "name_en": "Shibasaki",
    "lat": 35.6542424,
    "lng": 139.5670439
  },
  {
    "id": "Q7496025",
    "name_ja": "柴崎体育館",
    "name_en": "Shibasaki-Taiikukan",
    "lat": 35.6899232,
    "lng": 139.4094043
  },
  {
    "id": "Q7496017",
    "name_ja": "柴又",
    "name_en": "Shibamata",
    "lat": 35.7564295,
    "lng": 139.8751807
  },
  {
    "id": "Q858865",
    "name_ja": "芝浦ふ頭",
    "name_en": "Shibaura-futo",
    "lat": 35.6417379,
    "lng": 139.7577718
  },
  {
    "id": "Q905609",
    "name_ja": "芝公園",
    "name_en": "Shibakoen",
    "lat": 35.654237,
    "lng": 139.7498924
  },
  {
    "id": "Q7820886",
    "name_ja": "舎人",
    "name_en": "Toneri",
    "lat": 35.8056634,
    "lng": 139.7701164
  },
  {
    "id": "Q7820883",
    "name_ja": "舎人公園",
    "name_en": "Toneri-koen",
    "lat": 35.7963713,
    "lng": 139.7701613
  },
  {
    "id": "Q7462638",
    "name_ja": "社家",
    "name_en": "Shake",
    "lat": 35.4205554,
    "lng": 139.3772506
  },
  {
    "id": "Q246173",
    "name_ja": "若松河田",
    "name_en": "Wakamatsu-kawada",
    "lat": 35.6992849,
    "lng": 139.7184084
  },
  {
    "id": "Q7960744",
    "name_ja": "若葉",
    "name_en": "Wakaba",
    "lat": 35.9491238,
    "lng": 139.408806
  },
  {
    "id": "Q4102591",
    "name_ja": "若葉台",
    "name_en": "Wakabadai",
    "lat": 35.6193445,
    "lng": 139.4726652
  },
  {
    "id": "way/259309447",
    "name_ja": "若葉台中央",
    "lat": 35.5065554,
    "lng": 139.4986573
  },
  {
    "id": "Q7960749",
    "name_ja": "若林",
    "name_en": "Wakabayashi",
    "lat": 35.6459516,
    "lng": 139.6598567
  },
  {
    "id": "Q847830",
    "name_ja": "取手",
    "name_en": "Toride",
    "lat": 35.8963803,
    "lng": 140.0632184
  },
  {
    "id": "Q5371869",
    "name_ja": "守谷",
    "name_en": "Moriya",
    "lat": 35.9501173,
    "lng": 139.9919302
  },
  {
    "id": "Q7499126",
    "name_ja": "酒々井",
    "name_en": "Shisui",
    "lat": 35.731812,
    "lng": 140.2753243
  },
  {
    "id": "Q7667572",
    "name_ja": "宗吾参道",
    "name_en": "Sogosando",
    "lat": 35.7526509,
    "lng": 140.2810188
  },
  {
    "id": "Q858983",
    "name_ja": "秋山",
    "name_en": "Akiyama",
    "lat": 35.7652946,
    "lng": 139.9307424
  },
  {
    "id": "Q4700907",
    "name_ja": "秋川",
    "name_en": "Akigawa",
    "lat": 35.728075,
    "lng": 139.2866763
  },
  {
    "id": "way/947609688",
    "name_ja": "秋川駅",
    "lat": 35.7280864,
    "lng": 139.2866266
  },
  {
    "id": "Q842513",
    "name_ja": "秋津",
    "name_en": "Akitsu",
    "lat": 35.7785324,
    "lng": 139.496609
  },
  {
    "id": "Q800374",
    "name_ja": "秋葉原",
    "name_en": "Akihabara",
    "lat": 35.6985629,
    "lng": 139.7735906
  },
  {
    "id": "Q6965411",
    "name_ja": "習志野",
    "name_en": "Narashino",
    "lat": 35.7151548,
    "lng": 140.0427119
  },
  {
    "id": "node/2058140386",
    "name_ja": "習志野車庫(Narashino syako)",
    "name_en": "Narashino Syako",
    "lat": 35.7095067,
    "lng": 140.0606924
  },
  {
    "id": "Q80536",
    "name_ja": "住吉",
    "name_en": "Sumiyoshi",
    "lat": 35.6889959,
    "lng": 139.8156854
  },
  {
    "id": "Q800975",
    "name_ja": "十条",
    "name_en": "Jūjō",
    "lat": 35.7600083,
    "lng": 139.7223074
  },
  {
    "id": "Q844640",
    "name_ja": "十日市場",
    "name_en": "Tokaichiba",
    "lat": 35.5263056,
    "lng": 139.5165915
  },
  {
    "id": "node/2390425390",
    "name_ja": "十日市場駅",
    "lat": 35.5260988,
    "lng": 139.5161651
  },
  {
    "id": "Q428811",
    "name_ja": "渋谷",
    "name_en": "Shibuya",
    "lat": 35.65808,
    "lng": 139.7017647
  },
  {
    "id": "Q5364903",
    "name_ja": "渋谷マークシティ",
    "name_en": "Mark City Shibuya",
    "lat": 35.658258,
    "lng": 139.6986396
  },
  {
    "id": "Q5366653",
    "name_ja": "宿河原",
    "name_en": "Shukugawara",
    "lat": 35.6153368,
    "lng": 139.5797649
  },
  {
    "id": "Q842446",
    "name_ja": "春日部",
    "name_en": "Kasukabe",
    "lat": 35.980074,
    "lng": 139.7520793
  },
  {
    "id": "node/7786094954",
    "name_ja": "純心女子学園",
    "lat": 35.6919854,
    "lng": 139.3346721
  },
  {
    "id": "Q5681846",
    "name_ja": "初石",
    "name_en": "Hatsuishi",
    "lat": 35.8841332,
    "lng": 139.9177079
  },
  {
    "id": "Q4496691",
    "name_ja": "初台",
    "name_en": "Hatsudai",
    "lat": 35.6811565,
    "lng": 139.6862442
  },
  {
    "id": "Q5367450",
    "name_ja": "初富",
    "name_en": "Hatsutomi",
    "lat": 35.7722092,
    "lng": 140.0005603
  },
  {
    "id": "Q842569",
    "name_ja": "所沢",
    "name_en": "Tokorozawa",
    "lat": 35.7867907,
    "lng": 139.4733096
  },
  {
    "id": "way/265897360",
    "name_ja": "曙バスターミナル",
    "lat": 35.7005105,
    "lng": 139.4099768
  },
  {
    "id": "Q128308",
    "name_ja": "曙橋",
    "name_en": "Akebonobashi",
    "lat": 35.6924146,
    "lng": 139.7228634
  },
  {
    "id": "Q11446373",
    "name_ja": "女子大",
    "name_en": "Joshidai",
    "lat": 35.7382026,
    "lng": 140.1549737
  },
  {
    "id": "node/9217303327",
    "name_ja": "女子美術大学",
    "lat": 35.5292535,
    "lng": 139.3900581
  },
  {
    "id": "Q246191",
    "name_ja": "勝どき",
    "name_en": "Kachidoki",
    "lat": 35.6589623,
    "lng": 139.7771747
  },
  {
    "id": "Q4502157",
    "name_ja": "勝田台",
    "name_en": "Katsutadai",
    "lat": 35.715463,
    "lng": 140.1260447
  },
  {
    "id": "Q1067969",
    "name_ja": "小岩",
    "name_en": "Koiwa",
    "lat": 35.7332364,
    "lng": 139.881843
  },
  {
    "id": "node/2741669252",
    "name_ja": "小岩駅前",
    "name_en": "Koiwa Station",
    "lat": 35.7327706,
    "lng": 139.8819689
  },
  {
    "id": "Q909994",
    "name_ja": "小机",
    "name_en": "Kozukue",
    "lat": 35.5086932,
    "lng": 139.5997176
  },
  {
    "id": "Q844334",
    "name_ja": "小宮",
    "name_en": "Komiya",
    "lat": 35.6855706,
    "lng": 139.3688288
  },
  {
    "id": "Q11464338",
    "name_ja": "小金城趾",
    "name_en": "Koganejoshi",
    "lat": 35.8357466,
    "lng": 139.9173419
  },
  {
    "id": "Q6426642",
    "name_ja": "小絹",
    "name_en": "Kokinu",
    "lat": 35.981199,
    "lng": 139.9832171
  },
  {
    "id": "Q7116441",
    "name_ja": "小作",
    "name_en": "Ozaku",
    "lat": 35.7763109,
    "lng": 139.3019232
  },
  {
    "id": "way/1187931938",
    "name_ja": "小山田",
    "lat": 35.5996559,
    "lng": 139.3998987
  },
  {
    "id": "way/1187931940",
    "name_ja": "小山田はなみずきの丘",
    "lat": 35.595987,
    "lng": 139.4003621
  },
  {
    "id": "way/1058094890",
    "name_ja": "小山田桜台",
    "lat": 35.5882808,
    "lng": 139.4024692
  },
  {
    "id": "Q6428666",
    "name_ja": "小室",
    "name_en": "Komuro",
    "lat": 35.7870031,
    "lng": 140.0762111
  },
  {
    "id": "Q6433936",
    "name_ja": "小手指",
    "name_en": "Kotesashi",
    "lat": 35.8006184,
    "lng": 139.4377917
  },
  {
    "id": "Q6433611",
    "name_ja": "小菅",
    "name_en": "Kosuge",
    "lat": 35.7586732,
    "lng": 139.8126428
  },
  {
    "id": "Q7079856",
    "name_ja": "小川",
    "name_en": "Ogawa",
    "lat": 35.7374095,
    "lng": 139.4635507
  },
  {
    "id": "Q1074315",
    "name_ja": "小川町",
    "name_en": "Ogawamachi",
    "lat": 35.6949465,
    "lng": 139.7662986
  },
  {
    "id": "Q7080299",
    "name_ja": "小倉台",
    "name_en": "Oguradai",
    "lat": 35.6277152,
    "lng": 140.1717592
  },
  {
    "id": "Q7090805",
    "name_ja": "小村井",
    "name_en": "Omurai",
    "lat": 35.7102802,
    "lng": 139.8277754
  },
  {
    "id": "Q10958045",
    "name_ja": "小台",
    "name_en": "Odai",
    "lat": 35.7505193,
    "lng": 139.7620294
  },
  {
    "id": "Q6435135",
    "name_ja": "小谷松",
    "name_en": "Koyamatsu",
    "lat": 35.2687827,
    "lng": 140.2514186
  },
  {
    "id": "Q93684",
    "name_ja": "小竹向原",
    "name_en": "Kotake-mukaihara",
    "lat": 35.7433734,
    "lng": 139.6795267
  },
  {
    "id": "Q1072970",
    "name_ja": "小伝馬町",
    "name_en": "Kodemmacho",
    "lat": 35.6907525,
    "lng": 139.7784526
  },
  {
    "id": "Q21020014",
    "name_ja": "小田栄",
    "name_en": "Odasakae",
    "lat": 35.5142066,
    "lng": 139.705298
  },
  {
    "id": "Q4331335",
    "name_ja": "小田急相模原",
    "name_en": "Odakyu-Sagamihara",
    "lat": 35.5151962,
    "lng": 139.422646
  },
  {
    "id": "Q6426486",
    "name_ja": "小島新田",
    "name_en": "Kojimashinden",
    "lat": 35.5347674,
    "lng": 139.7479108
  },
  {
    "id": "Q6425085",
    "name_ja": "小平",
    "name_en": "Kodaira",
    "lat": 35.7370404,
    "lng": 139.4882532
  },
  {
    "id": "Q5363656",
    "name_ja": "小林",
    "name_en": "Kobayashi",
    "lat": 35.830567,
    "lng": 140.193306
  },
  {
    "id": "Q7074984",
    "name_ja": "小櫃",
    "name_en": "Obitsu",
    "lat": 35.3284083,
    "lng": 140.0599164
  },
  {
    "id": "way/1084119941",
    "name_ja": "庄戸バス折返場",
    "lat": 35.3513758,
    "lng": 139.5840113
  },
  {
    "id": "Q844152",
    "name_ja": "昭島",
    "name_en": "Akishima",
    "lat": 35.7135703,
    "lng": 139.3608938
  },
  {
    "id": "Q1581652",
    "name_ja": "昭和",
    "name_en": "Showa",
    "lat": 35.5064693,
    "lng": 139.7240507
  },
  {
    "id": "Q5368842",
    "name_ja": "昭和島",
    "name_en": "Showajima",
    "lat": 35.5708971,
    "lng": 139.750008
  },
  {
    "id": "node/9226729265",
    "name_ja": "昭和薬科大学",
    "lat": 35.55413,
    "lng": 139.4718353
  },
  {
    "id": "Q6788096",
    "name_ja": "松が谷",
    "name_en": "Matsugaya",
    "lat": 35.6318225,
    "lng": 139.4220673
  },
  {
    "id": "Q7506130",
    "name_ja": "松陰神社前",
    "name_en": "Shoin-jinja-mae",
    "lat": 35.6439381,
    "lng": 139.6551898
  },
  {
    "id": "Q6788018",
    "name_ja": "松原",
    "name_en": "Matsubara",
    "lat": 35.6601167,
    "lng": 139.641968
  },
  {
    "id": "Q841460",
    "name_ja": "松戸",
    "name_en": "Matsudo",
    "lat": 35.7843061,
    "lng": 139.9009417
  },
  {
    "id": "way/43942410",
    "name_ja": "松戸駅東口",
    "lat": 35.7834819,
    "lng": 139.9017123
  },
  {
    "id": "Q11530713",
    "name_ja": "松戸新田",
    "name_en": "Matsudo-Shinden",
    "lat": 35.7906265,
    "lng": 139.9226166
  },
  {
    "id": "Q6788097",
    "name_ja": "松飛台",
    "name_en": "Matsuhidai",
    "lat": 35.775351,
    "lng": 139.9576128
  },
  {
    "id": "Q11554443",
    "name_ja": "沼南",
    "name_en": "Shonan",
    "lat": 35.9711107,
    "lng": 139.6236848
  },
  {
    "id": "way/1253817673",
    "name_ja": "沼南庁舎バス乗継場",
    "lat": 35.8420895,
    "lng": 140.007467
  },
  {
    "id": "Q11554639",
    "name_ja": "沼部",
    "name_en": "Numabe",
    "lat": 35.5827683,
    "lng": 139.6730652
  },
  {
    "id": "node/6341098577",
    "name_ja": "湘南ライフタウン",
    "lat": 35.3750013,
    "lng": 139.4340755
  },
  {
    "id": "Q858964",
    "name_ja": "湘南海岸公園",
    "name_en": "Shonankaigankoen",
    "lat": 35.3149457,
    "lng": 139.4836473
  },
  {
    "id": "Q1058486",
    "name_ja": "湘南江の島",
    "name_en": "Shonan-Enoshima",
    "lat": 35.3117271,
    "lng": 139.4877046
  },
  {
    "id": "Q1094911",
    "name_ja": "湘南深沢",
    "name_en": "Shonan-Fukasawa",
    "lat": 35.332872,
    "lng": 139.5188734
  },
  {
    "id": "node/2080880177",
    "name_ja": "湘南台駅西口",
    "lat": 35.3959679,
    "lng": 139.4659913
  },
  {
    "id": "node/2293298396",
    "name_ja": "湘南台駅東口",
    "name_en": "Shonandai Station East Entrance",
    "lat": 35.3965948,
    "lng": 139.4670436
  },
  {
    "id": "Q1093346",
    "name_ja": "湘南町屋",
    "name_en": "Shonan-Machiya",
    "lat": 35.3379507,
    "lng": 139.5226438
  },
  {
    "id": "Q6361921",
    "name_ja": "鐘ヶ淵",
    "name_en": "Kanegafuchi",
    "lat": 35.7337353,
    "lng": 139.8205233
  },
  {
    "id": "Q5973346",
    "name_ja": "上井草",
    "name_en": "Kami-Igusa",
    "lat": 35.7252616,
    "lng": 139.6030669
  },
  {
    "id": "Q841420",
    "name_ja": "上永谷",
    "name_en": "Kaminagaya",
    "lat": 35.4015158,
    "lng": 139.5725338
  },
  {
    "id": "way/1124138653",
    "name_ja": "上荻野車庫",
    "lat": 35.5125901,
    "lng": 139.2998832
  },
  {
    "id": "Q11359095",
    "name_ja": "上星川",
    "name_en": "Kami-Hoshikawa",
    "lat": 35.467719,
    "lng": 139.5800137
  },
  {
    "id": "Q842904",
    "name_ja": "上石神井",
    "name_en": "Kami-Shakujii",
    "lat": 35.7261749,
    "lng": 139.5925257
  },
  {
    "id": "Q6381705",
    "name_ja": "上総亀山",
    "name_en": "Kazusa-Kameyama",
    "lat": 35.233083,
    "lng": 140.0898393
  },
  {
    "id": "Q6381709",
    "name_ja": "上総久保",
    "name_en": "Kazusa-Kubo",
    "lat": 35.3675136,
    "lng": 140.154606
  },
  {
    "id": "Q6381724",
    "name_ja": "上総牛久",
    "name_en": "Kazusa-Ushiku",
    "lat": 35.4001414,
    "lng": 140.1420997
  },
  {
    "id": "Q553023",
    "name_ja": "上総興津",
    "name_en": "Kazusa-Okitsu",
    "lat": 35.1372413,
    "lng": 140.250935
  },
  {
    "id": "Q6381715",
    "name_ja": "上総三又",
    "name_en": "Kazusa-Mitsumata",
    "lat": 35.4660327,
    "lng": 140.1267656
  },
  {
    "id": "Q6381726",
    "name_ja": "上総山田",
    "name_en": "Kazusa-Yamada",
    "lat": 35.4542014,
    "lng": 140.1261824
  },
  {
    "id": "Q6381711",
    "name_ja": "上総松丘",
    "name_en": "Kazusa-Matsuoka",
    "lat": 35.2577956,
    "lng": 140.0639976
  },
  {
    "id": "Q11360046",
    "name_ja": "上総清川",
    "name_en": "Kazusa-Kiyokawa",
    "lat": 35.3909493,
    "lng": 139.9655402
  },
  {
    "id": "Q6381703",
    "name_ja": "上総川間",
    "name_en": "Kazusa-Kawama",
    "lat": 35.3881138,
    "lng": 140.1511237
  },
  {
    "id": "Q6381713",
    "name_ja": "上総村上",
    "name_en": "Kazusa-Murakami",
    "lat": 35.4962381,
    "lng": 140.1002691
  },
  {
    "id": "Q6381728",
    "name_ja": "上総大久保",
    "name_en": "Kazusa-Okubo",
    "lat": 35.2835084,
    "lng": 140.1458583
  },
  {
    "id": "Q6381717",
    "name_ja": "上総中川",
    "name_en": "Kazusa-Nakagawa",
    "lat": 35.2827011,
    "lng": 140.2804763
  },
  {
    "id": "Q6381719",
    "name_ja": "上総中野",
    "name_en": "Kazusa-Nakano",
    "lat": 35.250069,
    "lng": 140.1999004
  },
  {
    "id": "Q6381721",
    "name_ja": "上総鶴舞",
    "name_en": "Kazusa-Tsurumai",
    "lat": 35.3813997,
    "lng": 140.1651686
  },
  {
    "id": "Q558554",
    "name_ja": "上総湊",
    "name_en": "Kazusa-Minato",
    "lat": 35.2222837,
    "lng": 139.8712604
  },
  {
    "id": "Q865627",
    "name_ja": "上大岡",
    "name_en": "Kamiooka",
    "lat": 35.4090326,
    "lng": 139.5959771
  },
  {
    "id": "Q910858",
    "name_ja": "上中里",
    "name_en": "Kami-Nakazato",
    "lat": 35.746579,
    "lng": 139.7469796
  },
  {
    "id": "Q6357144",
    "name_ja": "上板橋",
    "name_en": "Kami-itabashi",
    "lat": 35.763474,
    "lng": 139.6765427
  },
  {
    "id": "Q800360",
    "name_ja": "上尾",
    "name_en": "Ageo",
    "lat": 35.9733274,
    "lng": 139.5884718
  },
  {
    "id": "Q11360002",
    "name_ja": "上福岡",
    "name_en": "Kami-fukuoka",
    "lat": 35.8739006,
    "lng": 139.5118041
  },
  {
    "id": "Q6357916",
    "name_ja": "上北台",
    "name_en": "Kamikitadai",
    "lat": 35.7458813,
    "lng": 139.4158575
  },
  {
    "id": "node/10968671547",
    "name_ja": "上北台駅",
    "lat": 35.7463226,
    "lng": 139.4162019
  },
  {
    "id": "Q4211559",
    "name_ja": "上北沢",
    "name_en": "Kami-kitazawa",
    "lat": 35.6688535,
    "lng": 139.6232912
  },
  {
    "id": "Q6357786",
    "name_ja": "上本郷",
    "name_en": "Kamihongo",
    "lat": 35.7896751,
    "lng": 139.9162363
  },
  {
    "id": "Q801551",
    "name_ja": "上野",
    "name_en": "Ueno",
    "lat": 35.7134128,
    "lng": 139.7765418
  },
  {
    "id": "Q80555",
    "name_ja": "上野御徒町",
    "name_en": "Ueno-okachimachi",
    "lat": 35.7079766,
    "lng": 139.7732996
  },
  {
    "id": "Q1156446",
    "name_ja": "上野広小路",
    "name_en": "Ueno-hirokoji",
    "lat": 35.7078328,
    "lng": 139.7729909
  },
  {
    "id": "Q6357226",
    "name_ja": "上野毛",
    "name_en": "Kaminoge",
    "lat": 35.6119862,
    "lng": 139.638886
  },
  {
    "id": "way/921126869",
    "name_ja": "城ヶ島",
    "lat": 35.1365331,
    "lng": 139.612247
  },
  {
    "id": "Q7498947",
    "name_ja": "城見ヶ丘",
    "name_en": "Shiromigaoka",
    "lat": 35.2916957,
    "lng": 140.2525511
  },
  {
    "id": "Q7813628",
    "name_ja": "常盤平",
    "name_en": "Tokiwadaira",
    "lat": 35.8033631,
    "lng": 139.9501113
  },
  {
    "id": "Q5367537",
    "name_ja": "尻手",
    "name_en": "Shitte",
    "lat": 35.5310748,
    "lng": 139.6842689
  },
  {
    "id": "Q335677",
    "name_ja": "信濃町",
    "name_en": "Shinanomachi",
    "lat": 35.6800236,
    "lng": 139.7204947
  },
  {
    "id": "Q3701488",
    "name_ja": "新井宿",
    "name_en": "Araijuku",
    "lat": 35.8429634,
    "lng": 139.7382293
  },
  {
    "id": "Q843454",
    "name_ja": "新井薬師前",
    "name_en": "Araiyakushi-mae",
    "lat": 35.7157294,
    "lng": 139.672568
  },
  {
    "id": "Q841479",
    "name_ja": "新羽",
    "name_en": "Nippa",
    "lat": 35.5274961,
    "lng": 139.6120343
  },
  {
    "id": "Q844256",
    "name_ja": "新浦安",
    "name_en": "Shin-Urayasu",
    "lat": 35.6495336,
    "lng": 139.9124954
  },
  {
    "id": "node/1312711916",
    "name_ja": "新浦安駅",
    "lat": 35.6497316,
    "lng": 139.913977
  },
  {
    "id": "Q280550",
    "name_ja": "新越谷",
    "name_en": "Shin-koshigaya",
    "lat": 35.8753395,
    "lng": 139.7898674
  },
  {
    "id": "node/2568867803",
    "name_ja": "新横浜駅",
    "lat": 35.5081221,
    "lng": 139.6170484
  },
  {
    "id": "Q7497441",
    "name_ja": "新河岸",
    "name_en": "Shingashi",
    "lat": 35.8913759,
    "lng": 139.4968378
  },
  {
    "id": "Q7497117",
    "name_ja": "新丸子",
    "name_en": "Shin-maruko",
    "lat": 35.5806646,
    "lng": 139.6620517
  },
  {
    "id": "Q801436",
    "name_ja": "新橋",
    "name_en": "Shimbashi",
    "lat": 35.6653482,
    "lng": 139.7598936
  },
  {
    "id": "Q7497127",
    "name_ja": "新狭山",
    "name_en": "Shin-Sayama",
    "lat": 35.8739552,
    "lng": 139.4334594
  },
  {
    "id": "Q908760",
    "name_ja": "新検見川",
    "name_en": "Shin-Kemigawa",
    "lat": 35.6517845,
    "lng": 140.0730979
  },
  {
    "id": "Q80433",
    "name_ja": "新御茶ノ水",
    "name_en": "Shin-ochanomizu",
    "lat": 35.6972185,
    "lng": 139.7656264
  },
  {
    "id": "Q80540",
    "name_ja": "新御徒町",
    "name_en": "Shin-okachimachi",
    "lat": 35.7070597,
    "lng": 139.7818428
  },
  {
    "id": "Q8191303",
    "name_ja": "新庚申塚",
    "name_en": "Shin-koshinzuka",
    "lat": 35.7415243,
    "lng": 139.7306336
  },
  {
    "id": "Q275527",
    "name_ja": "新江古田",
    "name_en": "Shin-egota",
    "lat": 35.7326022,
    "lng": 139.6704167
  },
  {
    "id": "Q72526734",
    "name_ja": "新綱島",
    "name_en": "Shin-Tsunashima",
    "lat": 35.5358452,
    "lng": 139.6361012
  },
  {
    "id": "Q1078400",
    "name_ja": "新高円寺",
    "name_en": "Shin-koenji",
    "lat": 35.6978735,
    "lng": 139.648688
  },
  {
    "id": "Q854231",
    "name_ja": "新高島",
    "name_en": "Shin-Takashima",
    "lat": 35.4619389,
    "lng": 139.6266407
  },
  {
    "id": "Q7034510",
    "name_ja": "新座",
    "name_en": "Niiza",
    "lat": 35.8037343,
    "lng": 139.5562
  },
  {
    "id": "Q7497126",
    "name_ja": "新桜台",
    "name_en": "Shin-Sakuradai",
    "lat": 35.7410899,
    "lng": 139.6686209
  },
  {
    "id": "Q5367894",
    "name_ja": "新三河島",
    "name_en": "Shim-Mikawashima",
    "lat": 35.7372049,
    "lng": 139.7739458
  },
  {
    "id": "Q6139591",
    "name_ja": "新三郷",
    "name_en": "Shim-Misato",
    "lat": 35.8588005,
    "lng": 139.8692259
  },
  {
    "id": "Q128314",
    "name_ja": "新子安",
    "name_en": "Shin-Koyasu",
    "lat": 35.4868754,
    "lng": 139.6541635
  },
  {
    "id": "Q5370898",
    "name_ja": "新柴又",
    "name_en": "Shin-Shibamata",
    "lat": 35.7510711,
    "lng": 139.8793606
  },
  {
    "id": "Q1581516",
    "name_ja": "新芝浦",
    "name_en": "Shin-Shibaura",
    "lat": 35.4919545,
    "lng": 139.7000251
  },
  {
    "id": "Q7497136",
    "name_ja": "新取手",
    "name_en": "Shin-Toride",
    "lat": 35.9174631,
    "lng": 140.0428185
  },
  {
    "id": "Q7497120",
    "name_ja": "新守谷",
    "name_en": "Shin-Moriya",
    "lat": 35.9665144,
    "lng": 139.9856512
  },
  {
    "id": "Q7497083",
    "name_ja": "新秋津",
    "name_en": "Shin-Akitsu",
    "lat": 35.7778733,
    "lng": 139.4933864
  },
  {
    "id": "Q2370433",
    "name_ja": "新習志野",
    "name_en": "Shin-Narashino",
    "lat": 35.6673499,
    "lng": 140.0128786
  },
  {
    "id": "Q1132610",
    "name_ja": "新宿御苑前",
    "name_en": "Shinjuku-gyoemmae",
    "lat": 35.6885735,
    "lng": 139.7107396
  },
  {
    "id": "Q7497140",
    "name_ja": "新所沢",
    "name_en": "Shin-Tokorozawa",
    "lat": 35.8066745,
    "lng": 139.4561526
  },
  {
    "id": "Q1063750",
    "name_ja": "新小岩",
    "name_en": "Shin-Koiwa",
    "lat": 35.7169836,
    "lng": 139.8580706
  },
  {
    "id": "Q5368666",
    "name_ja": "新小金井",
    "name_en": "Shin-Koganei",
    "lat": 35.6956595,
    "lng": 139.5265006
  },
  {
    "id": "Q7497112",
    "name_ja": "新小平",
    "name_en": "Shin-Kodaira",
    "lat": 35.7308413,
    "lng": 139.4705491
  },
  {
    "id": "Q6799406",
    "name_ja": "新松戸",
    "name_en": "Shin-Matsudo",
    "lat": 35.8253729,
    "lng": 139.9211293
  },
  {
    "id": "Q844465",
    "name_ja": "新杉田",
    "name_en": "Shin-Sugita",
    "lat": 35.3860018,
    "lng": 139.6204103
  },
  {
    "id": "Q5362517",
    "name_ja": "新整備場",
    "name_en": "Shinseibijo",
    "lat": 35.5428212,
    "lng": 139.7868344
  },
  {
    "id": "Q7497084",
    "name_ja": "新千葉",
    "name_en": "Shin-Chiba",
    "lat": 35.6125515,
    "lng": 140.1082949
  },
  {
    "id": "Q801434",
    "name_ja": "新川崎",
    "name_en": "Shin-Kawasaki",
    "lat": 35.5514608,
    "lng": 139.6718368
  },
  {
    "id": "Q11503937",
    "name_ja": "新線新宿",
    "name_en": "Shinsen-Shinjuku",
    "lat": 35.6886028,
    "lng": 139.699177
  },
  {
    "id": "Q7497087",
    "name_ja": "新船橋",
    "name_en": "Shin-Funabashi",
    "lat": 35.7114485,
    "lng": 139.9797963
  },
  {
    "id": "Q263289",
    "name_ja": "新代田",
    "name_en": "Shindaita",
    "lat": 35.6626076,
    "lng": 139.6606159
  },
  {
    "id": "way/186761678",
    "name_ja": "新代田駅",
    "lat": 35.6625805,
    "lng": 139.6608758
  },
  {
    "id": "Q589599",
    "name_ja": "新大久保",
    "name_en": "Shin-Ōkubo",
    "lat": 35.7013007,
    "lng": 139.7002421
  },
  {
    "id": "Q5370229",
    "name_ja": "新大津",
    "name_en": "Shin-otsu",
    "lat": 35.2568206,
    "lng": 139.6900836
  },
  {
    "id": "Q1078382",
    "name_ja": "新大塚",
    "name_en": "Shin-otsuka",
    "lat": 35.7257823,
    "lng": 139.7299234
  },
  {
    "id": "Q1073232",
    "name_ja": "新中野",
    "name_en": "Shin-nakano",
    "lat": 35.6974599,
    "lng": 139.6686428
  },
  {
    "id": "Q285362",
    "name_ja": "新津田沼",
    "name_en": "Shin-Tsudanuma",
    "lat": 35.690358,
    "lng": 140.0233482
  },
  {
    "id": "Q8191166",
    "name_ja": "新田",
    "name_en": "Shinden",
    "lat": 35.8540888,
    "lng": 139.7954579
  },
  {
    "id": "Q844148",
    "name_ja": "新日本橋",
    "name_en": "Shin-Nihombashi",
    "lat": 35.6890005,
    "lng": 139.7741939
  },
  {
    "id": "Q863236",
    "name_ja": "新馬場",
    "name_en": "Shimbamba",
    "lat": 35.6165106,
    "lng": 139.7414646
  },
  {
    "id": "Q7497105",
    "name_ja": "新柏",
    "name_en": "Shin-Kashiwa",
    "lat": 35.838506,
    "lng": 139.9666532
  },
  {
    "id": "Q3525564",
    "name_ja": "新八柱",
    "name_en": "Shin-Yahashira",
    "lat": 35.7919514,
    "lng": 139.9383839
  },
  {
    "id": "Q1039904",
    "name_ja": "新板橋",
    "name_en": "Shin-itabashi",
    "lat": 35.7487966,
    "lng": 139.7199032
  },
  {
    "id": "node/2776601317",
    "name_ja": "新百合ヶ丘駅",
    "name_en": "Shin Yuigaoka station",
    "lat": 35.6031773,
    "lng": 139.5078143
  },
  {
    "id": "Q332002",
    "name_ja": "新富町",
    "name_en": "Shintomicho",
    "lat": 35.6706344,
    "lng": 139.7734197
  },
  {
    "id": "Q766348",
    "name_ja": "新豊洲",
    "name_en": "Shin-toyosu",
    "lat": 35.6487704,
    "lng": 139.790212
  },
  {
    "id": "Q4783839",
    "name_ja": "新木",
    "name_en": "Araki",
    "lat": 35.8623295,
    "lng": 140.1071831
  },
  {
    "id": "Q1376066",
    "name_ja": "新木場",
    "name_en": "Shin-kiba",
    "lat": 35.6461392,
    "lng": 139.8272901
  },
  {
    "id": "Q112723",
    "name_ja": "森下",
    "name_en": "Morishita",
    "lat": 35.6879977,
    "lng": 139.7970443
  },
  {
    "id": "Q80573",
    "name_ja": "神楽坂",
    "name_en": "Kagurazaka",
    "lat": 35.7039298,
    "lng": 139.7341347
  },
  {
    "id": "Q4389637",
    "name_ja": "神泉",
    "name_en": "Shinsen",
    "lat": 35.6572159,
    "lng": 139.6934884
  },
  {
    "id": "way/305671921",
    "name_ja": "神大寺入口",
    "lat": 35.4813517,
    "lng": 139.6067637
  },
  {
    "id": "node/313887311",
    "name_ja": "神谷船着場",
    "name_en": "Kamiya Water Bus Station",
    "lat": 35.7694617,
    "lng": 139.738188
  },
  {
    "id": "Q1072953",
    "name_ja": "神谷町",
    "name_en": "Kamiyacho",
    "lat": 35.662964,
    "lng": 139.7450477
  },
  {
    "id": "Q800989",
    "name_ja": "神田",
    "name_en": "Kanda",
    "lat": 35.6917939,
    "lng": 139.7709112
  },
  {
    "id": "Q5362069",
    "name_ja": "神奈川",
    "name_en": "Kanagawa",
    "lat": 35.4715259,
    "lng": 139.6275201
  },
  {
    "id": "Q5368901",
    "name_ja": "神奈川新町",
    "name_en": "Kanagawa-shimmachi",
    "lat": 35.4814272,
    "lng": 139.6399999
  },
  {
    "id": "way/162248696",
    "name_ja": "神奈川大学",
    "lat": 35.3484039,
    "lng": 139.2616243
  },
  {
    "id": "Q6199430",
    "name_ja": "神武寺",
    "name_en": "Jimmuji",
    "lat": 35.306427,
    "lng": 139.5932669
  },
  {
    "id": "Q76805",
    "name_ja": "神保町",
    "name_en": "Jimbocho",
    "lat": 35.695008,
    "lng": 139.7582694
  },
  {
    "id": "Q844325",
    "name_ja": "逗子",
    "name_en": "Zushi",
    "lat": 35.2976319,
    "lng": 139.5788659
  },
  {
    "id": "Q3266545",
    "name_ja": "逗子・葉山",
    "name_en": "Zushi・Hayama",
    "lat": 35.294047,
    "lng": 139.5803465
  },
  {
    "id": "node/3299679452",
    "name_ja": "逗子駅",
    "name_en": "Zushi",
    "lat": 35.2972879,
    "lng": 139.5798382
  },
  {
    "id": "node/3175912615",
    "name_ja": "水上バスのりば",
    "name_en": "Water Bus Station",
    "lat": 35.6976268,
    "lng": 139.7921912
  },
  {
    "id": "node/2866250452",
    "name_ja": "水上バス乗り場",
    "name_en": "Water Bus Station",
    "lat": 35.6601987,
    "lng": 139.7672897
  },
  {
    "id": "Q80546",
    "name_ja": "水天宮前",
    "name_en": "Suitengumae",
    "lat": 35.6825235,
    "lng": 139.7856405
  },
  {
    "id": "Q1040898",
    "name_ja": "瑞江",
    "name_en": "Mizue",
    "lat": 35.6932479,
    "lng": 139.8976392
  },
  {
    "id": "Q7635125",
    "name_ja": "杉田",
    "name_en": "Sugita",
    "lat": 35.3835666,
    "lng": 139.6158657
  },
  {
    "id": "Q7634712",
    "name_ja": "菅野",
    "name_en": "Sugano",
    "lat": 35.7282185,
    "lng": 139.9195583
  },
  {
    "id": "Q7456328",
    "name_ja": "世田谷",
    "name_en": "Setagaya",
    "lat": 35.6435069,
    "lng": 139.6508094
  },
  {
    "id": "Q4448445",
    "name_ja": "世田谷代田",
    "name_en": "Setagaya-Daita",
    "lat": 35.6582913,
    "lng": 139.6615307
  },
  {
    "id": "Q7458919",
    "name_ja": "瀬谷",
    "name_en": "Seya",
    "lat": 35.4703958,
    "lng": 139.4825295
  },
  {
    "id": "Q5367981",
    "name_ja": "是政",
    "name_en": "Koremasa",
    "lat": 35.656312,
    "lng": 139.4893214
  },
  {
    "id": "Q4448389",
    "name_ja": "成城学園前",
    "name_en": "Seijogakuen-mae",
    "lat": 35.6399444,
    "lng": 139.5984426
  },
  {
    "id": "Q844689",
    "name_ja": "成瀬",
    "name_en": "Naruse",
    "lat": 35.5353877,
    "lng": 139.4728465
  },
  {
    "id": "way/390176707",
    "name_ja": "成瀬台バス折返場",
    "lat": 35.5593362,
    "lng": 139.4783238
  },
  {
    "id": "Q6965958",
    "name_ja": "成増",
    "name_en": "Narimasu",
    "lat": 35.7775924,
    "lng": 139.632934
  },
  {
    "id": "Q7446588",
    "name_ja": "整備場",
    "name_en": "Seibijo",
    "lat": 35.5552802,
    "lng": 139.7536818
  },
  {
    "id": "Q5908047",
    "name_ja": "星川",
    "name_en": "Hoshikawa",
    "lat": 35.4588276,
    "lng": 139.5946998
  },
  {
    "id": "way/1028689294",
    "name_ja": "晴海五丁目ターミナル",
    "name_en": "Harumi-gochome Terminal",
    "lat": 35.6520503,
    "lng": 139.7734314
  },
  {
    "id": "node/11935665982",
    "name_ja": "晴海五丁目船着場",
    "lat": 35.6517672,
    "lng": 139.7724682
  },
  {
    "id": "Q7496870",
    "name_ja": "清水公園",
    "name_en": "Shimizu-Kōen",
    "lat": 35.9590935,
    "lng": 139.86011
  },
  {
    "id": "Q80542",
    "name_ja": "清澄白河",
    "name_en": "Kiyosumi-shirakawa",
    "lat": 35.6820504,
    "lng": 139.7987644
  },
  {
    "id": "Q6419078",
    "name_ja": "清瀬",
    "name_en": "Kiyose",
    "lat": 35.772084,
    "lng": 139.5198187
  },
  {
    "id": "Q11669253",
    "name_ja": "清滝",
    "name_en": "Kiyotaki",
    "lat": 35.6311026,
    "lng": 139.2668989
  },
  {
    "id": "Q4199128",
    "name_ja": "生田",
    "name_en": "Ikuta",
    "lat": 35.6149907,
    "lng": 139.5419324
  },
  {
    "id": "node/2584856685",
    "name_ja": "生田駅",
    "lat": 35.614637,
    "lng": 139.5403684
  },
  {
    "id": "way/697521300",
    "name_ja": "生田駅（神奈川県）",
    "lat": 35.6150217,
    "lng": 139.5417567
  },
  {
    "id": "Q6961267",
    "name_ja": "生麦",
    "name_en": "Namamugi",
    "lat": 35.4952868,
    "lng": 139.6669214
  },
  {
    "id": "Q1064646",
    "name_ja": "聖蹟桜ヶ丘",
    "name_en": "Seiseki-sakuragaoka",
    "lat": 35.6508541,
    "lng": 139.4470446
  },
  {
    "id": "node/841934303",
    "name_ja": "聖蹟桜ヶ丘駅",
    "lat": 35.6514332,
    "lng": 139.4471074
  },
  {
    "id": "Q151561",
    "name_ja": "西ケ原",
    "name_en": "Nishigahara",
    "lat": 35.7460496,
    "lng": 139.7421722
  },
  {
    "id": "Q11627080",
    "name_ja": "西ヶ原四丁目",
    "name_en": "Nishigahara-yonchome",
    "lat": 35.7445689,
    "lng": 139.7329388
  },
  {
    "id": "Q7040446",
    "name_ja": "西浦和",
    "name_en": "Nishi-Urawa",
    "lat": 35.8442062,
    "lng": 139.6279103
  },
  {
    "id": "Q31589",
    "name_ja": "西永福",
    "name_en": "Nishi-eifuku",
    "lat": 35.678698,
    "lng": 139.635535
  },
  {
    "id": "Q11628832",
    "name_ja": "西横浜",
    "name_en": "Nishi-Yokohama",
    "lat": 35.4532879,
    "lng": 139.6084809
  },
  {
    "id": "Q801263",
    "name_ja": "西荻窪",
    "name_en": "Nishi-Ogikubo",
    "lat": 35.7037331,
    "lng": 139.5996053
  },
  {
    "id": "way/185567488",
    "name_ja": "西海岸",
    "lat": 35.3163918,
    "lng": 139.3317406
  },
  {
    "id": "Q126768",
    "name_ja": "西葛西",
    "name_en": "Nishi-kasai",
    "lat": 35.6645795,
    "lng": 139.8593173
  },
  {
    "id": "Q1094928",
    "name_ja": "西鎌倉",
    "name_en": "Nishikamakura",
    "lat": 35.3193755,
    "lng": 139.5042983
  },
  {
    "id": "Q801259",
    "name_ja": "西国分寺",
    "name_en": "Nishi-Kokubunji",
    "lat": 35.6997484,
    "lng": 139.4660825
  },
  {
    "id": "node/12480632827",
    "name_ja": "西国分寺駅",
    "lat": 35.6988004,
    "lng": 139.4655625
  },
  {
    "id": "node/12480632826",
    "name_ja": "西国分寺駅東",
    "lat": 35.6993952,
    "lng": 139.4681511
  },
  {
    "id": "Q5366355",
    "name_ja": "西国立",
    "name_en": "Nishi-Kunitachi",
    "lat": 35.6934726,
    "lng": 139.4240559
  },
  {
    "id": "Q11627383",
    "name_ja": "西取手",
    "name_en": "Nishi-Toride",
    "lat": 35.9090894,
    "lng": 140.0589506
  },
  {
    "id": "Q7040433",
    "name_ja": "西所沢",
    "name_en": "Nishi-Tokorozawa",
    "lat": 35.7889568,
    "lng": 139.4560657
  },
  {
    "id": "Q5370722",
    "name_ja": "西小山",
    "name_en": "Nishi-koyama",
    "lat": 35.61547,
    "lng": 139.6987365
  },
  {
    "id": "Q841838",
    "name_ja": "西新井",
    "name_en": "Nishiarai",
    "lat": 35.777253,
    "lng": 139.790321
  },
  {
    "id": "Q11628298",
    "name_ja": "西新井大師西",
    "name_en": "Nishiaraidaishi-nishi",
    "lat": 35.7815121,
    "lng": 139.770084
  },
  {
    "id": "Q138555",
    "name_ja": "西新宿",
    "name_en": "Nishi-shinjuku",
    "lat": 35.6944315,
    "lng": 139.6927667
  },
  {
    "id": "Q275541",
    "name_ja": "西新宿五丁目",
    "name_en": "Nishi-shinjuku-gochome",
    "lat": 35.6898839,
    "lng": 139.6845183
  },
  {
    "id": "Q1067240",
    "name_ja": "西千葉",
    "name_en": "Nishi-Chiba",
    "lat": 35.6227266,
    "lng": 140.1031253
  },
  {
    "id": "Q844431",
    "name_ja": "西川越",
    "name_en": "Nishi-Kawagoe",
    "lat": 35.919173,
    "lng": 139.4594957
  },
  {
    "id": "Q801258",
    "name_ja": "西川口",
    "name_en": "Nishi-Kawaguchi",
    "lat": 35.8155833,
    "lng": 139.7044816
  },
  {
    "id": "Q128803",
    "name_ja": "西船橋",
    "name_en": "Nishi-Funabashi",
    "lat": 35.7074794,
    "lng": 139.9591019
  },
  {
    "id": "Q128305",
    "name_ja": "西早稲田",
    "name_en": "Nishi-waseda",
    "lat": 35.7079347,
    "lng": 139.7090404
  },
  {
    "id": "Q1039887",
    "name_ja": "西巣鴨",
    "name_en": "Nishi-sugamo",
    "lat": 35.7435537,
    "lng": 139.7286973
  },
  {
    "id": "Q7040419",
    "name_ja": "西太子堂",
    "name_en": "Nishi-taishido",
    "lat": 35.6445861,
    "lng": 139.666303
  },
  {
    "id": "Q1039896",
    "name_ja": "西台",
    "name_en": "Nishidai",
    "lat": 35.7869663,
    "lng": 139.6740221
  },
  {
    "id": "Q844193",
    "name_ja": "西大井",
    "name_en": "Nishi-Ōi",
    "lat": 35.6018658,
    "lng": 139.7216714
  },
  {
    "id": "Q7040477",
    "name_ja": "西大家",
    "name_en": "Nishi-oya",
    "lat": 35.9316608,
    "lng": 139.3562818
  },
  {
    "id": "Q849342",
    "name_ja": "西大宮",
    "name_en": "Nishi-Omiya",
    "lat": 35.9223096,
    "lng": 139.5798125
  },
  {
    "id": "Q1044267",
    "name_ja": "西大島",
    "name_en": "Nishi-ojima",
    "lat": 35.6893724,
    "lng": 139.8266345
  },
  {
    "id": "Q7040756",
    "name_ja": "西谷",
    "name_en": "Nishiya",
    "lat": 35.4781303,
    "lng": 139.5656561
  },
  {
    "id": "Q4321505",
    "name_ja": "西調布",
    "name_en": "Nishi-chofu",
    "lat": 35.6570625,
    "lng": 139.530194
  },
  {
    "id": "Q7040665",
    "name_ja": "西登戸",
    "name_en": "Nishi-Nobuto",
    "lat": 35.6174601,
    "lng": 140.1029283
  },
  {
    "id": "Q636845",
    "name_ja": "西日暮里",
    "name_en": "Nishi-Nippori",
    "lat": 35.7322021,
    "lng": 139.7666684
  },
  {
    "id": "way/61957058",
    "name_ja": "西日暮里駅舎",
    "lat": 35.7337179,
    "lng": 139.7680986
  },
  {
    "id": "Q1038919",
    "name_ja": "西馬込",
    "name_en": "Nishi-magome",
    "lat": 35.5872987,
    "lng": 139.7063115
  },
  {
    "id": "way/230839852",
    "name_ja": "西馬込駅東口",
    "lat": 35.5869886,
    "lng": 139.7062749
  },
  {
    "id": "Q5367967",
    "name_ja": "西白井",
    "name_en": "Nishi-Shiroi",
    "lat": 35.7843686,
    "lng": 140.0316518
  },
  {
    "id": "node/2057079419",
    "name_ja": "西白井駅 (Nishi-shiroi Station)",
    "name_en": "Nishi-shiroi Station",
    "lat": 35.7851928,
    "lng": 140.0314305
  },
  {
    "id": "Q7040558",
    "name_ja": "西畑",
    "name_en": "Nishihata",
    "lat": 35.2507617,
    "lng": 140.2156122
  },
  {
    "id": "Q500790",
    "name_ja": "西八王子",
    "name_en": "Nishi-Hachioji",
    "lat": 35.6565227,
    "lng": 139.3124161
  },
  {
    "id": "Q5366323",
    "name_ja": "西府",
    "name_en": "Nishifu",
    "lat": 35.6709626,
    "lng": 139.4573995
  },
  {
    "id": "way/1004852621",
    "name_ja": "西武バス折り返し場",
    "lat": 35.8584893,
    "lng": 139.3553306
  },
  {
    "id": "way/966752137",
    "name_ja": "西武バス専用折り返し場",
    "lat": 35.8265004,
    "lng": 139.3937342
  },
  {
    "id": "Q7446611",
    "name_ja": "西武園",
    "name_en": "Seibuen",
    "lat": 35.7678406,
    "lng": 139.4487827
  },
  {
    "id": "Q8014583",
    "name_ja": "西武園ゆうえんち",
    "name_en": "Seibuen-yūenchi",
    "lat": 35.7693627,
    "lng": 139.4400558
  },
  {
    "id": "Q7446591",
    "name_ja": "西武球場前",
    "name_en": "Seibukyujo-mae",
    "lat": 35.7704505,
    "lng": 139.4197824
  },
  {
    "id": "Q167299",
    "name_ja": "西武新宿",
    "name_en": "Seibu-Shinjuku",
    "lat": 35.6960899,
    "lng": 139.7000075
  },
  {
    "id": "Q8014478",
    "name_ja": "西武柳沢",
    "name_en": "Seibu-Yagisawa",
    "lat": 35.7286376,
    "lng": 139.5525914
  },
  {
    "id": "Q8014513",
    "name_ja": "西武立川",
    "name_en": "Seibu-Tachikawa",
    "lat": 35.7262975,
    "lng": 139.3704809
  },
  {
    "id": "Q7040422",
    "name_ja": "西立川",
    "name_en": "Nishi-Tachikawa",
    "lat": 35.7035276,
    "lng": 139.3936344
  },
  {
    "id": "Q850623",
    "name_ja": "青井",
    "name_en": "Aoi",
    "lat": 35.7717439,
    "lng": 139.8203104
  },
  {
    "id": "Q1042051",
    "name_ja": "青海",
    "name_en": "Aomi",
    "lat": 35.6247543,
    "lng": 139.7813002
  },
  {
    "id": "node/1510917422",
    "name_ja": "青海客船ターミナル",
    "name_en": "Aomi Passenger Terminal",
    "lat": 35.618222,
    "lng": 139.773708
  },
  {
    "id": "Q602410",
    "name_ja": "青山一丁目",
    "name_en": "Aoyama-itchome",
    "lat": 35.6727797,
    "lng": 139.7240186
  },
  {
    "id": "Q4132960",
    "name_ja": "青砥",
    "name_en": "Aoto",
    "lat": 35.7455741,
    "lng": 139.8560545
  },
  {
    "id": "Q843019",
    "name_ja": "青梅",
    "name_en": "Ome",
    "lat": 35.7904504,
    "lng": 139.2583321
  },
  {
    "id": "Q8014548",
    "name_ja": "青梅街道",
    "name_en": "Ome-kaido",
    "lat": 35.7306459,
    "lng": 139.4765592
  },
  {
    "id": "Q852188",
    "name_ja": "青物横丁",
    "name_en": "Aomono-yokocho",
    "lat": 35.6088735,
    "lng": 139.7430769
  },
  {
    "id": "Q558935",
    "name_ja": "青堀",
    "name_en": "Aohori",
    "lat": 35.3303196,
    "lng": 139.8582901
  },
  {
    "id": "Q857586",
    "name_ja": "青葉台",
    "name_en": "Aobadai",
    "lat": 35.5428783,
    "lng": 139.5172312
  },
  {
    "id": "node/2025757446",
    "name_ja": "青葉台駅",
    "name_en": "Aobadai Station",
    "lat": 35.5439187,
    "lng": 139.5168227
  },
  {
    "id": "Q859782",
    "name_ja": "石上",
    "name_en": "Ishigami",
    "lat": 35.3321271,
    "lng": 139.4855196
  },
  {
    "id": "Q8016003",
    "name_ja": "石神井公園",
    "name_en": "Shakujii-kōen Station",
    "lat": 35.7438271,
    "lng": 139.6061566
  },
  {
    "id": "Q6080316",
    "name_ja": "石川台",
    "name_en": "Ishikawa-dai",
    "lat": 35.5971322,
    "lng": 139.6854947
  },
  {
    "id": "Q800960",
    "name_ja": "石川町",
    "name_en": "Ishikawacho",
    "lat": 35.4392259,
    "lng": 139.6427467
  },
  {
    "id": "node/304559209",
    "name_ja": "赤レンガ倉庫",
    "name_en": "Red Brick",
    "lat": 35.452463,
    "lng": 139.6450992
  },
  {
    "id": "Q800369",
    "name_ja": "赤羽",
    "name_en": "Akabane",
    "lat": 35.7781394,
    "lng": 139.7207999
  },
  {
    "id": "Q151409",
    "name_ja": "赤羽岩淵",
    "name_en": "Akabane-iwabuchi",
    "lat": 35.7834478,
    "lng": 139.7221
  },
  {
    "id": "Q246176",
    "name_ja": "赤羽橋",
    "name_en": "Akabanebashi",
    "lat": 35.6550406,
    "lng": 139.7439828
  },
  {
    "id": "Q1042002",
    "name_ja": "赤坂",
    "name_en": "Akasaka",
    "lat": 35.672224,
    "lng": 139.736388
  },
  {
    "id": "node/1188381007",
    "name_ja": "赤坂駅前",
    "lat": 35.6717482,
    "lng": 139.7357893
  },
  {
    "id": "Q602384",
    "name_ja": "赤坂見附",
    "name_en": "Akasaka-mitsuke",
    "lat": 35.6763213,
    "lng": 139.7375253
  },
  {
    "id": "Q4700094",
    "name_ja": "赤土小学校前",
    "name_en": "Akado-shogakkomae",
    "lat": 35.7428607,
    "lng": 139.7690418
  },
  {
    "id": "Q8060692",
    "name_ja": "雪が谷大塚",
    "name_en": "Yukigaya-otsuka",
    "lat": 35.5919901,
    "lng": 139.6810408
  },
  {
    "id": "Q906121",
    "name_ja": "仙川",
    "name_en": "Sengawa",
    "lat": 35.6623454,
    "lng": 139.5850157
  },
  {
    "id": "Q841868",
    "name_ja": "千歳烏山",
    "name_en": "Chitose-karasuyama",
    "lat": 35.6680037,
    "lng": 139.6008523
  },
  {
    "id": "Q4458343",
    "name_ja": "千歳船橋",
    "name_en": "Chitose-Funabashi",
    "lat": 35.6473986,
    "lng": 139.6238215
  },
  {
    "id": "Q388969",
    "name_ja": "千住大橋",
    "name_en": "Senjuohashi",
    "lat": 35.7424234,
    "lng": 139.7968196
  },
  {
    "id": "Q5102080",
    "name_ja": "千城台",
    "name_en": "Chishirodai",
    "lat": 35.6223287,
    "lng": 140.1885502
  },
  {
    "id": "Q5102077",
    "name_ja": "千城台北",
    "name_en": "Chishirodai-Kita",
    "lat": 35.6274151,
    "lng": 140.1820367
  },
  {
    "id": "Q1039142",
    "name_ja": "千石",
    "name_en": "Sengoku",
    "lat": 35.7277122,
    "lng": 139.7449946
  },
  {
    "id": "Q128304",
    "name_ja": "千川",
    "name_en": "Senkawa",
    "lat": 35.7383242,
    "lng": 139.689366
  },
  {
    "id": "Q801428",
    "name_ja": "千駄ケ谷",
    "name_en": "Sendagaya",
    "lat": 35.6812658,
    "lng": 139.7113311
  },
  {
    "id": "Q390662",
    "name_ja": "千駄木",
    "name_en": "Sendagi",
    "lat": 35.7255677,
    "lng": 139.7632458
  },
  {
    "id": "way/849471857",
    "name_ja": "千代田線 国会議事堂前駅",
    "lat": 35.6737911,
    "lng": 139.7436965
  },
  {
    "id": "Q800625",
    "name_ja": "千葉",
    "name_en": "Chiba",
    "lat": 35.6137344,
    "lng": 140.1125333
  },
  {
    "id": "Q855466",
    "name_ja": "千葉ニュータウン中央",
    "name_en": "Chiba Newtown Chuo",
    "lat": 35.8001351,
    "lng": 140.116207
  },
  {
    "id": "Q2648818",
    "name_ja": "千葉みなと",
    "name_en": "Chiba-Minato",
    "lat": 35.6074412,
    "lng": 140.1024718
  },
  {
    "id": "node/12633342013",
    "name_ja": "千葉リハビリセンター",
    "lat": 35.5575662,
    "lng": 140.1920834
  },
  {
    "id": "node/12633342046",
    "name_ja": "千葉営業所",
    "lat": 35.5672736,
    "lng": 140.1814525
  },
  {
    "id": "Q5095295",
    "name_ja": "千葉公園",
    "name_en": "Chiba-Koen",
    "lat": 35.6198055,
    "lng": 140.1178236
  },
  {
    "id": "Q11405986",
    "name_ja": "千葉寺",
    "name_en": "Chibadera",
    "lat": 35.5902969,
    "lng": 140.1321843
  },
  {
    "id": "Q5095292",
    "name_ja": "千葉中央",
    "name_en": "Chiba-Chuo",
    "lat": 35.6073248,
    "lng": 140.1178399
  },
  {
    "id": "Q800995",
    "name_ja": "川越",
    "name_en": "Kawagoe",
    "lat": 35.9069901,
    "lng": 139.482954
  },
  {
    "id": "Q4702993",
    "name_ja": "川越市",
    "name_en": "Kawagoeshi",
    "lat": 35.9141442,
    "lng": 139.4774099
  },
  {
    "id": "Q6379557",
    "name_ja": "川角",
    "name_en": "Kawakado",
    "lat": 35.9374897,
    "lng": 139.3468489
  },
  {
    "id": "Q6379600",
    "name_ja": "川間",
    "name_en": "Kawama",
    "lat": 35.9791747,
    "lng": 139.8339907
  },
  {
    "id": "Q735498",
    "name_ja": "川口",
    "name_en": "Kawaguchi",
    "lat": 35.8019257,
    "lng": 139.7175116
  },
  {
    "id": "Q3701469",
    "name_ja": "川口元郷",
    "name_en": "Kawaguchi-motogo",
    "lat": 35.8001212,
    "lng": 139.7300045
  },
  {
    "id": "Q80562",
    "name_ja": "川崎",
    "name_en": "Kawasaki",
    "lat": 35.531404,
    "lng": 139.696893
  },
  {
    "id": "way/153006968",
    "name_ja": "川崎駅ラゾーナ広場バスターミナル",
    "lat": 35.5325431,
    "lng": 139.6973252
  },
  {
    "id": "way/81531483",
    "name_ja": "川崎駅西口バスターミナル",
    "lat": 35.5312859,
    "lng": 139.6957837
  },
  {
    "id": "way/184367411",
    "name_ja": "川崎駅東口(海島)",
    "lat": 35.5300724,
    "lng": 139.698067
  },
  {
    "id": "Q11478582",
    "name_ja": "川崎貨物",
    "lat": 35.5303722,
    "lng": 139.7449434
  },
  {
    "id": "Q6379722",
    "name_ja": "川崎新町",
    "name_en": "Kawasaki-Shimmachi",
    "lat": 35.5182574,
    "lng": 139.6991819
  },
  {
    "id": "Q6379720",
    "name_ja": "川崎大師",
    "name_en": "Kawasakidaishi",
    "lat": 35.5357943,
    "lng": 139.7260897
  },
  {
    "id": "Q6379900",
    "name_ja": "川和町",
    "name_en": "Kawawacho",
    "lat": 35.5284609,
    "lng": 139.5491324
  },
  {
    "id": "Q8081475",
    "name_ja": "扇大橋",
    "name_en": "Ogi-ohashi",
    "lat": 35.7639694,
    "lng": 139.7708262
  },
  {
    "id": "way/58243198",
    "name_ja": "扇大橋駅舎",
    "name_en": "Ogi-ohashi",
    "lat": 35.7639021,
    "lng": 139.7708131
  },
  {
    "id": "Q1581492",
    "name_ja": "扇町",
    "name_en": "Ogimachi",
    "lat": 35.5012754,
    "lng": 139.7222348
  },
  {
    "id": "Q905742",
    "name_ja": "泉岳寺",
    "name_en": "Sengakuji",
    "lat": 35.6387807,
    "lng": 139.7400615
  },
  {
    "id": "Q6102266",
    "name_ja": "泉体育館",
    "name_en": "Izumi-Taiikukan",
    "lat": 35.7188183,
    "lng": 139.4195455
  },
  {
    "id": "Q800404",
    "name_ja": "浅草橋",
    "name_en": "Asakusabashi",
    "lat": 35.6973915,
    "lng": 139.7863101
  },
  {
    "id": "node/8406622616",
    "name_ja": "浅草二天門(水上バス乗り場)",
    "lat": 35.7131522,
    "lng": 139.8011923
  },
  {
    "id": "Q4803534",
    "name_ja": "浅野",
    "name_en": "Asano",
    "lat": 35.4974338,
    "lng": 139.6957044
  },
  {
    "id": "Q7451439",
    "name_ja": "洗足",
    "name_en": "Senzoku",
    "lat": 35.6101514,
    "lng": 139.6941664
  },
  {
    "id": "Q7451436",
    "name_ja": "洗足池",
    "name_en": "Senzoku-ike",
    "lat": 35.5997965,
    "lng": 139.6913023
  },
  {
    "id": "node/2053864314",
    "name_ja": "船橋駅北口 (Funabashi station)",
    "name_en": "Funabashi Station",
    "lat": 35.7025745,
    "lng": 139.9852609
  },
  {
    "id": "Q5508710",
    "name_ja": "船橋競馬場",
    "name_en": "Funabashi-Keibajo",
    "lat": 35.689794,
    "lng": 139.9979385
  },
  {
    "id": "Q5366251",
    "name_ja": "船橋日大前",
    "name_en": "Funabashi-nichidaimae",
    "lat": 35.7268419,
    "lng": 140.0588171
  },
  {
    "id": "Q2743695",
    "name_ja": "船橋法典",
    "name_en": "Funabashi-Hoten",
    "lat": 35.7308739,
    "lng": 139.9665697
  },
  {
    "id": "Q1041252",
    "name_ja": "船堀",
    "name_en": "Funabori",
    "lat": 35.6838309,
    "lng": 139.864297
  },
  {
    "id": "Q11397077",
    "name_ja": "前原",
    "name_en": "Maebara",
    "lat": 35.7009518,
    "lng": 140.027839
  },
  {
    "id": "Q4160904",
    "name_ja": "善行",
    "name_en": "Zengyo",
    "lat": 35.3627185,
    "lng": 139.4732359
  },
  {
    "id": "Q4429457",
    "name_ja": "祖師ヶ谷大蔵",
    "name_en": "Soshigaya-Okura",
    "lat": 35.6432802,
    "lng": 139.6097472
  },
  {
    "id": "Q844422",
    "name_ja": "蘇我",
    "name_en": "Soga",
    "lat": 35.5813725,
    "lng": 140.1311573
  },
  {
    "id": "Q6445569",
    "name_ja": "倉見",
    "name_en": "Kurami",
    "lat": 35.3949181,
    "lng": 139.3783414
  },
  {
    "id": "Q11056416",
    "name_ja": "巣鴨新田",
    "name_en": "Sugamoshinden",
    "lat": 35.735513,
    "lng": 139.7277426
  },
  {
    "id": "Q844635",
    "name_ja": "相原",
    "name_en": "Aihara",
    "lat": 35.6068438,
    "lng": 139.3316885
  },
  {
    "id": "way/624031276",
    "name_ja": "相原駅",
    "name_en": "Aihara station",
    "lat": 35.60684,
    "lng": 139.3316795
  },
  {
    "id": "node/9192579761",
    "name_ja": "相原駅西口",
    "lat": 35.6064693,
    "lng": 139.3312557
  },
  {
    "id": "way/158322976",
    "name_ja": "相鉄バス　新桜ヶ丘団地 折返場",
    "lat": 35.4538216,
    "lng": 139.5675303
  },
  {
    "id": "Q7667566",
    "name_ja": "相武台下",
    "name_en": "Sobudaishita",
    "lat": 35.4932739,
    "lng": 139.3862012
  },
  {
    "id": "node/2210991250",
    "name_ja": "相武台前駅",
    "lat": 35.4985849,
    "lng": 139.4075829
  },
  {
    "id": "Q844696",
    "name_ja": "相模原",
    "name_en": "Sagamihara",
    "lat": 35.5814551,
    "lng": 139.37074
  },
  {
    "id": "way/155535371",
    "name_ja": "相模原駅南口",
    "lat": 35.5805472,
    "lng": 139.3714298
  },
  {
    "id": "way/155535372",
    "name_ja": "相模原駅北口",
    "lat": 35.5813642,
    "lng": 139.3717977
  },
  {
    "id": "node/12038692488",
    "name_ja": "相模原協同病院",
    "lat": 35.5887266,
    "lng": 139.3253168
  },
  {
    "id": "Q7398954",
    "name_ja": "相模大塚",
    "name_en": "Sagami-Otsuka",
    "lat": 35.4705798,
    "lng": 139.440843
  },
  {
    "id": "Q1054659",
    "name_ja": "相模大野",
    "name_en": "Sagami-Ono",
    "lat": 35.5323417,
    "lng": 139.4380983
  },
  {
    "id": "node/1482500069",
    "name_ja": "相模大野駅北口",
    "lat": 35.5314623,
    "lng": 139.4364515
  },
  {
    "id": "Q5509878",
    "name_ja": "総元",
    "name_en": "Fusamoto",
    "lat": 35.2406328,
    "lng": 140.2408587
  },
  {
    "id": "Q842450",
    "name_ja": "草加",
    "name_en": "Soka",
    "lat": 35.8282516,
    "lng": 139.8033621
  },
  {
    "id": "Q6785712",
    "name_ja": "増尾",
    "name_en": "Masuo",
    "lat": 35.8295829,
    "lng": 139.9767076
  },
  {
    "id": "Q112348",
    "name_ja": "蔵前",
    "name_en": "Kuramae",
    "lat": 35.7032122,
    "lng": 139.790939
  },
  {
    "id": "Q4678340",
    "name_ja": "足立小台",
    "name_en": "Adachi-odai",
    "lat": 35.7546937,
    "lng": 139.7703819
  },
  {
    "id": "Q573413",
    "name_ja": "袖ケ浦",
    "name_en": "Sodegaura",
    "lat": 35.4321683,
    "lng": 139.9578021
  },
  {
    "id": "Q283118",
    "name_ja": "村上",
    "name_en": "Murakami",
    "lat": 35.7237734,
    "lng": 140.1183517
  },
  {
    "id": "Q988468",
    "name_ja": "多摩センター",
    "name_en": "Tama Center",
    "lat": 35.6239385,
    "lng": 139.4228734
  },
  {
    "id": "node/1968420962",
    "name_ja": "多摩センター駅",
    "lat": 35.6240937,
    "lng": 139.4240153
  },
  {
    "id": "Q4450818",
    "name_ja": "多摩境",
    "name_en": "Tamasakai",
    "lat": 35.6020524,
    "lng": 139.3671223
  },
  {
    "id": "Q7446596",
    "name_ja": "多摩湖",
    "name_en": "Tamako",
    "lat": 35.7660664,
    "lng": 139.4426285
  },
  {
    "id": "Q7680540",
    "name_ja": "多摩川",
    "name_en": "Tamagawa",
    "lat": 35.5896908,
    "lng": 139.6687943
  },
  {
    "id": "Q4450752",
    "name_ja": "多摩動物公園",
    "name_en": "Tama-Dobutsukoen",
    "lat": 35.6486656,
    "lng": 139.4037336
  },
  {
    "id": "Q5368661",
    "name_ja": "多磨",
    "name_en": "Tama",
    "lat": 35.6765958,
    "lng": 139.5170281
  },
  {
    "id": "way/442887184",
    "name_ja": "多磨町バス折返場",
    "lat": 35.6868839,
    "lng": 139.5189881
  },
  {
    "id": "Q7680496",
    "name_ja": "多磨霊園",
    "name_en": "Tama-reien",
    "lat": 35.6661125,
    "lng": 139.5030177
  },
  {
    "id": "Q347796",
    "name_ja": "代々木公園",
    "name_en": "Yoyogi-koen",
    "lat": 35.6690323,
    "lng": 139.6901224
  },
  {
    "id": "Q1131825",
    "name_ja": "代々木上原",
    "name_en": "Yoyogi-Uehara",
    "lat": 35.6690082,
    "lng": 139.6797884
  },
  {
    "id": "Q1083866",
    "name_ja": "代々木八幡",
    "name_en": "Yoyogi-Hachiman",
    "lat": 35.6696211,
    "lng": 139.6888398
  },
  {
    "id": "Q852326",
    "name_ja": "代官山",
    "name_en": "Daikan-yama",
    "lat": 35.648157,
    "lng": 139.703293
  },
  {
    "id": "way/142545264",
    "name_ja": "代官山駅",
    "name_en": "Daikan-yama",
    "lat": 35.6481175,
    "lng": 139.70321
  },
  {
    "id": "Q4154095",
    "name_ja": "代田橋",
    "name_en": "Daitabashi",
    "lat": 35.6709596,
    "lng": 139.6587527
  },
  {
    "id": "Q906784",
    "name_ja": "台場",
    "name_en": "Daiba",
    "lat": 35.6259018,
    "lng": 139.7714216
  },
  {
    "id": "Q5367547",
    "name_ja": "大井競馬場前",
    "name_en": "Oikeibajo-Mae",
    "lat": 35.5951297,
    "lng": 139.7470566
  },
  {
    "id": "Q801690",
    "name_ja": "大井町",
    "name_en": "Oimachi",
    "lat": 35.6076529,
    "lng": 139.734319
  },
  {
    "id": "Q865175",
    "name_ja": "大磯",
    "name_en": "Ōiso",
    "lat": 35.3113033,
    "lng": 139.3133818
  },
  {
    "id": "Q843724",
    "name_ja": "大岡山",
    "name_en": "Ookayama",
    "lat": 35.6074155,
    "lng": 139.6857012
  },
  {
    "id": "Q558903",
    "name_ja": "大貫",
    "name_en": "Onuki",
    "lat": 35.2910811,
    "lng": 139.8556052
  },
  {
    "id": "Q116259",
    "name_ja": "大久保",
    "name_en": "Okubo",
    "lat": 35.7007776,
    "lng": 139.6973178
  },
  {
    "id": "Q8081623",
    "name_ja": "大宮公園",
    "name_en": "Omiya Park",
    "lat": 35.9238247,
    "lng": 139.6329484
  },
  {
    "id": "way/662672281",
    "name_ja": "大戸バス折返場",
    "lat": 35.6096394,
    "lng": 139.2839581
  },
  {
    "id": "Q801688",
    "name_ja": "大口",
    "name_en": "Oguchi",
    "lat": 35.4923774,
    "lng": 139.6462868
  },
  {
    "id": "Q8081685",
    "name_ja": "大佐倉",
    "name_en": "Osakura",
    "lat": 35.7301382,
    "lng": 140.2510633
  },
  {
    "id": "Q801695",
    "name_ja": "大崎",
    "name_en": "Osaki",
    "lat": 35.6193903,
    "lng": 139.7284866
  },
  {
    "id": "way/1172880452",
    "name_ja": "大崎駅西口バスターミナル",
    "lat": 35.6179359,
    "lng": 139.7287374
  },
  {
    "id": "Q8081686",
    "name_ja": "大崎広小路",
    "name_en": "Osakihirokoji",
    "lat": 35.6225443,
    "lng": 139.7225696
  },
  {
    "id": "Q8081809",
    "name_ja": "大山",
    "name_en": "Oyama",
    "lat": 35.7486238,
    "lng": 139.7024348
  },
  {
    "id": "Q7418195",
    "name_ja": "大師橋",
    "name_en": "Daishibashi",
    "lat": 35.5366217,
    "lng": 139.7405764
  },
  {
    "id": "node/13460550808",
    "name_ja": "大師橋駅前",
    "lat": 35.536347,
    "lng": 139.7398582
  },
  {
    "id": "Q5209614",
    "name_ja": "大師前",
    "name_en": "Daishimae",
    "lat": 35.7788753,
    "lng": 139.7814629
  },
  {
    "id": "Q1326767",
    "name_ja": "大手町",
    "name_en": "Otemachi",
    "lat": 35.6846087,
    "lng": 139.7664613
  },
  {
    "id": "Q80420",
    "name_ja": "大森",
    "name_en": "Ōmori",
    "lat": 35.5884735,
    "lng": 139.7279334
  },
  {
    "id": "way/92831661",
    "name_ja": "大森駅(東口)",
    "lat": 35.5882621,
    "lng": 139.7290649
  },
  {
    "id": "Q1592872",
    "name_ja": "大森海岸",
    "name_en": "Ōmorikaigan",
    "lat": 35.5876986,
    "lng": 139.7353937
  },
  {
    "id": "Q8081632",
    "name_ja": "大森台",
    "name_en": "Omoridai",
    "lat": 35.5841554,
    "lng": 140.1494149
  },
  {
    "id": "Q5362060",
    "name_ja": "大森町",
    "name_en": "Omorimachi",
    "lat": 35.5725032,
    "lng": 139.7320685
  },
  {
    "id": "Q5209145",
    "name_ja": "大神宮下",
    "name_en": "Daijingu-Shita",
    "lat": 35.6942913,
    "lng": 139.9912517
  },
  {
    "id": "Q1581453",
    "name_ja": "大川",
    "name_en": "Okawa",
    "lat": 35.4954947,
    "lng": 139.7111242
  },
  {
    "id": "Q8016303",
    "name_ja": "大泉学園",
    "name_en": "Oizumi-gakuen",
    "lat": 35.7495045,
    "lng": 139.5865223
  },
  {
    "id": "way/1340806648",
    "name_ja": "大船駅西口",
    "lat": 35.3521637,
    "lng": 139.5289425
  },
  {
    "id": "Q8081588",
    "name_ja": "大倉山",
    "name_en": "Okurayama",
    "lat": 35.52186,
    "lng": 139.6298585
  },
  {
    "id": "Q11434170",
    "name_ja": "大多喜",
    "name_en": "Otaki",
    "lat": 35.286687,
    "lng": 140.2439889
  },
  {
    "id": "Q8081433",
    "name_ja": "大袋",
    "name_en": "Obukuro",
    "lat": 35.9238936,
    "lng": 139.7780299
  },
  {
    "id": "Q8081600",
    "name_ja": "大町",
    "name_en": "Omachi",
    "lat": 35.7751536,
    "lng": 139.973586
  },
  {
    "id": "Q5362449",
    "name_ja": "大鳥居",
    "name_en": "Otorii",
    "lat": 35.5525175,
    "lng": 139.7395158
  },
  {
    "id": "Q801696",
    "name_ja": "大塚",
    "name_en": "Otsuka",
    "lat": 35.7316851,
    "lng": 139.7285879
  },
  {
    "id": "Q8011282",
    "name_ja": "大塚・帝京大学",
    "name_en": "Otsuka･Teikyo-Daigaku",
    "lat": 35.6368916,
    "lng": 139.4164754
  },
  {
    "id": "node/12985575683",
    "name_ja": "大田",
    "lat": 35.5574873,
    "lng": 139.7136914
  },
  {
    "id": "Q1040931",
    "name_ja": "大島",
    "name_en": "Ojima",
    "lat": 35.6897695,
    "lng": 139.835076
  },
  {
    "id": "Q247129",
    "name_ja": "大門",
    "name_en": "Daimon",
    "lat": 35.6569261,
    "lng": 139.7547098
  },
  {
    "id": "Q1036368",
    "name_ja": "大和",
    "name_en": "Yamato",
    "lat": 35.4699613,
    "lng": 139.4614678
  },
  {
    "id": "Q5368706",
    "name_ja": "大和田",
    "name_en": "Ōwada",
    "lat": 35.9292717,
    "lng": 139.6506137
  },
  {
    "id": "Q7677190",
    "name_ja": "鷹の台",
    "name_en": "Takanodai",
    "lat": 35.7234533,
    "lng": 139.4612022
  },
  {
    "id": "Q11565062",
    "name_ja": "滝不動",
    "name_en": "Takifudo",
    "lat": 35.7377176,
    "lng": 140.0259856
  },
  {
    "id": "Q11565314",
    "name_ja": "滝野川一丁目",
    "name_en": "Takinogawa-itchome",
    "lat": 35.7473062,
    "lng": 139.7353992
  },
  {
    "id": "Q331177",
    "name_ja": "辰巳",
    "name_en": "Tatsumi",
    "lat": 35.6454772,
    "lng": 139.8107392
  },
  {
    "id": "Q8050564",
    "name_ja": "谷在家",
    "name_en": "Yazaike",
    "lat": 35.7887298,
    "lng": 139.7700523
  },
  {
    "id": "Q8050270",
    "name_ja": "谷津",
    "name_en": "Yatsu",
    "lat": 35.6852948,
    "lng": 140.0075689
  },
  {
    "id": "Q8050280",
    "name_ja": "谷塚",
    "name_en": "Yatsuka",
    "lat": 35.8142116,
    "lng": 139.8011329
  },
  {
    "id": "Q5366778",
    "name_ja": "谷保",
    "name_en": "Yaho",
    "lat": 35.6813534,
    "lng": 139.4468745
  },
  {
    "id": "Q1078432",
    "name_ja": "淡路町",
    "name_en": "Awajicho",
    "lat": 35.6950614,
    "lng": 139.767473
  },
  {
    "id": "Q80506",
    "name_ja": "地下鉄成増",
    "name_en": "Chikatetsu-narimasu",
    "lat": 35.7766946,
    "lng": 139.6312465
  },
  {
    "id": "Q80412",
    "name_ja": "地下鉄赤塚",
    "name_en": "Chikatetsu-akatsuka",
    "lat": 35.7699229,
    "lng": 139.6441259
  },
  {
    "id": "Q11424114",
    "name_ja": "地区センター",
    "name_en": "Chikucenter",
    "lat": 35.7259449,
    "lng": 140.1552553
  },
  {
    "id": "Q4199142",
    "name_ja": "池ノ上",
    "name_en": "Ikenoue",
    "lat": 35.6605069,
    "lng": 139.6729246
  },
  {
    "id": "Q5995781",
    "name_ja": "池上",
    "name_en": "Ikegami",
    "lat": 35.5720205,
    "lng": 139.703049
  },
  {
    "id": "Q852141",
    "name_ja": "池尻大橋",
    "name_en": "Ikejiri-ohashi",
    "lat": 35.6507634,
    "lng": 139.6847724
  },
  {
    "id": "Q173919",
    "name_ja": "池袋",
    "name_en": "Ikebukuro",
    "lat": 35.7280917,
    "lng": 139.7110372
  },
  {
    "id": "Q1072938",
    "name_ja": "築地",
    "name_en": "Tsukiji",
    "lat": 35.6680848,
    "lng": 139.7725918
  },
  {
    "id": "Q246180",
    "name_ja": "築地市場",
    "name_en": "Tsukijishijo",
    "lat": 35.6648789,
    "lng": 139.7668843
  },
  {
    "id": "Q7678040",
    "name_ja": "竹ノ塚",
    "name_en": "Takenotsuka",
    "lat": 35.7944805,
    "lng": 139.7908431
  },
  {
    "id": "Q558883",
    "name_ja": "竹岡",
    "name_en": "Takeoka",
    "lat": 35.1976673,
    "lng": 139.8298521
  },
  {
    "id": "Q80564",
    "name_ja": "竹橋",
    "name_en": "Takebashi",
    "lat": 35.6900994,
    "lng": 139.7587484
  },
  {
    "id": "Q858876",
    "name_ja": "竹芝",
    "name_en": "Takeshiba",
    "lat": 35.6539736,
    "lng": 139.761907
  },
  {
    "id": "relation/2136745",
    "name_ja": "竹芝客船ターミナル",
    "name_en": "Takeshiba Passenger Terminal",
    "lat": 35.6540857,
    "lng": 139.762769
  },
  {
    "id": "node/10271389389",
    "name_ja": "竹芝小型船ターミナル",
    "name_en": "Takeshiba Small ship terminal",
    "lat": 35.6521992,
    "lng": 139.7620109
  },
  {
    "id": "Q275116",
    "name_ja": "中井",
    "name_en": "Nakai",
    "lat": 35.7150887,
    "lng": 139.686289
  },
  {
    "id": "Q844419",
    "name_ja": "中浦和",
    "name_en": "Naka-Urawa",
    "lat": 35.8535248,
    "lng": 139.6377223
  },
  {
    "id": "Q5119037",
    "name_ja": "中央大学・明星大学",
    "name_en": "Chuo-Daigaku･Meisei-Daigaku",
    "lat": 35.6418831,
    "lng": 139.4087644
  },
  {
    "id": "Q4312482",
    "name_ja": "中河原",
    "name_en": "Nakagawara",
    "lat": 35.6596099,
    "lng": 139.4579544
  },
  {
    "id": "Q11363857",
    "name_ja": "中学校",
    "name_en": "Chugakko",
    "lat": 35.7402153,
    "lng": 140.1483869
  },
  {
    "id": "Q844670",
    "name_ja": "中山",
    "name_en": "Nakayama",
    "lat": 35.5146971,
    "lng": 139.5395328
  },
  {
    "id": "node/2645309662",
    "name_ja": "中山駅前",
    "lat": 35.5142297,
    "lng": 139.5395736
  },
  {
    "id": "node/2591193352",
    "name_ja": "中山駅北口",
    "lat": 35.5149545,
    "lng": 139.540227
  },
  {
    "id": "Q8013086",
    "name_ja": "中神",
    "name_en": "Nakagami",
    "lat": 35.7090262,
    "lng": 139.3757902
  },
  {
    "id": "Q573443",
    "name_ja": "中川",
    "name_en": "Nakagawa",
    "lat": 35.5629066,
    "lng": 139.5699517
  },
  {
    "id": "Q6960255",
    "name_ja": "中村橋",
    "name_en": "Nakamurabashi",
    "lat": 35.7368176,
    "lng": 139.6378105
  },
  {
    "id": "Q573641",
    "name_ja": "中田",
    "name_en": "Nakada",
    "lat": 35.4111454,
    "lng": 139.5113307
  },
  {
    "id": "Q6960085",
    "name_ja": "中板橋",
    "name_en": "Naka-itabashi",
    "lat": 35.7564001,
    "lng": 139.6941829
  },
  {
    "id": "Q1132605",
    "name_ja": "中目黒",
    "name_en": "Naka-meguro",
    "lat": 35.6441395,
    "lng": 139.6988317
  },
  {
    "id": "Q801234",
    "name_ja": "中野",
    "name_en": "Nakano",
    "lat": 35.7058302,
    "lng": 139.665633
  },
  {
    "id": "node/13299698064",
    "name_ja": "中野駅北口仮設バスターミナル",
    "lat": 35.7070378,
    "lng": 139.6638991
  },
  {
    "id": "Q275436",
    "name_ja": "中野坂上",
    "name_en": "Nakano-sakaue",
    "lat": 35.6971173,
    "lng": 139.6817498
  },
  {
    "id": "Q1132589",
    "name_ja": "中野新橋",
    "name_en": "Nakano-shimbashi",
    "lat": 35.692021,
    "lng": 139.6738042
  },
  {
    "id": "Q5366675",
    "name_ja": "中野島",
    "name_en": "Nakanoshima",
    "lat": 35.6301147,
    "lng": 139.5506829
  },
  {
    "id": "Q1132601",
    "name_ja": "中野富士見町",
    "name_en": "Nakano-fujimicho",
    "lat": 35.6905641,
    "lng": 139.6670329
  },
  {
    "id": "Q1072993",
    "name_ja": "仲御徒町",
    "name_en": "Naka-okachimachi",
    "lat": 35.7064914,
    "lng": 139.7761952
  },
  {
    "id": "Q851025",
    "name_ja": "仲町台",
    "name_en": "Nakamachidai",
    "lat": 35.5353094,
    "lng": 139.5896008
  },
  {
    "id": "Q4803419",
    "name_ja": "朝霞",
    "name_en": "Asaka",
    "lat": 35.7966582,
    "lng": 139.6003513
  },
  {
    "id": "Q852274",
    "name_ja": "朝霞台",
    "name_en": "Asakadai",
    "lat": 35.814802,
    "lng": 139.5866488
  },
  {
    "id": "Q844315",
    "name_ja": "潮見",
    "name_en": "Shiomi",
    "lat": 35.6589236,
    "lng": 139.8171968
  },
  {
    "id": "Q390638",
    "name_ja": "町屋駅前",
    "name_en": "Machiya-ekimae",
    "lat": 35.742778,
    "lng": 139.7809588
  },
  {
    "id": "Q11578231",
    "name_ja": "町屋二丁目",
    "name_en": "Machiya-nichome",
    "lat": 35.7437837,
    "lng": 139.7767536
  },
  {
    "id": "Q801146",
    "name_ja": "町田",
    "name_en": "Machida",
    "lat": 35.5440456,
    "lng": 139.4451253
  },
  {
    "id": "node/2090633968",
    "name_ja": "町田ターミナル",
    "lat": 35.5402693,
    "lng": 139.4493575
  },
  {
    "id": "Q11578266",
    "name_ja": "町田バスセンター",
    "name_en": "Machida Bus Center",
    "lat": 35.5434039,
    "lng": 139.4445202
  },
  {
    "id": "Q1063956",
    "name_ja": "調布",
    "name_en": "Chofu",
    "lat": 35.6517768,
    "lng": 139.5448061
  },
  {
    "id": "node/2666630885",
    "name_ja": "調布駅北口",
    "lat": 35.6523001,
    "lng": 139.5440276
  },
  {
    "id": "Q573425",
    "name_ja": "長浦",
    "name_en": "Nagaura",
    "lat": 35.4504888,
    "lng": 139.9956187
  },
  {
    "id": "Q6958330",
    "name_ja": "長原",
    "name_en": "Nagahara",
    "lat": 35.6022652,
    "lng": 139.6979521
  },
  {
    "id": "node/10108140337",
    "name_ja": "長後",
    "name_en": "Chogo",
    "lat": 35.4125457,
    "lng": 139.4654292
  },
  {
    "id": "node/1948724425",
    "name_ja": "長後駅西口",
    "lat": 35.4123368,
    "lng": 139.4649692
  },
  {
    "id": "node/2283847349",
    "name_ja": "長後駅東口",
    "lat": 35.4120764,
    "lng": 139.465974
  },
  {
    "id": "way/188844665",
    "name_ja": "長坂上",
    "lat": 35.4169923,
    "lng": 139.4355346
  },
  {
    "id": "Q6958464",
    "name_ja": "長沼",
    "name_en": "Naganuma",
    "lat": 35.6427981,
    "lng": 139.3659307
  },
  {
    "id": "Q858830",
    "name_ja": "長谷",
    "name_en": "Hase",
    "lat": 35.3112923,
    "lng": 139.5358669
  },
  {
    "id": "Q801229",
    "name_ja": "長津田",
    "name_en": "Nagatsuta",
    "lat": 35.5317037,
    "lng": 139.4952527
  },
  {
    "id": "node/3048210451",
    "name_ja": "長津田駅北口",
    "lat": 35.5324044,
    "lng": 139.4960878
  },
  {
    "id": "Q7825788",
    "name_ja": "鳥浜",
    "name_en": "Torihama",
    "lat": 35.3770641,
    "lng": 139.6417394
  },
  {
    "id": "Q7850103",
    "name_ja": "津久井浜",
    "name_en": "Tsukuihama",
    "lat": 35.1984199,
    "lng": 139.6652683
  },
  {
    "id": "Q211015",
    "name_ja": "津田山",
    "name_en": "Tsudayama",
    "lat": 35.6038824,
    "lng": 139.6004567
  },
  {
    "id": "Q801534",
    "name_ja": "津田沼",
    "name_en": "Tsudanuma",
    "lat": 35.6913892,
    "lng": 140.02019
  },
  {
    "id": "Q7496494",
    "name_ja": "椎名町",
    "name_en": "Shiinamachi",
    "lat": 35.7264476,
    "lng": 139.6948922
  },
  {
    "id": "Q7098536",
    "name_ja": "追浜",
    "name_en": "Oppama",
    "lat": 35.315811,
    "lng": 139.6248191
  },
  {
    "id": "Q7850035",
    "name_ja": "塚田",
    "name_en": "Tsukada",
    "lat": 35.7216684,
    "lng": 139.9825253
  },
  {
    "id": "Q1049779",
    "name_ja": "辻堂",
    "name_en": "Tsujidō",
    "lat": 35.3368525,
    "lng": 139.447065
  },
  {
    "id": "node/2217975333",
    "name_ja": "辻堂駅北口",
    "lat": 35.3376696,
    "lng": 139.4472578
  },
  {
    "id": "Q7850270",
    "name_ja": "鶴ヶ島",
    "name_en": "Tsurugashima",
    "lat": 35.9369427,
    "lng": 139.4236708
  },
  {
    "id": "Q11675875",
    "name_ja": "鶴ケ峰",
    "name_en": "Tsurugamine",
    "lat": 35.4749432,
    "lng": 139.5493487
  },
  {
    "id": "node/2284142663",
    "name_ja": "鶴ヶ峰駅",
    "lat": 35.4762519,
    "lng": 139.5477795
  },
  {
    "id": "Q4506211",
    "name_ja": "鶴巻温泉",
    "name_en": "Tsurumaki-Onsen",
    "lat": 35.3808042,
    "lng": 139.277533
  },
  {
    "id": "Q4506209",
    "name_ja": "鶴間",
    "name_en": "Tsuruma",
    "lat": 35.4902303,
    "lng": 139.4508296
  },
  {
    "id": "Q128164",
    "name_ja": "鶴見",
    "name_en": "Tsurumi",
    "lat": 35.5083388,
    "lng": 139.6759759
  },
  {
    "id": "way/152993757",
    "name_ja": "鶴見駅西口バスターミナル",
    "lat": 35.5079973,
    "lng": 139.675191
  },
  {
    "id": "Q5361946",
    "name_ja": "鶴見市場",
    "name_en": "Tsurumi-ichiba",
    "lat": 35.5178357,
    "lng": 139.6866962
  },
  {
    "id": "Q7850302",
    "name_ja": "鶴瀬",
    "name_en": "Tsuruse",
    "lat": 35.8457565,
    "lng": 139.5394111
  },
  {
    "id": "Q4506208",
    "name_ja": "鶴川",
    "name_en": "Tsurukawa",
    "lat": 35.5831049,
    "lng": 139.4816019
  },
  {
    "id": "node/2546470725",
    "name_ja": "鶴川駅",
    "lat": 35.5838476,
    "lng": 139.4831555
  },
  {
    "id": "node/11090858003",
    "name_ja": "帝京大学構内",
    "lat": 35.6413497,
    "lng": 139.4233766
  },
  {
    "id": "Q5876257",
    "name_ja": "程久保",
    "name_en": "Hodokubo",
    "lat": 35.6552865,
    "lng": 139.4108303
  },
  {
    "id": "Q844395",
    "name_ja": "的場",
    "name_en": "Matoba",
    "lat": 35.9176574,
    "lng": 139.4360714
  },
  {
    "id": "Q7706853",
    "name_ja": "鉄道博物館",
    "name_en": "Tetsudo Hakubutsukan",
    "lat": 35.9205193,
    "lng": 139.6176711
  },
  {
    "id": "Q841425",
    "name_ja": "天王洲アイル",
    "name_en": "Tennozu Isle",
    "lat": 35.6227359,
    "lng": 139.7507947
  },
  {
    "id": "Q1952908",
    "name_ja": "天王台",
    "name_en": "Tennodai",
    "lat": 35.8725271,
    "lng": 140.0408889
  },
  {
    "id": "Q7700532",
    "name_ja": "天王町",
    "name_en": "Tennocho",
    "lat": 35.4540049,
    "lng": 139.6026308
  },
  {
    "id": "Q5367248",
    "name_ja": "天空橋",
    "name_en": "Tenkubashi",
    "lat": 35.5489693,
    "lng": 139.7543773
  },
  {
    "id": "way/1302566292",
    "name_ja": "天空橋駅",
    "name_en": "Tenkubashi Station",
    "lat": 35.5483301,
    "lng": 139.754388
  },
  {
    "id": "Q7699571",
    "name_ja": "天台",
    "name_en": "Tendai",
    "lat": 35.6314182,
    "lng": 140.1127865
  },
  {
    "id": "Q844260",
    "name_ja": "田浦",
    "name_en": "Taura",
    "lat": 35.2928027,
    "lng": 139.6369458
  },
  {
    "id": "Q5256442",
    "name_ja": "田園調布",
    "name_en": "Den-en-chofu",
    "lat": 35.5968896,
    "lng": 139.6673676
  },
  {
    "id": "Q1196090",
    "name_ja": "田原町",
    "name_en": "Tawaramachi",
    "lat": 35.709842,
    "lng": 139.7907747
  },
  {
    "id": "node/5568651764",
    "name_ja": "田村車庫",
    "lat": 35.3761916,
    "lng": 139.3585846
  },
  {
    "id": "Q801503",
    "name_ja": "田端",
    "name_en": "Tabata",
    "lat": 35.7373723,
    "lng": 139.761707
  },
  {
    "id": "Q801510",
    "name_ja": "田町",
    "name_en": "Tamachi",
    "lat": 35.6457358,
    "lng": 139.7476833
  },
  {
    "id": "Q7682183",
    "name_ja": "田奈",
    "name_en": "Tana",
    "lat": 35.5362568,
    "lng": 139.5049076
  },
  {
    "id": "Q843176",
    "name_ja": "田無",
    "name_en": "Tanashi",
    "lat": 35.7273146,
    "lng": 139.5394387
  },
  {
    "id": "way/270050465",
    "name_ja": "田名バスターミナル",
    "lat": 35.5510605,
    "lng": 139.335181
  },
  {
    "id": "Q801266",
    "name_ja": "登戸",
    "name_en": "Noborito",
    "lat": 35.6208193,
    "lng": 139.570006
  },
  {
    "id": "node/13355848541",
    "name_ja": "登戸駅(生田緑地口)",
    "lat": 35.6203818,
    "lng": 139.5699514
  },
  {
    "id": "Q7849953",
    "name_ja": "都賀",
    "name_en": "Tsuga",
    "lat": 35.636082,
    "lng": 140.1492345
  },
  {
    "id": "Q7850400",
    "name_ja": "都筑ふれあいの丘",
    "name_en": "Tsuzuki-fureainooka",
    "lat": 35.5365578,
    "lng": 139.5612641
  },
  {
    "id": "Q246186",
    "name_ja": "都庁前",
    "name_en": "Tochomae",
    "lat": 35.6906065,
    "lng": 139.692814
  },
  {
    "id": "Q7812764",
    "name_ja": "都電雑司ヶ谷",
    "name_en": "Toden-zoshigaya",
    "lat": 35.7241989,
    "lng": 139.7179309
  },
  {
    "id": "Q843447",
    "name_ja": "都立家政",
    "name_en": "Toritsu-Kasei",
    "lat": 35.7224188,
    "lng": 139.6446653
  },
  {
    "id": "Q7825831",
    "name_ja": "都立大学",
    "name_en": "Toritsu-daigaku",
    "lat": 35.6175433,
    "lng": 139.676184
  },
  {
    "id": "Q5353420",
    "name_ja": "土気",
    "name_en": "Toke",
    "lat": 35.5308674,
    "lng": 140.2697788
  },
  {
    "id": "Q857902",
    "name_ja": "土呂",
    "name_en": "Toro",
    "lat": 35.9317759,
    "lng": 139.6321346
  },
  {
    "id": "Q4213880",
    "name_ja": "唐木田",
    "name_en": "Karakida",
    "lat": 35.6158467,
    "lng": 139.4111316
  },
  {
    "id": "Q11523777",
    "name_ja": "東あずま",
    "name_en": "Higashi-azuma",
    "lat": 35.7070671,
    "lng": 139.8318015
  },
  {
    "id": "Q5753897",
    "name_ja": "東浦和",
    "name_en": "Higashi-Urawa",
    "lat": 35.8640813,
    "lng": 139.7045073
  },
  {
    "id": "Q849094",
    "name_ja": "東雲",
    "name_en": "Shinonome",
    "lat": 35.64073,
    "lng": 139.8036235
  },
  {
    "id": "Q5753915",
    "name_ja": "東横田",
    "name_en": "Higashi-Yokota",
    "lat": 35.3862677,
    "lng": 140.036446
  },
  {
    "id": "Q5753445",
    "name_ja": "東我孫子",
    "name_en": "Higashi-Abiko",
    "lat": 35.8689824,
    "lng": 140.0476509
  },
  {
    "id": "Q5366546",
    "name_ja": "東海神",
    "name_en": "Higashi-Kaijin",
    "lat": 35.7059603,
    "lng": 139.98055
  },
  {
    "id": "Q4459449",
    "name_ja": "東海大学前",
    "name_en": "Tokaidaigaku-mae",
    "lat": 35.37318,
    "lng": 139.2712335
  },
  {
    "id": "Q5753571",
    "name_ja": "東岩槻",
    "name_en": "Higashi-Iwatsuki",
    "lat": 35.963296,
    "lng": 139.7122477
  },
  {
    "id": "Q5753665",
    "name_ja": "東久留米",
    "name_en": "Higashi-Kurume",
    "lat": 35.7602506,
    "lng": 139.5340853
  },
  {
    "id": "Q11526625",
    "name_ja": "東宮原",
    "name_en": "Higashi-Miyahara",
    "lat": 35.9426459,
    "lng": 139.6182367
  },
  {
    "id": "way/1393265556",
    "name_ja": "東急バス日吉駅折返所",
    "lat": 35.5554456,
    "lng": 139.6478174
  },
  {
    "id": "Q7813848",
    "name_ja": "東京シティエアターミナル",
    "name_en": "Tokyo City Air Terminal",
    "lat": 35.682043,
    "lng": 139.787539
  },
  {
    "id": "Q5368690",
    "name_ja": "東京ディズニーシー・ステーション",
    "name_en": "Tokyo DisneySea Station",
    "lat": 35.6274495,
    "lng": 139.8895705
  },
  {
    "id": "Q5367499",
    "name_ja": "東京ディズニーランド・ステーション",
    "name_en": "Tokyo Disneyland Station",
    "lat": 35.6359285,
    "lng": 139.8786741
  },
  {
    "id": "Q906738",
    "name_ja": "東京テレポート",
    "name_en": "Tokyo Teleport",
    "lat": 35.6270927,
    "lng": 139.7780908
  },
  {
    "id": "Q841620",
    "name_ja": "東京ビッグサイト",
    "name_en": "Tokyo Big Sight",
    "lat": 35.630197,
    "lng": 139.7913701
  },
  {
    "id": "way/257357827",
    "name_ja": "東京駅八重洲南口",
    "name_en": "Yaesu South Gate",
    "lat": 35.6796229,
    "lng": 139.7682259
  },
  {
    "id": "node/4646514990",
    "name_ja": "東京駅八重洲北口鉄鋼ビル",
    "name_en": "Tokyo Shuttle",
    "lat": 35.6816961,
    "lng": 139.7696216
  },
  {
    "id": "Q5355904",
    "name_ja": "東京貨物ターミナル",
    "name_en": "Tokyo Freight Terminal",
    "lat": 35.595856,
    "lng": 139.7577909
  },
  {
    "id": "node/9388053470",
    "name_ja": "東京九州フェリー 横須賀フェリーターミナル",
    "lat": 35.2834593,
    "lng": 139.6781981
  },
  {
    "id": "way/754937872",
    "name_ja": "東京港フェリーターミナル",
    "name_en": "Tokyo Port Ferry Terminal",
    "lat": 35.6173078,
    "lng": 139.7957474
  },
  {
    "id": "Q852902",
    "name_ja": "東京国際クルーズターミナル",
    "name_en": "Tokyo International Cruise Terminal",
    "lat": 35.621401,
    "lng": 139.7730812
  },
  {
    "id": "way/592212297",
    "name_ja": "東京造形大学スクールバス乗り場",
    "lat": 35.6070816,
    "lng": 139.3322882
  },
  {
    "id": "node/8690207201",
    "name_ja": "東京薬科大学",
    "lat": 35.6365514,
    "lng": 139.3844545
  },
  {
    "id": "way/964510027",
    "name_ja": "東玉川学園四丁目バス折返場",
    "lat": 35.5597921,
    "lng": 139.4682119
  },
  {
    "id": "Q1078393",
    "name_ja": "東銀座",
    "name_en": "Higashi-Ginza",
    "lat": 35.6696837,
    "lng": 139.7669476
  },
  {
    "id": "Q844252",
    "name_ja": "東戸塚",
    "name_en": "Higashi-Totsuka",
    "lat": 35.4303614,
    "lng": 139.5567625
  },
  {
    "id": "node/2097582294",
    "name_ja": "東戸塚駅西口",
    "lat": 35.4306883,
    "lng": 139.5558199
  },
  {
    "id": "node/2351368363",
    "name_ja": "東戸塚駅東口",
    "lat": 35.4303827,
    "lng": 139.5575767
  },
  {
    "id": "Q8016063",
    "name_ja": "東吾野",
    "name_en": "Higashi-Agano",
    "lat": 35.8921031,
    "lng": 139.2605215
  },
  {
    "id": "Q5753733",
    "name_ja": "東向島",
    "name_en": "Higashi-mukojima",
    "lat": 35.7243341,
    "lng": 139.8193077
  },
  {
    "id": "Q1078443",
    "name_ja": "東高円寺",
    "name_en": "Higashi-koenji",
    "lat": 35.6979717,
    "lng": 139.6581601
  },
  {
    "id": "Q11103294",
    "name_ja": "東山田",
    "name_en": "Higashi-yamata",
    "lat": 35.554173,
    "lng": 139.6046897
  },
  {
    "id": "Q5753453",
    "name_ja": "東秋留",
    "name_en": "Higashi-Akiru",
    "lat": 35.7259384,
    "lng": 139.3109959
  },
  {
    "id": "Q800919",
    "name_ja": "東十条",
    "name_en": "Higashi-Jūjō",
    "lat": 35.7638484,
    "lng": 139.7268749
  },
  {
    "id": "Q5753886",
    "name_ja": "東所沢",
    "name_en": "Higashi-Tokorozawa",
    "lat": 35.7945963,
    "lng": 139.5137584
  },
  {
    "id": "Q800920",
    "name_ja": "東小金井",
    "name_en": "Higashi-Koganei",
    "lat": 35.7015414,
    "lng": 139.5240561
  },
  {
    "id": "Q4389689",
    "name_ja": "東松原",
    "name_en": "Higashi-matsubara",
    "lat": 35.6626431,
    "lng": 139.6558575
  },
  {
    "id": "Q3467990",
    "name_ja": "東松戸",
    "name_en": "Higashi-Matsudo",
    "lat": 35.7699563,
    "lng": 139.9431054
  },
  {
    "id": "Q112503",
    "name_ja": "東新宿",
    "name_en": "Higashi-shinjuku",
    "lat": 35.698933,
    "lng": 139.707695
  },
  {
    "id": "Q128205",
    "name_ja": "東神奈川",
    "name_en": "Higashi-Kanagawa",
    "lat": 35.4779431,
    "lng": 139.6333271
  },
  {
    "id": "Q844310",
    "name_ja": "東逗子",
    "name_en": "Higashi-Zushi",
    "lat": 35.2988417,
    "lng": 139.6014075
  },
  {
    "id": "Q11527993",
    "name_ja": "東清川",
    "name_en": "Higashi-Kiyokawa",
    "lat": 35.3900156,
    "lng": 139.985803
  },
  {
    "id": "Q844198",
    "name_ja": "東青梅",
    "name_en": "Higashi-Ome",
    "lat": 35.7899044,
    "lng": 139.2725011
  },
  {
    "id": "Q8013045",
    "name_ja": "東千葉",
    "name_en": "Higashi-Chiba",
    "lat": 35.6168339,
    "lng": 140.1221308
  },
  {
    "id": "Q8015281",
    "name_ja": "東川口",
    "name_en": "Higashi-Kawaguchi",
    "lat": 35.8752711,
    "lng": 139.7443712
  },
  {
    "id": "Q908788",
    "name_ja": "東船橋",
    "name_en": "Higashi-Funabashi",
    "lat": 35.6997729,
    "lng": 140.00429
  },
  {
    "id": "Q5753509",
    "name_ja": "東総元",
    "name_en": "Higashi-Fusamoto",
    "lat": 35.2594029,
    "lng": 140.2476266
  },
  {
    "id": "Q5753740",
    "name_ja": "東村山",
    "name_en": "Higashi-Murayama",
    "lat": 35.7604737,
    "lng": 139.4659028
  },
  {
    "id": "Q861532",
    "name_ja": "東大宮",
    "name_en": "Higashi-Omiya",
    "lat": 35.9487666,
    "lng": 139.6403108
  },
  {
    "id": "way/526170666",
    "name_ja": "東大構内",
    "lat": 35.7133544,
    "lng": 139.7641997
  },
  {
    "id": "Q1073411",
    "name_ja": "東大前",
    "name_en": "Todaimae",
    "lat": 35.7173365,
    "lng": 139.7581767
  },
  {
    "id": "Q908010",
    "name_ja": "東大島",
    "name_en": "Higashi-ojima",
    "lat": 35.6902967,
    "lng": 139.8459524
  },
  {
    "id": "Q5754181",
    "name_ja": "東大和市",
    "name_en": "Higashiyamatoshi",
    "lat": 35.7328898,
    "lng": 139.4345214
  },
  {
    "id": "Q331193",
    "name_ja": "東池袋",
    "name_en": "Higashi-ikebukuro",
    "lat": 35.7256214,
    "lng": 139.7193857
  },
  {
    "id": "Q13479437",
    "name_ja": "東池袋四丁目",
    "name_en": "Higashi-ikebukuro-yonchome",
    "lat": 35.7252736,
    "lng": 139.7201704
  },
  {
    "id": "Q8015446",
    "name_ja": "東中山",
    "name_en": "Higashi-Nakayama",
    "lat": 35.7144727,
    "lng": 139.9525957
  },
  {
    "id": "Q8014532",
    "name_ja": "東中神",
    "name_en": "Higashi-Nakagami",
    "lat": 35.7063674,
    "lng": 139.3844328
  },
  {
    "id": "Q800921",
    "name_ja": "東中野",
    "name_en": "Higashi-nakano",
    "lat": 35.7073477,
    "lng": 139.6832315
  },
  {
    "id": "Q843275",
    "name_ja": "東長崎",
    "name_en": "Higashi-Nagasaki",
    "lat": 35.7302608,
    "lng": 139.6828643
  },
  {
    "id": "Q906172",
    "name_ja": "東日本橋",
    "name_en": "Higashi-nihombashi",
    "lat": 35.6921239,
    "lng": 139.7848848
  },
  {
    "id": "Q5753538",
    "name_ja": "東白楽",
    "name_en": "Higashi-hakuraku",
    "lat": 35.4832475,
    "lng": 139.6294747
  },
  {
    "id": "way/725205336",
    "name_ja": "東白楽駅",
    "lat": 35.4832264,
    "lng": 139.6294714
  },
  {
    "id": "Q11103269",
    "name_ja": "東尾久三丁目",
    "name_en": "Higashi-ogu-sanchome",
    "lat": 35.7455749,
    "lng": 139.7740826
  },
  {
    "id": "Q4497461",
    "name_ja": "東府中",
    "name_en": "Higashi-fuchu",
    "lat": 35.6688995,
    "lng": 139.4951461
  },
  {
    "id": "way/710036875",
    "name_ja": "東武バスセントラル草加営業事務所",
    "name_en": "Tobu Bus Central Soka Sales Office",
    "lat": 35.8480549,
    "lng": 139.8017107
  },
  {
    "id": "way/1207116611",
    "name_ja": "東武バス折り返し場",
    "lat": 35.8501014,
    "lng": 139.5658375
  },
  {
    "id": "Q7862632",
    "name_ja": "東武練馬",
    "name_en": "Tobu-nerima",
    "lat": 35.7686483,
    "lng": 139.6625765
  },
  {
    "id": "Q5753520",
    "name_ja": "東伏見",
    "name_en": "Higashi-Fushimi",
    "lat": 35.7287024,
    "lng": 139.5642364
  },
  {
    "id": "Q844330",
    "name_ja": "東福生",
    "name_en": "Higashi-Fussa",
    "lat": 35.7457424,
    "lng": 139.3359519
  },
  {
    "id": "Q4497457",
    "name_ja": "東北沢",
    "name_en": "Higashi-Kitazawa",
    "lat": 35.6651291,
    "lng": 139.6724982
  },
  {
    "id": "way/609922250",
    "name_ja": "東名厚木下りバス停",
    "lat": 35.424609,
    "lng": 139.3450762
  },
  {
    "id": "way/609922259",
    "name_ja": "東名厚木上りバス停",
    "lat": 35.4250576,
    "lng": 139.3449619
  },
  {
    "id": "Q11527554",
    "name_ja": "東毛呂",
    "name_en": "Higashi-moro",
    "lat": 35.9468371,
    "lng": 139.3154227
  },
  {
    "id": "Q5754076",
    "name_ja": "東門前",
    "name_en": "Higashimonzen",
    "lat": 35.5365833,
    "lng": 139.7343911
  },
  {
    "id": "Q7862750",
    "name_ja": "東葉勝田台",
    "name_en": "Toyo-Katsutadai",
    "lat": 35.7159497,
    "lng": 140.1260561
  },
  {
    "id": "Q126765",
    "name_ja": "東陽町",
    "name_en": "Toyocho",
    "lat": 35.6695961,
    "lng": 139.8174761
  },
  {
    "id": "Q4497459",
    "name_ja": "東林間",
    "name_en": "Higashi-Rinkan",
    "lat": 35.5202139,
    "lng": 139.439057
  },
  {
    "id": "Q390694",
    "name_ja": "湯島",
    "name_en": "Yushima",
    "lat": 35.7073329,
    "lng": 139.7700104
  },
  {
    "id": "Q7812857",
    "name_ja": "等々力",
    "name_en": "Todoroki",
    "lat": 35.608362,
    "lng": 139.6480235
  },
  {
    "id": "Q5366756",
    "name_ja": "藤が丘",
    "name_en": "Fujigaoka",
    "lat": 35.5434977,
    "lng": 139.527979
  },
  {
    "id": "Q5367524",
    "name_ja": "藤の牛島",
    "name_en": "Fujino-Ushijima",
    "lat": 35.9802677,
    "lng": 139.7780321
  },
  {
    "id": "Q5365268",
    "name_ja": "藤代",
    "name_en": "Fujishiro",
    "lat": 35.9206534,
    "lng": 140.1182086
  },
  {
    "id": "Q1133110",
    "name_ja": "藤沢",
    "name_en": "Fujisawa",
    "lat": 35.3385903,
    "lng": 139.4875052
  },
  {
    "id": "node/12852026341",
    "name_ja": "藤沢駅南口",
    "lat": 35.3379936,
    "lng": 139.4876888
  },
  {
    "id": "node/12852026340",
    "name_ja": "藤沢駅北口",
    "lat": 35.3397222,
    "lng": 139.487773
  },
  {
    "id": "Q5321252",
    "name_ja": "動物公園",
    "name_en": "Dobutsu-Koen",
    "lat": 35.6425768,
    "lng": 140.1255139
  },
  {
    "id": "Q4053762",
    "name_ja": "読売ランド前",
    "name_en": "Yomiuriland-mae",
    "lat": 35.6147779,
    "lng": 139.5278883
  },
  {
    "id": "Q1038948",
    "name_ja": "内幸町",
    "name_en": "Uchisaiwaicho",
    "lat": 35.6694556,
    "lng": 139.7553799
  },
  {
    "id": "Q1073001",
    "name_ja": "南阿佐ケ谷",
    "name_en": "Minami-asagaya",
    "lat": 35.6993987,
    "lng": 139.6357088
  },
  {
    "id": "Q268540",
    "name_ja": "南浦和",
    "name_en": "Minami-Urawa",
    "lat": 35.8477323,
    "lng": 139.669144
  },
  {
    "id": "Q842469",
    "name_ja": "南越谷",
    "name_en": "Minami-Koshigaya",
    "lat": 35.8760526,
    "lng": 139.7910584
  },
  {
    "id": "Q6862886",
    "name_ja": "南橋本",
    "name_en": "Minami-Hashimoto",
    "lat": 35.5801657,
    "lng": 139.3525575
  },
  {
    "id": "Q844387",
    "name_ja": "南古谷",
    "name_en": "Minami-Furuya",
    "lat": 35.9032539,
    "lng": 139.5194429
  },
  {
    "id": "Q128797",
    "name_ja": "南行徳",
    "name_en": "Minami-gyotoku",
    "lat": 35.6727318,
    "lng": 139.902279
  },
  {
    "id": "node/5312647231",
    "name_ja": "南行徳駅バスロータリー",
    "lat": 35.6726311,
    "lng": 139.9014464
  },
  {
    "id": "Q126760",
    "name_ja": "南砂町",
    "name_en": "Minami-sunamachi",
    "lat": 35.6683446,
    "lng": 139.8318642
  },
  {
    "id": "Q5367953",
    "name_ja": "南桜井",
    "name_en": "Minami-Sakurai",
    "lat": 35.980455,
    "lng": 139.8079892
  },
  {
    "id": "Q6862948",
    "name_ja": "南守谷",
    "name_en": "Minami-Moriya",
    "lat": 35.9342845,
    "lng": 140.0024794
  },
  {
    "id": "Q5364222",
    "name_ja": "南酒々井",
    "name_en": "Minami-Shisui",
    "lat": 35.7044089,
    "lng": 140.2681631
  },
  {
    "id": "Q1135947",
    "name_ja": "南新宿",
    "name_en": "Minami-Shinjuku",
    "lat": 35.6837073,
    "lng": 139.698857
  },
  {
    "id": "Q80570",
    "name_ja": "南千住",
    "name_en": "Minami-Senju",
    "lat": 35.7333017,
    "lng": 139.7990144
  },
  {
    "id": "Q2259071",
    "name_ja": "南船橋",
    "name_en": "Minami-Funabashi",
    "lat": 35.6819756,
    "lng": 139.9955434
  },
  {
    "id": "Q5366901",
    "name_ja": "南多摩",
    "name_en": "Minami-Tama",
    "lat": 35.6492768,
    "lng": 139.4899061
  },
  {
    "id": "Q6863036",
    "name_ja": "南太田",
    "name_en": "Minamiota",
    "lat": 35.4368194,
    "lng": 139.6131635
  },
  {
    "id": "Q4293994",
    "name_ja": "南大沢",
    "name_en": "Minami-osawa",
    "lat": 35.6141445,
    "lng": 139.3799374
  },
  {
    "id": "node/11578224434",
    "name_ja": "南大沢駅",
    "lat": 35.6137313,
    "lng": 139.3806948
  },
  {
    "id": "Q8015394",
    "name_ja": "南大塚",
    "name_en": "Minami-Otsuka",
    "lat": 35.8898272,
    "lng": 139.454295
  },
  {
    "id": "Q6862943",
    "name_ja": "南町田グランベリーパーク",
    "name_en": "Minami-machida Grandberry Park",
    "lat": 35.5115009,
    "lng": 139.4707911
  },
  {
    "id": "node/5976921079",
    "name_ja": "南町田グランベリーパーク駅",
    "lat": 35.5120223,
    "lng": 139.4706419
  },
  {
    "id": "Q5363133",
    "name_ja": "南柏",
    "name_en": "Minami-Kashiwa",
    "lat": 35.8446196,
    "lng": 139.9542125
  },
  {
    "id": "Q5369132",
    "name_ja": "南鳩ヶ谷",
    "name_en": "Minami-hatogaya",
    "lat": 35.8161232,
    "lng": 139.7361213
  },
  {
    "id": "Q11408539",
    "name_ja": "南部市場",
    "name_en": "Nambu-Shijo",
    "lat": 35.3801794,
    "lng": 139.6332331
  },
  {
    "id": "Q4294001",
    "name_ja": "南平",
    "name_en": "Minamidaira",
    "lat": 35.6546404,
    "lng": 139.3919562
  },
  {
    "id": "way/849399398",
    "name_ja": "南北線 永田町駅",
    "lat": 35.678364,
    "lng": 139.7394351
  },
  {
    "id": "Q6862945",
    "name_ja": "南万騎が原",
    "name_en": "Minami-Makigahara",
    "lat": 35.452353,
    "lng": 139.526377
  },
  {
    "id": "Q844368",
    "name_ja": "南与野",
    "name_en": "Minami-Yono",
    "lat": 35.8678858,
    "lng": 139.6310388
  },
  {
    "id": "Q267770",
    "name_ja": "南流山",
    "name_en": "Minami-Nagareyama",
    "lat": 35.8385114,
    "lng": 139.9030689
  },
  {
    "id": "Q999127",
    "name_ja": "南林間",
    "name_en": "Minami-Rinkan",
    "lat": 35.495726,
    "lng": 139.4479687
  },
  {
    "id": "Q511262",
    "name_ja": "二宮",
    "name_en": "Ninomiya",
    "lat": 35.2987535,
    "lng": 139.2575905
  },
  {
    "id": "Q1042466",
    "name_ja": "二子玉川",
    "name_en": "Futako-tamagawa",
    "lat": 35.6117897,
    "lng": 139.6268002
  },
  {
    "id": "Q5510461",
    "name_ja": "二子新地",
    "name_en": "Futako-shinchi",
    "lat": 35.6071968,
    "lng": 139.6224456
  },
  {
    "id": "Q390676",
    "name_ja": "二重橋前〈丸の内〉",
    "name_en": "Nijubashimae 'Marunouchi'",
    "lat": 35.6803213,
    "lng": 139.7616161
  },
  {
    "id": "Q846471",
    "name_ja": "二俣川",
    "name_en": "Futamatagawa",
    "lat": 35.4634653,
    "lng": 139.5322366
  },
  {
    "id": "node/4911716111",
    "name_ja": "二俣川駅南口",
    "lat": 35.4625385,
    "lng": 139.5318256
  },
  {
    "id": "Q5510499",
    "name_ja": "二和向台",
    "name_en": "Futawamukodai",
    "lat": 35.7539866,
    "lng": 140.0234806
  },
  {
    "id": "Q5365974",
    "name_ja": "日の出",
    "name_en": "Hinode",
    "lat": 35.6491888,
    "lng": 139.7590999
  },
  {
    "id": "node/730689399",
    "name_ja": "日の出桟橋",
    "name_en": "Hinode Sambashi",
    "lat": 35.6513748,
    "lng": 139.7606156
  },
  {
    "id": "Q5767411",
    "name_ja": "日ノ出町",
    "name_en": "Hinodecho",
    "lat": 35.4455466,
    "lng": 139.6267113
  },
  {
    "id": "Q390392",
    "name_ja": "日吉",
    "name_en": "Hiyoshi",
    "lat": 35.5534689,
    "lng": 139.6468752
  },
  {
    "id": "Q5872965",
    "name_ja": "日吉本町",
    "name_en": "Hiyoshi-honcho",
    "lat": 35.5500655,
    "lng": 139.6336227
  },
  {
    "id": "Q844375",
    "name_ja": "日進",
    "name_en": "Nisshin",
    "lat": 35.9315562,
    "lng": 139.6061435
  },
  {
    "id": "node/10032339083",
    "name_ja": "日大三高",
    "lat": 35.592143,
    "lng": 139.4186072
  },
  {
    "id": "Q124799427",
    "name_ja": "日暮里",
    "name_en": "Nippori",
    "lat": 35.7283798,
    "lng": 139.7709817
  },
  {
    "id": "node/7040912072",
    "name_ja": "日暮里駅出入口",
    "lat": 35.7285041,
    "lng": 139.7705696
  },
  {
    "id": "node/7196177600",
    "name_ja": "日本橋観光桟橋",
    "name_en": "Nihonbashi Tourist Pier",
    "lat": 35.6838198,
    "lng": 139.7748102
  },
  {
    "id": "Q7034272",
    "name_ja": "日本大通り",
    "name_en": "Nihon-odori",
    "lat": 35.4467354,
    "lng": 139.6426718
  },
  {
    "id": "Q800923",
    "name_ja": "日野",
    "name_en": "Hino",
    "lat": 35.679389,
    "lng": 139.3938458
  },
  {
    "id": "node/11090959166",
    "name_ja": "日野駅",
    "lat": 35.6791761,
    "lng": 139.3931336
  },
  {
    "id": "Q6074023",
    "name_ja": "入間市",
    "name_en": "Irumashi",
    "lat": 35.8426832,
    "lng": 139.3901317
  },
  {
    "id": "Q6071849",
    "name_ja": "入曽",
    "name_en": "Iriso",
    "lat": 35.8325034,
    "lng": 139.4270696
  },
  {
    "id": "Q6068466",
    "name_ja": "入地",
    "name_en": "Ireji",
    "lat": 35.9191689,
    "lng": 140.157004
  },
  {
    "id": "Q347791",
    "name_ja": "乃木坂",
    "name_en": "Nogizaka",
    "lat": 35.6666651,
    "lng": 139.726365
  },
  {
    "id": "Q7071606",
    "name_ja": "能見台",
    "name_en": "Nokendai",
    "lat": 35.3608505,
    "lng": 139.6294203
  },
  {
    "id": "Q128303",
    "name_ja": "馬喰横山",
    "name_en": "Bakuroyokoyama",
    "lat": 35.6921222,
    "lng": 139.7827937
  },
  {
    "id": "Q844182",
    "name_ja": "馬喰町",
    "name_en": "Bakurochō",
    "lat": 35.6933693,
    "lng": 139.782427
  },
  {
    "id": "Q1040904",
    "name_ja": "馬込",
    "name_en": "Magome",
    "lat": 35.5967788,
    "lng": 139.7119274
  },
  {
    "id": "Q6732342",
    "name_ja": "馬込沢",
    "name_en": "Magomezawa",
    "lat": 35.741571,
    "lng": 139.9922561
  },
  {
    "id": "Q4866771",
    "name_ja": "馬車道",
    "name_en": "Bashamichi",
    "lat": 35.4501475,
    "lng": 139.6362973
  },
  {
    "id": "Q5370891",
    "name_ja": "馬堀海岸",
    "name_en": "Maborikaigan",
    "lat": 35.2595912,
    "lng": 139.7076389
  },
  {
    "id": "Q6740491",
    "name_ja": "馬来田",
    "name_en": "Makuta",
    "lat": 35.3666754,
    "lng": 140.0586872
  },
  {
    "id": "Q7881193",
    "name_ja": "馬立",
    "name_en": "Umatate",
    "lat": 35.4236725,
    "lng": 140.1148775
  },
  {
    "id": "Q1065988",
    "name_ja": "拝島",
    "name_en": "Haijima",
    "lat": 35.7211328,
    "lng": 139.3436264
  },
  {
    "id": "node/7811212241",
    "name_ja": "拝島駅",
    "lat": 35.7206729,
    "lng": 139.3429833
  },
  {
    "id": "Q4475573",
    "name_ja": "梅ヶ丘",
    "name_en": "Umegaoka",
    "lat": 35.6561754,
    "lng": 139.6541274
  },
  {
    "id": "Q865643",
    "name_ja": "梅屋敷",
    "name_en": "Umeyashiki",
    "lat": 35.5669662,
    "lng": 139.728368
  },
  {
    "id": "Q7881495",
    "name_ja": "梅郷",
    "name_en": "Umesato",
    "lat": 35.9313573,
    "lng": 139.891223
  },
  {
    "id": "Q7881477",
    "name_ja": "梅島",
    "name_en": "Umejima",
    "lat": 35.7723784,
    "lng": 139.7979912
  },
  {
    "id": "Q5638755",
    "name_ja": "萩山",
    "name_en": "Hagiyama",
    "lat": 35.7406792,
    "lng": 139.4771811
  },
  {
    "id": "Q865156",
    "name_ja": "柏",
    "name_en": "Kashiwa",
    "lat": 35.8623263,
    "lng": 139.9710655
  },
  {
    "id": "Q5366315",
    "name_ja": "柏たなか",
    "name_en": "Kashiwa-Tanaka",
    "lat": 35.9110036,
    "lng": 139.9575718
  },
  {
    "id": "Q6374365",
    "name_ja": "柏の葉キャンパス",
    "name_en": "Kashiwanoha-campus",
    "lat": 35.8934481,
    "lng": 139.9525326
  },
  {
    "id": "Q7498913",
    "name_ja": "白井",
    "name_en": "Shiroi",
    "lat": 35.7847387,
    "lng": 140.0540933
  },
  {
    "id": "Q5640648",
    "name_ja": "白楽",
    "name_en": "Hakuraku",
    "lat": 35.4896753,
    "lng": 139.6279215
  },
  {
    "id": "Q112323",
    "name_ja": "白金高輪",
    "name_en": "Shirokane-takanawa",
    "lat": 35.6429531,
    "lng": 139.734168
  },
  {
    "id": "Q112357",
    "name_ja": "白金台",
    "name_en": "Shirokanedai",
    "lat": 35.6381027,
    "lng": 139.7265652
  },
  {
    "id": "Q1039879",
    "name_ja": "白山",
    "name_en": "Hakusan",
    "lat": 35.7215048,
    "lng": 139.7521578
  },
  {
    "id": "Q5368205",
    "name_ja": "白糸台",
    "name_en": "Shiraitodai",
    "lat": 35.6664784,
    "lng": 139.5098139
  },
  {
    "id": "Q844354",
    "name_ja": "箱根ヶ崎",
    "name_en": "Hakonegasaki",
    "lat": 35.7713447,
    "lng": 139.3467422
  },
  {
    "id": "Q4496513",
    "name_ja": "幡ヶ谷",
    "name_en": "Hatagaya",
    "lat": 35.6772317,
    "lng": 139.6768293
  },
  {
    "id": "Q800868",
    "name_ja": "八王子",
    "name_en": "Hachioji",
    "lat": 35.655389,
    "lng": 139.3394669
  },
  {
    "id": "Q844693",
    "name_ja": "八王子みなみ野",
    "name_en": "Hachiojiminamino",
    "lat": 35.6312559,
    "lng": 139.3309341
  },
  {
    "id": "node/11096401139",
    "name_ja": "八王子みなみ野駅",
    "lat": 35.6309541,
    "lng": 139.3298573
  },
  {
    "id": "Q5640543",
    "name_ja": "八景島",
    "name_en": "Hakkeijima",
    "lat": 35.3408226,
    "lng": 139.640836
  },
  {
    "id": "node/11051153728",
    "name_ja": "八景島客船ターミナル",
    "lat": 35.3383616,
    "lng": 139.6472259
  },
  {
    "id": "Q8015247",
    "name_ja": "八広",
    "name_en": "Yahiro",
    "lat": 35.727185,
    "lng": 139.8282344
  },
  {
    "id": "Q8014496",
    "name_ja": "八坂",
    "name_en": "Yasaka",
    "lat": 35.7451604,
    "lng": 139.4674364
  },
  {
    "id": "Q4373709",
    "name_ja": "八千代台",
    "name_en": "Yachiyodai",
    "lat": 35.7012654,
    "lng": 140.0906181
  },
  {
    "id": "Q5366268",
    "name_ja": "八千代中央",
    "name_en": "Yachiyo-chuo",
    "lat": 35.7278521,
    "lng": 140.1034097
  },
  {
    "id": "Q5367282",
    "name_ja": "八千代緑が丘",
    "name_en": "Yachiyo-midorigaoka",
    "lat": 35.7288504,
    "lng": 140.0729952
  },
  {
    "id": "Q5367230",
    "name_ja": "八柱",
    "name_en": "Yabashira",
    "lat": 35.7915908,
    "lng": 139.937639
  },
  {
    "id": "Q5366338",
    "name_ja": "八丁畷",
    "name_en": "Hatchonawate",
    "lat": 35.5230147,
    "lng": 139.6917276
  },
  {
    "id": "Q1073008",
    "name_ja": "八丁堀",
    "name_en": "Hatchōbori",
    "lat": 35.6746238,
    "lng": 139.7776565
  },
  {
    "id": "Q8017379",
    "name_ja": "八潮",
    "name_en": "Yashio",
    "lat": 35.8078279,
    "lng": 139.8448654
  },
  {
    "id": "Q4496530",
    "name_ja": "八幡山",
    "name_en": "Hachimanyama",
    "lat": 35.6698828,
    "lng": 139.6157094
  },
  {
    "id": "Q573497",
    "name_ja": "八幡宿",
    "name_en": "Yawatajuku",
    "lat": 35.5362629,
    "lng": 140.1201444
  },
  {
    "id": "Q11391340",
    "name_ja": "八木崎",
    "name_en": "Yagisaki",
    "lat": 35.9783248,
    "lng": 139.7417829
  },
  {
    "id": "Q3701478",
    "name_ja": "鳩ヶ谷",
    "name_en": "Hatogaya",
    "lat": 35.8308732,
    "lng": 139.7361589
  },
  {
    "id": "Q80551",
    "name_ja": "半蔵門",
    "name_en": "Hanzomon",
    "lat": 35.6852213,
    "lng": 139.7415832
  },
  {
    "id": "way/849393576",
    "name_ja": "半蔵門線 永田町駅",
    "lat": 35.6783717,
    "lng": 139.7386134
  },
  {
    "id": "Q7681523",
    "name_ja": "反町",
    "name_en": "Tammachi",
    "lat": 35.4746815,
    "lng": 139.6252491
  },
  {
    "id": "Q800966",
    "name_ja": "板橋",
    "name_en": "Itabashi",
    "lat": 35.7453955,
    "lng": 139.7195098
  },
  {
    "id": "Q1039760",
    "name_ja": "板橋区役所前",
    "name_en": "Itabashi-kuyakushomae",
    "lat": 35.7513477,
    "lng": 139.71004
  },
  {
    "id": "Q1073933",
    "name_ja": "板橋本町",
    "name_en": "Itabashihoncho",
    "lat": 35.7614305,
    "lng": 139.7055249
  },
  {
    "id": "Q11666649",
    "name_ja": "飯給",
    "name_en": "Itabu",
    "lat": 35.3207931,
    "lng": 140.1421816
  },
  {
    "id": "Q5366376",
    "name_ja": "飯山満",
    "name_en": "Hasama",
    "lat": 35.7140049,
    "lng": 140.0221635
  },
  {
    "id": "Q5649307",
    "name_ja": "飯能",
    "name_en": "Hanno",
    "lat": 35.8510047,
    "lng": 139.3190593
  },
  {
    "id": "Q4854306",
    "name_ja": "番田",
    "name_en": "Banda",
    "lat": 35.5453889,
    "lng": 139.3629797
  },
  {
    "id": "Q4811868",
    "name_ja": "飛鳥山",
    "name_en": "Asukayama",
    "lat": 35.7501777,
    "lng": 139.7373997
  },
  {
    "id": "Q4459114",
    "name_ja": "飛田給",
    "name_en": "Tobitakyu",
    "lat": 35.6602521,
    "lng": 139.5232311
  },
  {
    "id": "Q845113",
    "name_ja": "尾久",
    "name_en": "Oku",
    "lat": 35.7469091,
    "lng": 139.7536603
  },
  {
    "id": "Q7116237",
    "name_ja": "尾山台",
    "name_en": "Oyamadai",
    "lat": 35.6070357,
    "lng": 139.6537506
  },
  {
    "id": "Q4534822",
    "name_ja": "百合ヶ丘",
    "name_en": "Yurigaoka",
    "lat": 35.6090225,
    "lng": 139.5160744
  },
  {
    "id": "node/12709424526",
    "name_ja": "百合ヶ丘駅",
    "lat": 35.6085,
    "lng": 139.5159798
  },
  {
    "id": "Q4299262",
    "name_ja": "百草園",
    "name_en": "Mogusaen",
    "lat": 35.657526,
    "lng": 139.4309108
  },
  {
    "id": "Q7689221",
    "name_ja": "俵田",
    "name_en": "Tawarada",
    "lat": 35.3146893,
    "lng": 140.0612845
  },
  {
    "id": "Q93680",
    "name_ja": "氷川台",
    "name_en": "Hikawadai",
    "lat": 35.7497818,
    "lng": 139.6650083
  },
  {
    "id": "Q1326733",
    "name_ja": "表参道",
    "name_en": "Omote-sando",
    "lat": 35.6651609,
    "lng": 139.7125432
  },
  {
    "id": "Q11674329",
    "name_ja": "鰭ヶ崎",
    "name_en": "Hiregasaki",
    "lat": 35.84101,
    "lng": 139.910894
  },
  {
    "id": "Q849106",
    "name_ja": "品川シーサイド",
    "name_en": "Shinagawa Seaside",
    "lat": 35.6097199,
    "lng": 139.7498775
  },
  {
    "id": "Q558560",
    "name_ja": "浜金谷",
    "name_en": "Hama-Kanaya",
    "lat": 35.1681374,
    "lng": 139.8223787
  },
  {
    "id": "Q800873",
    "name_ja": "浜松町",
    "name_en": "Hamamatsucho",
    "lat": 35.6551111,
    "lng": 139.7570622
  },
  {
    "id": "Q1581467",
    "name_ja": "浜川崎",
    "name_en": "Hama-Kawasaki",
    "lat": 35.5103253,
    "lng": 139.7137564
  },
  {
    "id": "Q128403",
    "name_ja": "浜町",
    "name_en": "Hamacho",
    "lat": 35.6884743,
    "lng": 139.7881422
  },
  {
    "id": "Q27101",
    "name_ja": "浜田山",
    "name_en": "Hamadayama",
    "lat": 35.6816467,
    "lng": 139.6274677
  },
  {
    "id": "Q571740",
    "name_ja": "浜野",
    "name_en": "Hamano",
    "lat": 35.552028,
    "lng": 140.1321103
  },
  {
    "id": "Q852869",
    "name_ja": "不動前",
    "name_en": "Fudo-mae",
    "lat": 35.6253418,
    "lng": 139.713046
  },
  {
    "id": "Q27285",
    "name_ja": "富士見ヶ丘",
    "name_en": "Fujimigaoka",
    "lat": 35.684671,
    "lng": 139.6076113
  },
  {
    "id": "Q5507443",
    "name_ja": "富士見台",
    "name_en": "Fujimidai",
    "lat": 35.7359523,
    "lng": 139.6300042
  },
  {
    "id": "Q1094940",
    "name_ja": "富士見町",
    "name_en": "Fujimicho",
    "lat": 35.3454627,
    "lng": 139.5293762
  },
  {
    "id": "Q5366552",
    "name_ja": "布佐",
    "name_en": "Fusa",
    "lat": 35.8490121,
    "lng": 140.1331197
  },
  {
    "id": "Q4493273",
    "name_ja": "布田",
    "name_en": "Fuda",
    "lat": 35.6498661,
    "lng": 139.5517595
  },
  {
    "id": "Q4493756",
    "name_ja": "府中",
    "name_en": "Fuchu",
    "lat": 35.672219,
    "lng": 139.4800091
  },
  {
    "id": "node/6824877395",
    "name_ja": "府中駅",
    "lat": 35.6723382,
    "lng": 139.4802363
  },
  {
    "id": "Q4493753",
    "name_ja": "府中競馬正門前",
    "name_en": "Fuchukeiba-seimonmae",
    "lat": 35.6684223,
    "lng": 139.4847109
  },
  {
    "id": "Q800794",
    "name_ja": "府中本町",
    "name_en": "Fuchu-Hommachi",
    "lat": 35.6661053,
    "lng": 139.4771038
  },
  {
    "id": "Q844434",
    "name_ja": "浮間舟渡",
    "name_en": "Ukimafunado",
    "lat": 35.7911796,
    "lng": 139.6915101
  },
  {
    "id": "Q11558525",
    "name_ja": "浮島町",
    "name_en": "Ukishimachō",
    "lat": 35.5261072,
    "lng": 139.778083
  },
  {
    "id": "Q5001625",
    "name_ja": "武州長瀬",
    "name_en": "Bushu-nagase",
    "lat": 35.9419222,
    "lng": 139.326014
  },
  {
    "id": "Q5001626",
    "name_ja": "武州唐沢",
    "name_en": "Bushu-karasawa",
    "lat": 35.9519502,
    "lng": 139.3093018
  },
  {
    "id": "Q6940130",
    "name_ja": "武蔵引田",
    "name_en": "Musashi-Hikida",
    "lat": 35.7297501,
    "lng": 139.2701831
  },
  {
    "id": "Q801208",
    "name_ja": "武蔵浦和",
    "name_en": "Musashi-Urawa",
    "lat": 35.8459689,
    "lng": 139.647066
  },
  {
    "id": "Q8015462",
    "name_ja": "武蔵横手",
    "name_en": "Musashi-Yokote",
    "lat": 35.8855696,
    "lng": 139.2805808
  },
  {
    "id": "Q843304",
    "name_ja": "武蔵関",
    "name_en": "Musashi-Seki",
    "lat": 35.7276304,
    "lng": 139.576787
  },
  {
    "id": "Q137550",
    "name_ja": "武蔵境",
    "name_en": "Musashi-Sakai",
    "lat": 35.7021298,
    "lng": 139.5440803
  },
  {
    "id": "Q5367854",
    "name_ja": "武蔵溝ノ口",
    "name_en": "Musashi-Mizonokuchi",
    "lat": 35.5990079,
    "lng": 139.6112408
  },
  {
    "id": "Q1129108",
    "name_ja": "武蔵高萩",
    "name_en": "Musashi-Takahagi",
    "lat": 35.9017534,
    "lng": 139.3713498
  },
  {
    "id": "Q8015376",
    "name_ja": "武蔵砂川",
    "name_en": "Musashi-Sunagawa",
    "lat": 35.7289155,
    "lng": 139.3922831
  },
  {
    "id": "Q801206",
    "name_ja": "武蔵小金井",
    "name_en": "Musashi-Koganei",
    "lat": 35.7011261,
    "lng": 139.5067873
  },
  {
    "id": "Q3097145",
    "name_ja": "武蔵小山",
    "name_en": "Musashi-koyama",
    "lat": 35.6205612,
    "lng": 139.7045734
  },
  {
    "id": "Q801207",
    "name_ja": "武蔵小杉",
    "name_en": "Musashi-kosugi",
    "lat": 35.5757446,
    "lng": 139.6596755
  },
  {
    "id": "Q5366887",
    "name_ja": "武蔵新城",
    "name_en": "Musashi-Shinjo",
    "lat": 35.5871571,
    "lng": 139.6298478
  },
  {
    "id": "Q6940140",
    "name_ja": "武蔵新田",
    "name_en": "Musashi-nitta",
    "lat": 35.5678616,
    "lng": 139.6924791
  },
  {
    "id": "Q6940139",
    "name_ja": "武蔵増戸",
    "name_en": "Musashi-Masuko",
    "lat": 35.7310041,
    "lng": 139.256252
  },
  {
    "id": "Q6940151",
    "name_ja": "武蔵大和",
    "name_en": "Musashi-Yamato",
    "lat": 35.7562258,
    "lng": 139.4442465
  },
  {
    "id": "Q5367238",
    "name_ja": "武蔵中原",
    "name_en": "Musashi-Nakahara",
    "lat": 35.5809082,
    "lng": 139.6417595
  },
  {
    "id": "Q8015433",
    "name_ja": "武蔵藤沢",
    "name_en": "Musashi-Fujisawa",
    "lat": 35.821335,
    "lng": 139.4125668
  },
  {
    "id": "Q1581531",
    "name_ja": "武蔵白石",
    "name_en": "Musashi-Shiraishi",
    "lat": 35.5018116,
    "lng": 139.7062924
  },
  {
    "id": "Q4308321",
    "name_ja": "武蔵野台",
    "name_en": "Musashinodai",
    "lat": 35.6642284,
    "lng": 139.5109606
  },
  {
    "id": "Q7678100",
    "name_ja": "武里",
    "name_en": "Takesato",
    "lat": 35.948627,
    "lng": 139.7707125
  },
  {
    "id": "Q904116",
    "name_ja": "舞岡",
    "name_en": "Maioka",
    "lat": 35.4024586,
    "lng": 139.5509416
  },
  {
    "id": "Q801154",
    "name_ja": "舞浜",
    "name_en": "Maihama",
    "lat": 35.636259,
    "lng": 139.8836057
  },
  {
    "id": "way/1028567694",
    "name_ja": "舞浜駅",
    "lat": 35.6356552,
    "lng": 139.8833247
  },
  {
    "id": "Q5507751",
    "name_ja": "福浦",
    "name_en": "Fukuura",
    "lat": 35.3496489,
    "lng": 139.6485436
  },
  {
    "id": "Q5510343",
    "name_ja": "福生",
    "name_en": "Fussa",
    "lat": 35.7423308,
    "lng": 139.3278791
  },
  {
    "id": "Q844699",
    "name_ja": "淵野辺",
    "name_en": "Fuchinobe",
    "lat": 35.568732,
    "lng": 139.3948202
  },
  {
    "id": "way/1346845011",
    "name_ja": "淵野辺駅北口2",
    "lat": 35.5692407,
    "lng": 139.3943896
  },
  {
    "id": "Q5001507",
    "name_ja": "仏子",
    "name_en": "Bushi",
    "lat": 35.8377028,
    "lng": 139.3599938
  },
  {
    "id": "Q6901635",
    "name_ja": "物井",
    "name_en": "Monoi",
    "lat": 35.685674,
    "lng": 140.2002938
  },
  {
    "id": "Q857315",
    "name_ja": "分倍河原",
    "name_en": "Bubaigawara",
    "lat": 35.6684475,
    "lng": 139.4689952
  },
  {
    "id": "node/2398055494",
    "name_ja": "文教大学",
    "lat": 35.3686615,
    "lng": 139.4158154
  },
  {
    "id": "Q909531",
    "name_ja": "平井",
    "name_en": "Hirai",
    "lat": 35.706421,
    "lng": 139.8425004
  },
  {
    "id": "Q5366557",
    "name_ja": "平間",
    "name_en": "Hirama",
    "lat": 35.5609755,
    "lng": 139.6709343
  },
  {
    "id": "Q11482566",
    "name_ja": "平山",
    "name_en": "Hirayama",
    "lat": 35.2743594,
    "lng": 140.0648667
  },
  {
    "id": "Q4497858",
    "name_ja": "平山城址公園",
    "name_en": "Hirayamajoshi-koen",
    "lat": 35.647517,
    "lng": 139.3803307
  },
  {
    "id": "Q5769436",
    "name_ja": "平沼橋",
    "name_en": "Hiranuma-bashi",
    "lat": 35.4596654,
    "lng": 139.6163426
  },
  {
    "id": "Q372513",
    "name_ja": "平塚",
    "name_en": "Hiratsuka",
    "lat": 35.3274105,
    "lng": 139.3492322
  },
  {
    "id": "Q5367220",
    "name_ja": "平和島",
    "name_en": "Heiwajima",
    "lat": 35.5787037,
    "lng": 139.7349686
  },
  {
    "id": "Q6961853",
    "name_ja": "並木中央",
    "name_en": "Namiki-Chuo",
    "lat": 35.3654383,
    "lng": 139.6429378
  },
  {
    "id": "Q6961854",
    "name_ja": "並木北",
    "name_en": "Namiki-Kita",
    "lat": 35.371877,
    "lng": 139.642701
  },
  {
    "id": "Q1058370",
    "name_ja": "片瀬江ノ島",
    "name_en": "Katase-Enoshima",
    "lat": 35.308873,
    "lng": 139.483502
  },
  {
    "id": "Q4251612",
    "name_ja": "片瀬山",
    "name_en": "Kataseyama",
    "lat": 35.3172654,
    "lng": 139.4960143
  },
  {
    "id": "Q844653",
    "name_ja": "片倉",
    "name_en": "Katakura",
    "lat": 35.6398013,
    "lng": 139.3414342
  },
  {
    "id": "node/13075427024",
    "name_ja": "片倉台",
    "lat": 35.6319388,
    "lng": 139.3474216
  },
  {
    "id": "Q589860",
    "name_ja": "片倉町",
    "name_en": "Katakuracho",
    "lat": 35.4900761,
    "lng": 139.6064834
  },
  {
    "id": "Q1392590",
    "name_ja": "弁天橋",
    "name_en": "Bentembashi",
    "lat": 35.4957391,
    "lng": 139.6893894
  },
  {
    "id": "Q843153",
    "name_ja": "保谷",
    "name_en": "Hoya",
    "lat": 35.7483016,
    "lng": 139.5673646
  },
  {
    "id": "Q558549",
    "name_ja": "保田",
    "name_en": "Hota",
    "lat": 35.1410607,
    "lng": 139.8383441
  },
  {
    "id": "Q844185",
    "name_ja": "保土ヶ谷",
    "name_en": "Hodogaya",
    "lat": 35.4466889,
    "lng": 139.5997021
  },
  {
    "id": "Q1040938",
    "name_ja": "宝町",
    "name_en": "Takaracho",
    "lat": 35.6754339,
    "lng": 139.7718846
  },
  {
    "id": "Q1078437",
    "name_ja": "方南町",
    "name_en": "Honancho",
    "lat": 35.6835007,
    "lng": 139.6576888
  },
  {
    "id": "way/1450659912",
    "name_ja": "法政大学(仮設)",
    "lat": 35.6135889,
    "lng": 139.2964735
  },
  {
    "id": "way/1242012242",
    "name_ja": "豊ヶ丘四丁目",
    "lat": 35.6140809,
    "lng": 139.4374649
  },
  {
    "id": "Q7830720",
    "name_ja": "豊四季",
    "name_en": "Toyoshiki",
    "lat": 35.8665483,
    "lng": 139.9395437
  },
  {
    "id": "Q1141968",
    "name_ja": "豊洲",
    "name_en": "Toyosu",
    "lat": 35.6537483,
    "lng": 139.7954103
  },
  {
    "id": "Q5368674",
    "name_ja": "豊春",
    "name_en": "Toyoharu",
    "lat": 35.9680359,
    "lng": 139.7262512
  },
  {
    "id": "Q867338",
    "name_ja": "豊田",
    "name_en": "Toyoda",
    "lat": 35.6595146,
    "lng": 139.3814849
  },
  {
    "id": "Q906947",
    "name_ja": "豊島園",
    "name_en": "Toshimaen",
    "lat": 35.7424193,
    "lng": 139.6479768
  },
  {
    "id": "Q1040951",
    "name_ja": "北綾瀬",
    "name_en": "Kita-ayase",
    "lat": 35.7768999,
    "lng": 139.832145
  },
  {
    "id": "Q801021",
    "name_ja": "北浦和",
    "name_en": "Kita-Urawa",
    "lat": 35.8721554,
    "lng": 139.6461059
  },
  {
    "id": "Q842492",
    "name_ja": "北越谷",
    "name_en": "Kita-koshigaya",
    "lat": 35.9020801,
    "lng": 139.7798381
  },
  {
    "id": "Q910286",
    "name_ja": "北鎌倉",
    "name_en": "Kita-Kamakura",
    "lat": 35.3373128,
    "lng": 139.5452639
  },
  {
    "id": "Q6417522",
    "name_ja": "北茅ヶ崎",
    "name_en": "Kita-Chigasaki",
    "lat": 35.3390937,
    "lng": 139.4076164
  },
  {
    "id": "Q5370713",
    "name_ja": "北久里浜",
    "name_en": "Kitakurihama",
    "lat": 35.249514,
    "lng": 139.6864169
  },
  {
    "id": "Q844358",
    "name_ja": "北戸田",
    "name_en": "Kita-Toda",
    "lat": 35.8276529,
    "lng": 139.6601108
  },
  {
    "id": "node/7430414900",
    "name_ja": "北口",
    "lat": 35.7194211,
    "lng": 139.6648465
  },
  {
    "id": "Q5366284",
    "name_ja": "北国分",
    "name_en": "Kita-Kokubun",
    "lat": 35.7629783,
    "lng": 139.9140684
  },
  {
    "id": "Q6417594",
    "name_ja": "北坂戸",
    "name_en": "Kita-sakado",
    "lat": 35.9718969,
    "lng": 139.3967234
  },
  {
    "id": "Q128322",
    "name_ja": "北参道",
    "name_en": "Kita-sando",
    "lat": 35.6784974,
    "lng": 139.705414
  },
  {
    "id": "Q6417619",
    "name_ja": "北山田",
    "name_en": "Kita-yamata",
    "lat": 35.5610885,
    "lng": 139.5921504
  },
  {
    "id": "Q6417578",
    "name_ja": "北習志野",
    "name_en": "Kita-narashino",
    "lat": 35.7214536,
    "lng": 140.0417146
  },
  {
    "id": "Q6417560",
    "name_ja": "北春日部",
    "name_en": "Kita-Kasukabe",
    "lat": 35.9905638,
    "lng": 139.7440126
  },
  {
    "id": "Q6445119",
    "name_ja": "北初富",
    "name_en": "Kita-hatsutomi",
    "lat": 35.7772205,
    "lng": 139.9918248
  },
  {
    "id": "Q5364850",
    "name_ja": "北小金",
    "name_en": "Kita-Kogane",
    "lat": 35.8334292,
    "lng": 139.9312051
  },
  {
    "id": "Q5364690",
    "name_ja": "北松戸",
    "name_en": "Kita-Matsudo",
    "lat": 35.8005359,
    "lng": 139.911864
  },
  {
    "id": "Q845123",
    "name_ja": "北上尾",
    "name_en": "Kita-Ageo",
    "lat": 35.9856142,
    "lng": 139.5771545
  },
  {
    "id": "Q852295",
    "name_ja": "北新横浜",
    "name_en": "Kita-shin-yokohama",
    "lat": 35.5192766,
    "lng": 139.6128054
  },
  {
    "id": "Q844401",
    "name_ja": "北赤羽",
    "name_en": "Kita-Akabane",
    "lat": 35.7867812,
    "lng": 139.7060288
  },
  {
    "id": "Q801026",
    "name_ja": "北千住",
    "name_en": "Kita-Senju",
    "lat": 35.7495401,
    "lng": 139.8050915
  },
  {
    "id": "Q6417605",
    "name_ja": "北千束",
    "name_en": "Kita-senzoku",
    "lat": 35.6065472,
    "lng": 139.6928877
  },
  {
    "id": "Q5367635",
    "name_ja": "北大宮",
    "name_en": "Kita-omiya",
    "lat": 35.917609,
    "lng": 139.6248125
  },
  {
    "id": "Q6417547",
    "name_ja": "北池袋",
    "name_en": "Kita-ikebukuro",
    "lat": 35.7409856,
    "lng": 139.7168198
  },
  {
    "id": "Q6417515",
    "name_ja": "北朝霞",
    "name_en": "Kita-Asaka",
    "lat": 35.8153174,
    "lng": 139.5869967
  },
  {
    "id": "Q5364151",
    "name_ja": "北柏",
    "name_en": "Kita-Kashiwa",
    "lat": 35.87565,
    "lng": 139.9880138
  },
  {
    "id": "Q844347",
    "name_ja": "北八王子",
    "name_en": "Kita-Hachiōji",
    "lat": 35.6693559,
    "lng": 139.3634231
  },
  {
    "id": "Q858214",
    "name_ja": "北品川",
    "name_en": "Kitashinagawa",
    "lat": 35.6220705,
    "lng": 139.7392733
  },
  {
    "id": "Q6417528",
    "name_ja": "北府中",
    "name_en": "Kita-Fuchu",
    "lat": 35.6807665,
    "lng": 139.4717547
  },
  {
    "id": "Q4222444",
    "name_ja": "北野",
    "name_en": "Kitano",
    "lat": 35.6446036,
    "lng": 139.3540839
  },
  {
    "id": "Q844444",
    "name_ja": "北与野",
    "name_en": "Kita-Yono",
    "lat": 35.890369,
    "lng": 139.6284122
  },
  {
    "id": "way/446571492",
    "name_ja": "北里大学スクールバス乗り場",
    "lat": 35.5333848,
    "lng": 139.4383015
  },
  {
    "id": "node/9131883337",
    "name_ja": "北里大学病院・北里大学",
    "lat": 35.5374548,
    "lng": 139.3940241
  },
  {
    "id": "node/2528742197",
    "name_ja": "墨田区役所前",
    "lat": 35.7109936,
    "lng": 139.8005662
  },
  {
    "id": "Q5370292",
    "name_ja": "堀ノ内",
    "name_en": "Horinouchi",
    "lat": 35.2636035,
    "lng": 139.686646
  },
  {
    "id": "Q5903267",
    "name_ja": "堀切",
    "name_en": "Horikiri",
    "lat": 35.7432581,
    "lng": 139.8176989
  },
  {
    "id": "Q5903250",
    "name_ja": "堀切菖蒲園",
    "name_en": "Horikirishobuen",
    "lat": 35.7476751,
    "lng": 139.8274834
  },
  {
    "id": "Q80774",
    "name_ja": "本郷三丁目",
    "name_en": "Hongo-sanchome",
    "lat": 35.7066386,
    "lng": 139.7599627
  },
  {
    "id": "Q844379",
    "name_ja": "本郷台",
    "name_en": "Hongodai",
    "lat": 35.3674374,
    "lng": 139.5503004
  },
  {
    "id": "Q151419",
    "name_ja": "本駒込",
    "name_en": "Hon-komagome",
    "lat": 35.7247631,
    "lng": 139.7537008
  },
  {
    "id": "Q4499730",
    "name_ja": "本厚木",
    "name_en": "Hon-Atsugi",
    "lat": 35.4393177,
    "lng": 139.3642806
  },
  {
    "id": "Q4499731",
    "name_ja": "本鵠沼",
    "name_en": "Hon-Kugenuma",
    "lat": 35.3307774,
    "lng": 139.4748737
  },
  {
    "id": "Q910813",
    "name_ja": "本所吾妻橋",
    "name_en": "Honjo-azumabashi",
    "lat": 35.7085609,
    "lng": 139.8043487
  },
  {
    "id": "Q4389608",
    "name_ja": "本千葉",
    "name_en": "Hon-Chiba",
    "lat": 35.6011214,
    "lng": 140.1210196
  },
  {
    "id": "Q842892",
    "name_ja": "本川越",
    "name_en": "Hon-Kawagoe",
    "lat": 35.9140896,
    "lng": 139.4812498
  },
  {
    "id": "Q1142065",
    "name_ja": "本八幡",
    "name_en": "Motoyawata",
    "lat": 35.7237135,
    "lng": 139.9270611
  },
  {
    "id": "Q11520547",
    "name_ja": "本牧埠頭",
    "name_en": "Hommoku-Futō",
    "lat": 35.4319421,
    "lng": 139.6741587
  },
  {
    "id": "Q1039257",
    "name_ja": "本蓮沼",
    "name_en": "Motohasunuma",
    "lat": 35.7685214,
    "lng": 139.7024438
  },
  {
    "id": "Q112382",
    "name_ja": "麻布十番",
    "name_en": "Azabu-juban",
    "lat": 35.6565014,
    "lng": 139.7361613
  },
  {
    "id": "Q908755",
    "name_ja": "幕張",
    "name_en": "Makuhari",
    "lat": 35.659323,
    "lng": 140.0579864
  },
  {
    "id": "Q87064803",
    "name_ja": "幕張豊砂",
    "name_en": "Makuharitoyosuna",
    "lat": 35.6582169,
    "lng": 140.026842
  },
  {
    "id": "node/2751364944",
    "name_ja": "幕張本郷駅",
    "lat": 35.6725304,
    "lng": 140.0415013
  },
  {
    "id": "Q6748797",
    "name_ja": "万願寺",
    "name_en": "Manganji",
    "lat": 35.6712772,
    "lng": 139.4200659
  },
  {
    "id": "Q128795",
    "name_ja": "妙典",
    "name_en": "Myoden",
    "lat": 35.6910897,
    "lng": 139.9244066
  },
  {
    "id": "Q6949405",
    "name_ja": "妙蓮寺",
    "name_en": "Myorenji",
    "lat": 35.4985364,
    "lng": 139.6332256
  },
  {
    "id": "Q80429",
    "name_ja": "明治神宮前〈原宿〉",
    "name_en": "Meiji-jingumae 'Harajuku'",
    "lat": 35.6689704,
    "lng": 139.7043604
  },
  {
    "id": "node/1484933113",
    "name_ja": "明石町・聖路加ガーデン前",
    "lat": 35.665265,
    "lng": 139.7780707
  },
  {
    "id": "Q906793",
    "name_ja": "明大前",
    "name_en": "Meidaimae",
    "lat": 35.6684337,
    "lng": 139.6504275
  },
  {
    "id": "Q11663788",
    "name_ja": "面影橋",
    "name_en": "Omokagebashi",
    "lat": 35.7130061,
    "lng": 139.714259
  },
  {
    "id": "Q844988",
    "name_ja": "毛呂",
    "name_en": "Moro",
    "lat": 35.9403972,
    "lng": 139.3093003
  },
  {
    "id": "Q6414520",
    "name_ja": "木下",
    "name_en": "Kioroshi",
    "lat": 35.8389123,
    "lng": 140.1483223
  },
  {
    "id": "Q575433",
    "name_ja": "木更津",
    "name_en": "Kisarazu",
    "lat": 35.3816066,
    "lng": 139.9262431
  },
  {
    "id": "Q126770",
    "name_ja": "木場",
    "name_en": "Kiba",
    "lat": 35.669416,
    "lng": 139.8065455
  },
  {
    "id": "Q678461",
    "name_ja": "目黒",
    "name_en": "Meguro",
    "lat": 35.6325078,
    "lng": 139.7157717
  },
  {
    "id": "Q375154",
    "name_ja": "目白",
    "name_en": "Mejiro",
    "lat": 35.7211919,
    "lng": 139.7064645
  },
  {
    "id": "Q1094934",
    "name_ja": "目白山下",
    "name_en": "Mejiroyamashita",
    "lat": 35.3139868,
    "lng": 139.4914141
  },
  {
    "id": "Q80576",
    "name_ja": "門前仲町",
    "name_en": "Monzen-nakacho",
    "lat": 35.6722878,
    "lng": 139.7950674
  },
  {
    "id": "Q6345663",
    "name_ja": "門沢橋",
    "name_en": "Kadosawabashi",
    "lat": 35.4066798,
    "lng": 139.3801795
  },
  {
    "id": "node/5839174044",
    "name_ja": "野菊野団地集会所",
    "lat": 35.7795375,
    "lng": 139.9128926
  },
  {
    "id": "Q11645982",
    "name_ja": "野田市",
    "name_en": "Nodashi",
    "lat": 35.9435663,
    "lng": 139.8706476
  },
  {
    "id": "Q7047813",
    "name_ja": "野島公園",
    "name_en": "Nojimakoen",
    "lat": 35.3305191,
    "lng": 139.6314529
  },
  {
    "id": "Q260859",
    "name_ja": "野方",
    "name_en": "Nogata",
    "lat": 35.7196957,
    "lng": 139.6531263
  },
  {
    "id": "Q8050550",
    "name_ja": "弥生台",
    "name_en": "Yayoidai",
    "lat": 35.4298971,
    "lng": 139.5063488
  },
  {
    "id": "Q8046756",
    "name_ja": "矢口渡",
    "name_en": "Yaguchi-no-watashi",
    "lat": 35.5625766,
    "lng": 139.7002588
  },
  {
    "id": "Q5367593",
    "name_ja": "矢向",
    "name_en": "Yako",
    "lat": 35.5391816,
    "lng": 139.6805119
  },
  {
    "id": "Q5370868",
    "name_ja": "矢切",
    "name_en": "Yagiri",
    "lat": 35.7575055,
    "lng": 139.9005501
  },
  {
    "id": "Q5366364",
    "name_ja": "矢川",
    "name_en": "Yagawa",
    "lat": 35.6850922,
    "lng": 139.4314996
  },
  {
    "id": "Q844663",
    "name_ja": "矢部",
    "name_en": "Yabe",
    "lat": 35.5730985,
    "lng": 139.3867585
  },
  {
    "id": "Q5366316",
    "name_ja": "矢野口",
    "name_en": "Yanokuchi",
    "lat": 35.6416594,
    "lng": 139.520527
  },
  {
    "id": "Q8047226",
    "name_ja": "薬園台",
    "name_en": "Yakuendai",
    "lat": 35.7101593,
    "lng": 140.0377036
  },
  {
    "id": "Q859740",
    "name_ja": "柳小路",
    "name_en": "Yanagikoji",
    "lat": 35.3276307,
    "lng": 139.4851812
  },
  {
    "id": "Q8048266",
    "name_ja": "柳瀬川",
    "name_en": "Yanasegawa",
    "lat": 35.8307998,
    "lng": 139.5621036
  },
  {
    "id": "node/3007769470",
    "name_ja": "柳沢駅",
    "lat": 35.728372,
    "lng": 139.553079
  },
  {
    "id": "Q801655",
    "name_ja": "有楽町",
    "name_en": "Yurakucho",
    "lat": 35.6749598,
    "lng": 139.7630483
  },
  {
    "id": "way/849402433",
    "name_ja": "有楽町線 永田町駅",
    "lat": 35.6780711,
    "lng": 139.7415115
  },
  {
    "id": "Q17719",
    "name_ja": "有明",
    "name_en": "Ariake",
    "lat": 35.6345562,
    "lng": 139.7932562
  },
  {
    "id": "node/10273657989",
    "name_ja": "有明アリーナ船着場",
    "lat": 35.6449156,
    "lng": 139.7950918
  },
  {
    "id": "Q373913",
    "name_ja": "有明テニスの森",
    "name_en": "Ariake-Tennis-no-mori",
    "lat": 35.6401034,
    "lng": 139.7887923
  },
  {
    "id": "node/730688999",
    "name_ja": "有明客船ターミナル",
    "name_en": "Ariake Passenger Terminal",
    "lat": 35.6293753,
    "lng": 139.7925456
  },
  {
    "id": "Q859070",
    "name_ja": "由比ヶ浜",
    "name_en": "Yuigahama",
    "lat": 35.312772,
    "lng": 139.5413644
  },
  {
    "id": "Q3178446",
    "name_ja": "祐天寺",
    "name_en": "Yutenji",
    "lat": 35.6375747,
    "lng": 139.6910072
  },
  {
    "id": "Q801652",
    "name_ja": "与野",
    "name_en": "Yono",
    "lat": 35.8843981,
    "lng": 139.6391522
  },
  {
    "id": "Q844390",
    "name_ja": "与野本町",
    "name_en": "Yono-Hommachi",
    "lat": 35.8812024,
    "lng": 139.6260199
  },
  {
    "id": "Q5353370",
    "name_ja": "誉田",
    "name_en": "Honda",
    "lat": 35.5470106,
    "lng": 140.2138696
  },
  {
    "id": "Q844428",
    "name_ja": "洋光台",
    "name_en": "Yokodai",
    "lat": 35.3786975,
    "lng": 139.5964654
  },
  {
    "id": "Q5367233",
    "name_ja": "用賀",
    "name_en": "Yoga",
    "lat": 35.6266472,
    "lng": 139.6341544
  },
  {
    "id": "Q128296",
    "name_ja": "要町",
    "name_en": "Kanamecho",
    "lat": 35.7332405,
    "lng": 139.6986842
  },
  {
    "id": "Q852877",
    "name_ja": "踊場",
    "name_en": "Odoriba",
    "lat": 35.4056591,
    "lng": 139.5185313
  },
  {
    "id": "Q8062673",
    "name_ja": "養老渓谷",
    "name_en": "Yoro-Keikoku",
    "lat": 35.2664357,
    "lng": 140.1596044
  },
  {
    "id": "Q80579",
    "name_ja": "落合",
    "name_en": "Ochiai",
    "lat": 35.7106637,
    "lng": 139.6859133
  },
  {
    "id": "Q275510",
    "name_ja": "落合南長崎",
    "name_en": "Ochiai-minami-nagasaki",
    "lat": 35.7232248,
    "lng": 139.6835782
  },
  {
    "id": "Q7426357",
    "name_ja": "里見",
    "name_en": "Satomi",
    "lat": 35.336711,
    "lng": 140.1454885
  },
  {
    "id": "Q3019280",
    "name_ja": "立会川",
    "name_en": "Tachiaigawa",
    "lat": 35.5986986,
    "lng": 139.7389803
  },
  {
    "id": "Q573441",
    "name_ja": "立場",
    "name_en": "Tateba",
    "lat": 35.4142695,
    "lng": 139.5001991
  },
  {
    "id": "node/2293298391",
    "name_ja": "立場ターミナル",
    "name_en": "Tateba Terminal",
    "lat": 35.4140303,
    "lng": 139.5001938
  },
  {
    "id": "Q801501",
    "name_ja": "立川",
    "name_en": "Tachikawa",
    "lat": 35.6979822,
    "lng": 139.4135508
  },
  {
    "id": "way/185767830",
    "name_ja": "立川バス",
    "lat": 35.7134,
    "lng": 139.335797
  },
  {
    "id": "Q844178",
    "name_ja": "立川南",
    "name_en": "Tachikawa-Minami",
    "lat": 35.6961465,
    "lng": 139.4126
  },
  {
    "id": "Q844136",
    "name_ja": "立川北",
    "name_en": "Tachikawa-Kita",
    "lat": 35.6994167,
    "lng": 139.4124953
  },
  {
    "id": "Q7673726",
    "name_ja": "立飛",
    "name_en": "Tachihi",
    "lat": 35.7144509,
    "lng": 139.4171959
  },
  {
    "id": "Q11556674",
    "name_ja": "流山",
    "name_en": "Nagareyama",
    "lat": 35.8558741,
    "lng": 139.9016914
  },
  {
    "id": "Q841689",
    "name_ja": "流山おおたかの森",
    "name_en": "Nagareyama-Otakanomori",
    "lat": 35.8720262,
    "lng": 139.9258942
  },
  {
    "id": "Q850570",
    "name_ja": "流山セントラルパーク",
    "name_en": "Nagareyama-centralpark",
    "lat": 35.854607,
    "lng": 139.9152399
  },
  {
    "id": "Q5367298",
    "name_ja": "流通センター",
    "name_en": "Ryutsu Center",
    "lat": 35.5816815,
    "lng": 139.7491265
  },
  {
    "id": "Q277208",
    "name_ja": "溜池山王",
    "name_en": "Tameike-sanno",
    "lat": 35.6729903,
    "lng": 139.741424
  },
  {
    "id": "Q7385617",
    "name_ja": "竜ヶ崎",
    "name_en": "Ryugasaki",
    "lat": 35.9084135,
    "lng": 140.1793295
  },
  {
    "id": "Q89525862",
    "name_ja": "龍ケ崎市",
    "name_en": "Ryugasakishi",
    "lat": 35.9300777,
    "lng": 140.1382428
  },
  {
    "id": "Q801389",
    "name_ja": "両国",
    "name_en": "Ryogoku",
    "lat": 35.6957996,
    "lng": 139.7929596
  },
  {
    "id": "Q6842941",
    "name_ja": "緑が丘",
    "name_en": "Midorigaoka",
    "lat": 35.6065599,
    "lng": 139.6790149
  },
  {
    "id": "Q7385303",
    "name_ja": "緑園都市",
    "name_en": "Ryokuen-toshi",
    "lat": 35.4394435,
    "lng": 139.5218816
  },
  {
    "id": "Q7651381",
    "name_ja": "鈴木町",
    "name_en": "Suzukicho",
    "lat": 35.5354136,
    "lng": 139.7206509
  },
  {
    "id": "Q6426270",
    "name_ja": "恋ヶ窪",
    "name_en": "Koigakubo",
    "lat": 35.7113064,
    "lng": 139.4640507
  },
  {
    "id": "Q906953",
    "name_ja": "練馬",
    "name_en": "Nerima",
    "lat": 35.737877,
    "lng": 139.6540818
  },
  {
    "id": "Q843164",
    "name_ja": "練馬高野台",
    "name_en": "Nerima-Takanodai",
    "lat": 35.7409213,
    "lng": 139.6163048
  },
  {
    "id": "Q275521",
    "name_ja": "練馬春日町",
    "name_en": "Nerima-kasugacho",
    "lat": 35.751398,
    "lng": 139.6403755
  },
  {
    "id": "Q1038786",
    "name_ja": "蓮根",
    "name_en": "Hasune",
    "lat": 35.7843239,
    "lng": 139.6790713
  },
  {
    "id": "Q5680732",
    "name_ja": "蓮沼",
    "name_en": "Hasunuma",
    "lat": 35.5642517,
    "lng": 139.70852
  },
  {
    "id": "Q872705",
    "name_ja": "蓮田",
    "name_en": "Hasuda",
    "lat": 35.9813997,
    "lng": 139.6530635
  },
  {
    "id": "Q11312859",
    "name_ja": "六浦",
    "name_en": "Mutsuura",
    "lat": 35.3225918,
    "lng": 139.6112899
  },
  {
    "id": "way/248280766",
    "name_ja": "六浦駅駅舎",
    "lat": 35.3225986,
    "lng": 139.6113064
  },
  {
    "id": "Q4309032",
    "name_ja": "六会日大前",
    "name_en": "Mutsuai-Nichidaimae",
    "lat": 35.3835313,
    "lng": 139.4708312
  },
  {
    "id": "Q7360103",
    "name_ja": "六郷土手",
    "name_en": "Rokugodote",
    "lat": 35.5406578,
    "lng": 139.7076671
  },
  {
    "id": "Q11392323",
    "name_ja": "六実",
    "name_en": "Mutsumi",
    "lat": 35.7938671,
    "lng": 139.9993452
  },
  {
    "id": "Q5369300",
    "name_ja": "六町",
    "name_en": "Rokucho",
    "lat": 35.7848565,
    "lng": 139.8218681
  },
  {
    "id": "Q1326723",
    "name_ja": "六本木",
    "name_en": "Roppongi",
    "lat": 35.6628364,
    "lng": 139.7313268
  },
  {
    "id": "Q1073717",
    "name_ja": "六本木一丁目",
    "name_en": "Roppongi-itchome",
    "lat": 35.6649728,
    "lng": 139.738849
  },
  {
    "id": "way/1094228874",
    "name_ja": "和光大学スクールバス乗り場",
    "lat": 35.580453,
    "lng": 139.4785503
  },
  {
    "id": "Q4197917",
    "name_ja": "和泉多摩川",
    "name_en": "Izumi-Tamagawa",
    "lat": 35.6275123,
    "lng": 139.5737269
  },
  {
    "id": "Q7958950",
    "name_ja": "和田町",
    "name_en": "Wadamachi",
    "lat": 35.4636072,
    "lng": 139.5868099
  },
  {
    "id": "Q858969",
    "name_ja": "和田塚",
    "name_en": "Wadazuka",
    "lat": 35.3137097,
    "lng": 139.5455001
  },
  {
    "id": "Q786349",
    "name_ja": "蕨",
    "name_en": "Warabi",
    "lat": 35.8281232,
    "lng": 139.6903799
  },
  {
    "id": "Q5004739",
    "name_ja": "屏風浦",
    "name_en": "Byobugaura",
    "lat": 35.3942114,
    "lng": 139.6103847
  },
  {
    "id": "Q6788024",
    "name_ja": "獨協大学前〈草加松原〉",
    "name_en": "Dokkyodaigakumae〈Soka-Matsubara〉",
    "lat": 35.8434099,
    "lng": 139.8006128
  },
  {
    "id": "Q5361691",
    "name_ja": "糀谷",
    "name_en": "Kojiya",
    "lat": 35.5547016,
    "lng": 139.7294667
  },
  {
    "id": "Q1078367",
    "name_ja": "茗荷谷",
    "name_en": "Myogadani",
    "lat": 35.7171896,
    "lng": 139.7369396
  },
  {
    "id": "Q11621166",
    "name_ja": "葭川公園",
    "name_en": "Yoshikawa-Koen",
    "lat": 35.6088494,
    "lng": 140.1200969
  },
  {
    "id": "Q801546",
    "name_ja": "鶯谷",
    "name_en": "Uguisudani",
    "lat": 35.7217035,
    "lng": 139.7779166
  },
  {
    "id": "way/517681252",
    "name_ja": "鶯谷駅(北口)",
    "lat": 35.7224537,
    "lng": 139.7776796
  }
]